##########################################################
# Query made at 12/13/2025 04:36:15 UTC
# Time interval: from 12/10/2014 00:00  to 12/30/2014 23:59  UTC
##########################################################

##########################################################
# VIDP, New Delhi / Palam (India)
# WMO index: 42181. WIGOS ID: 0-20000-0-42181
# Latitude 28-34-00N. Longitude 077-07-00E. Altitude 225 m.
##########################################################

###################################
#  METAR/SPECI from VIDP
###################################
201412100000 METAR VIDP 100000Z 00000KT 0500 R28/P2000 R29/1600 FG NSC 10/09 Q1017 NOSIG=
201412100005 METAR VIDP NIL=
201412100030 METAR VIDP 100030Z 00000KT 0500 R28/P2000 R29/1400 FG NSC 10/09 Q1017 NOSIG=
201412100100 METAR VIDP 100100Z 00000KT 0500 R28/P2000 R29/1400 FG NSC 09/08 Q1017 NOSIG=
201412100105 METAR VIDP NIL=
201412100130 METAR VIDP 100130Z 00000KT 0500 R28/P2000 R29/1400 FG NSC 09/09 Q1018 NOSIG=
201412100200 METAR VIDP 100200Z 00000KT 0400 R28/2000 R29/0800 FG NSC 10/09 Q1018 TEMPO 0350=
201412100205 METAR VIDP NIL=
201412100230 METAR VIDP 100230Z 27003KT 0400 R28/2000 R29/0600 FG NSC 10/10 Q1019 TEMPO 0600=
201412100300 METAR VIDP 100300Z 25003KT 0500 R28/2000 R29/0600 FG NSC 11/10 Q1019 TEMPO 0600=
201412100305 METAR VIDP NIL=
201412100330 METAR VIDP 100330Z 27004KT 0600 R28/2000 R29/0600 MIFG NSC 12/10 Q1019 BECMG 0800=
201412100405 METAR VIDP NIL=
201412100430 METAR VIDP 100430Z 33004KT 1400 R28/2000 R29/1800 FU NSC 17/07 Q1020 BECMG 1500=
201412100500 METAR VIDP 100500Z 34004KT 1800 R28/29/P2000 FU NSC 19/07 Q1019=
201412100505 METAR VIDP NIL=
201412100530 METAR VIDP 100530Z 34004KT 2100 FU NSC 20/07 Q1019 NOSIG=
201412100600 METAR VIDP 100600Z 32004KT 2200 FU NSC 21/07 Q1019 NOSIG=
201412100605 METAR VIDP NIL=
201412100630 METAR VIDP 100630Z 32006KT 2500 FU NSC 22/06 Q1018 NOSIG=
201412100700 METAR VIDP 100700Z 34008KT 2800 FU NSC 23/06 Q1018 BECMG 3000=
201412100705 METAR VIDP NIL=
201412100730 METAR VIDP NIL=
201412100800 METAR VIDP 100800Z 34008KT 3100 FU NSC 24/06 Q1017 NOSIG=
201412100805 METAR VIDP NIL=
201412100830 METAR VIDP 100830Z 32013KT 3500 HZ NSC 24/00 Q1016 NOSIG=
201412100900 METAR VIDP 100900Z 31006G16KT 4500 HZ NSC 24/M05 Q1016 BECMG 5000=
201412100905 METAR VIDP NIL=
201412101000 METAR VIDP 101000Z 32006G16KT 5000 HZ NSC 23/M05 Q1015 NOSIG=
201412101005 METAR VIDP NIL=
201412101030 METAR VIDP 101030Z 33009KT 5000 HZ NSC 23/M05 Q1015 NOSIG=
201412101100 METAR VIDP 101100Z 32009KT 5000 HZ NSC 23/M05 Q1016 NOSIG=
201412101105 METAR VIDP NIL=
201412101130 METAR VIDP 101130Z 32009KT 5000 HZ NSC 22/M05 Q1016 NOSIG=
201412101200 METAR VIDP 101200Z 31009KT 4500 HZ NSC 21/M05 Q1016 NOSIG=
201412101205 METAR VIDP NIL=
201412101230 METAR VIDP 101230Z 33005KT 4000 HZ NSC 20/M04 Q1016 NOSIG=
201412101300 METAR VIDP 101300Z 32005KT 3500 HZ NSC 19/M03 Q1016 NOSIG=
201412101305 METAR VIDP NIL=
201412101330 METAR VIDP 101330Z 00000KT 3100 FU NSC 17/02 Q1017 BECMG 3000=
201412101405 METAR VIDP NIL=
201412101430 METAR VIDP 101430Z 00000KT 2200 FU NSC 15/03 Q1017 NOSIG=
201412101500 METAR VIDP 101500Z 00000KT 2000 R28/P2000 R29/P2000 FU NSC 14/03 Q1017 NOSIG=
201412101505 METAR VIDP NIL=
201412101530 METAR VIDP 101530Z 00000KT 1800 R28/P2000 R29/P2000 FU NSC 13/03 Q1017 NOSIG=
201412101600 METAR VIDP 101600Z 00000KT 1800 R28/P2000 R29/P2000 FU NSC 13/03 Q1018 NOSIG=
201412101605 METAR VIDP NIL=
201412101630 METAR VIDP 101630Z 00000KT 1800 R28/P2000 R29/P2000 FU NSC 13/03 Q1018 NOSIG=
201412101700 METAR VIDP 101700Z 00000KT 1600 R28/29/P2000 FU NSC 13/03 Q1018 BECMG 1500=
201412101705 METAR VIDP NIL=
201412101730 METAR VIDP NIL=
201412101800 METAR VIDP 101800Z 00000KT 1500 R28/P2000 R29/P2000 FU NSC 12/02 Q1018 NOSIG=
201412101805 METAR VIDP NIL=
201412101830 METAR VIDP 101830Z 00000KT 1500 R28/P2000 R29/P2000 FU NSC 11/02 Q1017 NOSIG=
201412101900 METAR VIDP 101900Z 00000KT 1500 R28/P2000 R29/P2000 FU NSC 11/02 Q1017 NOSIG=
201412101905 METAR VIDP NIL=
201412101930 METAR VIDP 101930Z 00000KT 1500 R28/P2000 R29/P2000 FU NSC 11/02 Q1017 NOSIG=
201412102000 METAR VIDP 102000Z 00000KT 1500 R28/29/P2000 FU NSC 11/02 Q1017 NOSIG=
201412102005 METAR VIDP NIL=
201412102030 METAR VIDP 102030Z 00000KT 1500 R28/29/P2000 FU NSC 11/02 Q1017 NOSIG=
201412102100 METAR VIDP 102100Z 24003KT 1500 R28/29/P2000 FU NSC 10/02 Q1017 NOSIG=
201412102105 METAR VIDP NIL=
201412102130 METAR VIDP 102130Z 23003KT 1500 R28/29/P2000 FU NSC 10/02 Q1017 NOSIG=
201412102200 METAR VIDP 102200Z 23003KT 1500 R28/P2000 R29/P2000 FU NSC 10/02 Q1017 NOSIG=
201412102205 METAR VIDP NIL=
201412102230 METAR VIDP 102230Z 24004KT 1500 R28/P2000 R29/P2000 FU NSC 10/03 Q1017 NOSIG=
201412102300 METAR VIDP 102300Z 00000KT 1500 R28/P2000 R29/P2000 FU NSC 09/03 Q1017 NOSIG=
201412102305 METAR VIDP NIL=
201412102330 METAR VIDP 102330Z 00000KT 1500 R28/P2000 R29/P2000 FU NSC 09/03 Q1017 NOSIG=
201412110000 METAR VIDP 110000Z 00000KT 1500 R28/P2000 R29/P2000 FU NSC 09/03 Q1017 NOSIG=
201412110005 METAR VIDP NIL=
201412110030 METAR VIDP 110030Z 00000KT 1500 R28/P2000 R29/P2000 FU NSC 09/04 Q1018 NOSIG=
201412110100 METAR VIDP 110100Z 00000KT 1500 R28/P2000 R29/P2000 FU NSC 09/04 Q1018 NOSIG=
201412110105 METAR VIDP NIL=
201412110130 METAR VIDP 110130Z 00000KT 1500 R28/P2000 R29/P2000 FU NSC 08/04 Q1018 NOSIG=
201412110200 METAR VIDP 110200Z 00000KT 1500 R28/P2000 R29/P2000 FU NSC 08/04 Q1018 NOSIG=
201412110205 METAR VIDP NIL=
201412110230 METAR VIDP 110230Z 00000KT 1500 R28/P2000 R29/P2000 FU NSC 08/04 Q1019 NOSIG=
201412110300 METAR VIDP 110300Z 00000KT 1500 R28/P2000 R29/P2000 FU NSC 10/04 Q1019 NOSIG=
201412110305 METAR VIDP NIL=
201412110330 METAR VIDP 110330Z 25006KT 2000 FU NSC 11/03 Q1019 NOSIG=
201412110400 METAR VIDP 110400Z 25008KT 2500 FU NSC 13/02 Q1019 NOSIG=
201412110405 METAR VIDP NIL=
201412110430 METAR VIDP 110430Z 25007KT 2500 FU NSC 14/02 Q1020 NOSIG=
201412110500 METAR VIDP 110500Z 25006KT 2500 FU NSC 15/03 Q1020 NOSIG=
201412110505 METAR VIDP NIL=
201412110530 METAR VIDP 110530Z 25005KT 2500 FU NSC 16/04 Q1020 NOSIG=
201412110600 METAR VIDP 110600Z 25006KT 2500 FU NSC 17/04 Q1020 NOSIG=
201412110605 METAR VIDP NIL=
201412110630 METAR VIDP 110630Z 27006KT 2500 FU NSC 18/03 Q1019 NOSIG=
201412110700 METAR VIDP 110700Z 27007KT 2500 FU NSC 19/02 Q1018 NOSIG=
201412110705 METAR VIDP NIL=
201412110730 METAR VIDP 110730Z 27007KT 2500 FU NSC 20/02 Q1017 NOSIG=
201412110800 METAR VIDP 110800Z 27007KT 2800 FU NSC 21/02 Q1017 NOSIG=
201412110805 METAR VIDP NIL=
201412110830 METAR VIDP 110830Z 28006KT 2800 HZ NSC 21/01 Q1016 BECMG VIS 3000=
201412110900 METAR VIDP 110900Z 28008KT 2800 HZ NSC 20/00 Q1016 BECMG VIS 3000=
201412110905 METAR VIDP NIL=
201412111000 METAR VIDP 111000Z 30008KT 3000 HZ NSC 21/M01 Q1016 NOSIG=
201412111005 METAR VIDP NIL=
201412111030 METAR VIDP 111030Z 29007KT 3100 HZ NSC 22/M01 Q1016 NOSIG=
201412111100 METAR VIDP 111100Z 28007KT 3100 HZ NSC 21/00 Q1016 BECMG 3000=
201412111105 METAR VIDP NIL=
201412111130 METAR VIDP 111130Z 28005KT 3100 HZ NSC 19/01 Q1016 BECMG 3000=
201412111205 METAR VIDP NIL=
201412111230 METAR VIDP 111230Z 00000KT 2100 HZ FEW100 16/03 Q1015 NOSIG=
201412111300 METAR VIDP 111300Z 27003KT 2100 HZ FEW100 16/03 Q1015 NOSIG=
201412111305 METAR VIDP NIL=
201412111330 METAR VIDP 111330Z 26003KT 2000 FU SCT100 16/03 Q1016 NOSIG=
201412111400 METAR VIDP 111400Z 26003KT 2000 FU SCT100 15/03 Q1016 NOSIG=
201412111405 METAR VIDP NIL=
201412111430 METAR VIDP 111430Z 26002KT 2000 FU SCT100 14/03 Q1016 NOSIG=
201412111500 METAR VIDP 111500Z 00000KT 1800 R28/29/P2000 FU SCT100 14/03 Q1017 NOSIG=
201412111505 METAR VIDP NIL=
201412111530 METAR VIDP 111530Z 00000KT 1800 R28/29/P2000 FU SCT100 13/04 Q1017 NOSIG=
201412111600 METAR VIDP 111600Z 00000KT 1800 R28/29/P2000 FU SCT100 13/04 Q1017 NOSIG=
201412111605 METAR VIDP NIL=
201412111630 METAR VIDP 111630Z 00000KT 1800 R28/29/P2000 FU FEW040 SCT100 12/04 Q1017 NOSIG=
201412111700 METAR VIDP 111700Z 00000KT 1600 R28/29/P2000 FU FEW040 SCT100 11/05 Q1017 BECMG 1500=
201412111705 METAR VIDP NIL=
201412111800 METAR VIDP 111800Z 00000KT 1400 R28/29/P2000 FU FEW040 SCT100 11/05 Q1017 NOSIG=
201412111805 METAR VIDP NIL=
201412111830 METAR COR VIDP 111830Z 00000KT 1200 R28/29/P2000 FU FEW040 SCT100 10/05 Q1017 NOSIG=
201412111900 METAR VIDP 111900Z 00000KT 1000 R28/29/P2000 FU FEW040 SCT100 09/04 Q1017 NOSIG=
201412111905 METAR VIDP NIL=
201412111930 METAR VIDP 111930Z 00000KT 1000 R28/29/P2000 FU FEW100 09/04 Q1017 NOSIG=
201412112000 METAR VIDP 112000Z 00000KT 1000 R28/29/P2000 BR NSC 08/04 Q1017 NOSIG=
201412112005 METAR VIDP NIL=
201412112030 METAR VIDP 112030Z 00000KT 1000 R28/29/P2000 BR NSC 08/04 Q1017 NOSIG=
201412112100 METAR VIDP 112100Z 00000KT 1000 R28/29/P2000 BR NSC 08/04 Q1017 NOSIG=
201412112105 METAR VIDP NIL=
201412112130 METAR VIDP 112130Z 00000KT 1000 R28/29/P2000 BR NSC 07/04 Q1017 NOSIG=
201412112200 METAR VIDP 112200Z 00000KT 1000 R28/29/P2000 BR NSC 07/04 Q1017 NOSIG=
201412112205 METAR VIDP NIL=
201412112230 METAR VIDP 112230Z 00000KT 1000 R28/29/P2000 BR NSC 07/04 Q1017 NOSIG=
201412112300 METAR VIDP 112300Z 00000KT 1000 R28/P2000 R29/P2000 BR NSC 07/04 Q1016 NOSIG=
201412112305 METAR VIDP NIL=
201412112330 METAR VIDP 112330Z 00000KT 1200 R28/29/P2000 BR NSC 07/03 Q1016 NOSIG=
201412120000 METAR VIDP 120000Z 00000KT 1200 R28/29/P2000 BR NSC 07/04 Q1017 NOSIG=
201412120005 METAR VIDP NIL=
201412120030 METAR VIDP 120030Z 27003KT 1200 R28/29/P2000 BR NSC 07/04 Q1017 NOSIG=
201412120100 METAR VIDP 120100Z 27003KT 1200 R28/29/P2000 BR NSC 07/04 Q1017 NOSIG=
201412120105 METAR VIDP NIL=
201412120130 METAR VIDP 120130Z 27003KT 1200 R28/29/P2000 BR NSC 07/04 Q1018 NOSIG=
201412120200 METAR VIDP 120200Z 26003KT 1200 R28/P2000 R29/1200 BR NSC 07/04 Q1018 NOSIG=
201412120205 METAR VIDP NIL=
201412120230 METAR VIDP 120230Z 30003KT 1300 R28/P2000 R29/1500 BR FEW100 07/04 Q1018 NOSIG=
201412120300 METAR VIDP 120300Z 25003KT 1400 R28/P2000 R29/1500 BR SCT100 08/04 Q1019 BECMG 1500=
201412120305 METAR VIDP NIL=
201412120400 METAR VIDP 120400Z 00000KT 1600 R28/2000 R29/1700 FU FEW100 12/03 Q1020 NOSIG=
201412120405 METAR VIDP NIL=
201412120430 METAR VIDP NIL=
201412120505 METAR VIDP NIL=
201412120600 METAR VIDP 120600Z 00000KT 1500 R28/P2000 R29/1800 FU FEW100 19/03 Q1019 NOSIG=
201412120605 METAR VIDP NIL=
201412120630 METAR VIDP 120630Z 00000KT 1500 R28/P2000 R29/1800 FU SCT100 19/03 Q1018 NOSIG=
201412120700 METAR VIDP 120700Z 00000KT 1300 R28/P2000 R29/1800 FU SCT100 20/03 Q1018 NOSIG=
201412120705 METAR VIDP NIL=
201412120730 METAR VIDP 120730Z 24003KT 1300 R28/P2000 R29/1900 FU SCT100 20/04 Q1017 NOSIG=
201412120800 METAR VIDP 120800Z 28003KT 1300 R28/P2000 R29/1900 SCT100 20/03 Q1017 BECMG 1500=
201412120805 METAR VIDP NIL=
201412120900 METAR VIDP 120900Z 24003KT 1500 R28/P2000 R29/1900 FU SCT100 21/03 Q1016 NOSIG=
201412120905 METAR VIDP NIL=
201412120930 METAR VIDP 120930Z 31004KT 1500 R28/P2000 R29/1800 FU SCT100 21/03 Q1016 NOSIG=
201412121000 METAR VIDP 121000Z 30004KT 1500 R28/P2000 R29/1600 FU SCT100 21/04 Q1016 NOSIG=
201412121005 METAR VIDP NIL=
201412121030 METAR VIDP 121030Z 31004KT 1500 R28/P2000 R29/1500 FU SCT100 21/04 Q1015 NOSIG=
201412121100 METAR VIDP 121100Z 00000KT 1500 R28/P2000 R29/1500 FU SCT100 21/03 Q1015 NOSIG=
201412121105 METAR VIDP NIL=
201412121130 METAR VIDP 121130Z 00000KT 1300 R28/P2000 R29/1500 FU FEW100 20/03 Q1015 NOSIG=
201412121200 METAR VIDP 121200Z 00000KT 1300 R28/P2000 R29/1500 FU FEW100 19/04 Q1015 NOSIG=
201412121205 METAR VIDP NIL=
201412121230 METAR VIDP 121230Z 00000KT 1200 R28/P2000 R29/P2000 FU FEW100 18/04 Q1016 NOSIG=
201412121300 METAR VIDP 121300Z 00000KT 1000 R28/P2000 R29/P2000 FU FEW100 17/04 Q1016 NOSIG=
201412121305 METAR VIDP NIL=
201412121330 METAR VIDP 121330Z 00000KT 1000 R28/P2000 R29/P2000 FU FEW100 17/05 Q1016 NOSIG=
201412121400 METAR VIDP 121400Z 00000KT 0900 R28/P2000 R29/P2000 FU FEW100 16/05 Q1016 BECMG 0800=
201412121405 METAR VIDP NIL=
201412121430 METAR VIDP NIL=
201412121500 METAR VIDP 121500Z 00000KT 0800 R28/P2000 R29/1700 FU SCT100 16/06 Q1016 NOSIG=
201412121505 METAR VIDP NIL=
201412121530 METAR VIDP 121530Z 00000KT 0800 R28/P2000 R29/1700 FU SCT100 15/07 Q1016 NOSIG=
201412121600 METAR VIDP 121600Z 00000KT 0800 R28/P2000 R29/1700 FU SCT100 15/07 Q1016 NOSIG=
201412121605 METAR VIDP NIL=
201412121630 METAR COR VIDP 121630Z 00000KT 0800 R28/P2000 R29/1800 FU SCT100 15/07 Q1016 NOSIG=
201412121632 METAR VIDP 121632Z 00000KT 0800 R28/P2000 R29/1800 FU SCT100 15/07 Q1016 NOSIG=
201412121700 METAR VIDP 121700Z 00000KT 1000 R28/P2000 R29/P2000 FU SCT100 15/06 Q1016 NOSIG=
201412121705 METAR VIDP NIL=
201412121730 METAR VIDP 121730Z 00000KT 1000 R28/P2000 R29/P2000 FU SCT100 14/06 Q1016 NOSIG=
201412121800 METAR VIDP 121800Z 00000KT 1000 R28/P2000 R29/P2000 FU SCT100 14/06 Q1016 NOSIG=
201412121805 METAR VIDP NIL=
201412121830 METAR VIDP 121830Z 00000KT 1000 R28/P2000 R29/P2000 FU SCT100 14/06 Q1016 NOSIG=
201412121900 METAR VIDP 121900Z 00000KT 1000 R28/P2000 R29/P2000 FU SCT100 14/06 Q1016 NOSIG=
201412121905 METAR VIDP NIL=
201412121930 METAR VIDP 121930Z 00000KT 1000 R28/P2000 R29/P2000 FU SCT100 14/06 Q1016 NOSIG=
201412122000 METAR VIDP 122000Z 09003KT 1000 R28/P2000 R29/P2000 FU SCT100 14/06 Q1016 NOSIG=
201412122005 METAR VIDP NIL=
201412122030 METAR VIDP 122030Z 10004KT 1000 R28/P2000 R29/P2000 FU SCT100 14/06 Q1016 NOSIG=
201412122100 METAR VIDP 122100Z 11004KT 1200 R28/29/P2000 FU SCT100 14/06 Q1015 NOSIG=
201412122105 METAR VIDP NIL=
201412122130 METAR VIDP 122130Z 12004KT 1200 R28/29/P2000 FU FEW040 SCT100 14/06 Q1015 NOSIG=
201412122200 METAR VIDP 122200Z 12004KT 1300 R28/29/P2000 FU FEW040 SCT100 15/06 Q1016 NOSIG=
201412122205 METAR VIDP NIL=
201412122230 METAR VIDP 122230Z 11004KT 1300 R28/29/P2000 FU FEW040 SCT100 15/06 Q1016 NOSIG=
201412122300 METAR VIDP 122300Z 11004KT 1400 R28/29/P2000 FU FEW040 SCT100 15/06 Q1015 NOSIG=
201412122305 METAR VIDP NIL=
201412122330 METAR VIDP 122330Z 10006KT 1400 R28/29/P2000 FU FEW035 FEW040CB SCT100 14/06 Q1015 NOSIG=
201412130000 METAR VIDP 130000Z 10004KT 1400 R28/29/P2000 FU FEW035 FEW040CB SCT100 14/06 Q1015 NOSIG=
201412130005 METAR VIDP NIL=
201412130030 METAR VIDP 130030Z 09004KT 1400 R28/29/P2000 FU FEW035 FEW040CB SCT100 13/06 Q1016 NOSIG=
201412130100 METAR VIDP 130100Z 10006KT 1400 R28/29/P2000 FU FEW035 FEW040CB SCT100 13/06 Q1016 NOSIG=
201412130105 METAR VIDP NIL=
201412130130 METAR COR VIDP 130130Z 10006KT 1400 R28/29/P2000 FU SCT035 FEW040CB BKN100 13/06 Q1016 NOSIG=
201412130200 METAR VIDP 130200Z 11006KT 1400 R28/29/P2000 FU SCT035 FEW040CB BKN100 14/06 Q1017 NOSIG=
201412130205 METAR VIDP NIL=
201412130230 METAR VIDP 130230Z 11007KT 1400 R28/P2000 R29/1500 FU SCT035 FEW040CB BKN100 14/06 Q1017 NOSIG=
201412130300 METAR VIDP 130300Z 11006KT 1400 R28/P2000 R29/1500 FU SCT035 FEW040CB BKN100 15/05 Q1017 NOSIG=
201412130305 METAR VIDP NIL=
201412130330 METAR VIDP 130330Z 11008KT 1400 R28/P2000 R29/1700 FU SCT035 FEW040CB BKN100 15/05 Q1017 NOSIG=
201412130400 METAR VIDP 130400Z 10008KT 1400 R28/P2000 R29/1600 FU SCT035 FEW040CB BKN100 16/05 Q1018 NOSIG=
201412130405 METAR VIDP NIL=
201412130430 METAR VIDP 130430Z 10008KT 1400 R28/P2000 R29/1700 FU SCT035 FEW040CB BKN100 17/05 Q1018 NOSIG=
201412130500 METAR VIDP 130500Z 11008G18KT 1400 R28/P2000 R29/1700 FU SCT035 FEW040CB BKN100 17/05 Q1017 NOSIG=
201412130505 METAR VIDP NIL=
201412130530 METAR VIDP NIL=
201412130600 METAR VIDP 130600Z 10008G18KT 1500 R28/P2000 R29/1800 FU SCT035 FEW040CB BKN100 19/05 Q1017 NOSIG=
201412130605 METAR VIDP NIL=
201412130630 METAR VIDP 130630Z 11008G18KT 1700 R28/P2000 R29/1800 FU SCT035 FEW040CB BKN100 20/07 Q1015 NOSIG=
201412130700 METAR VIDP 130700Z 12007G17KT 1600 R28/P2000 R29/1800 FU SCT035 BKN100 20/08 Q1015 NOSIG=
201412130705 METAR VIDP NIL=
201412130730 METAR VIDP 130730Z 10007G17KT 1600 R28/P2000 R29/1800 FU SCT035 BKN100 20/08 Q1014 NOSIG=
201412130800 METAR VIDP 130800Z 10007G17KT 1600 R28/P2000 R29/1800 FU SCT035 BKN100 20/08 Q1014 NOSIG=
201412130805 METAR VIDP NIL=
201412130830 METAR VIDP 130830Z 12007G17KT 1600 R28/P2000 R29/1600 FU SCT035 BKN100 19/10 Q1014 NOSIG=
201412130900 METAR VIDP 130900Z 11007G17KT 1700 R28/P2000 R29/1700 FU SCT035 FEW035CB BKN100 19/10 Q1014 NOSIG=
201412130905 METAR VIDP NIL=
201412130930 METAR VIDP 130930Z 11007G17KT 1600 R28/P2000 R29/1600 FU SCT030 FEW035CB OVC080 19/10 Q1014 TEMPO 1500=
201412131000 METAR VIDP 131000Z 11007G17KT 1600 R28/P2000 R29/1600 FU SCT030 FEW035CB OVC080 19/10 Q1013 TEMPO VIS 1500 TSRA=
201412131005 METAR VIDP NIL=
201412131030 METAR VIDP NIL=
201412131100 METAR VIDP 131100Z 12012KT 1800 R28/P2000 R29/P2000 BR 17/14 Q1014 TEMPO 1500 TSRA=
201412131105 METAR VIDP NIL=
201412131130 METAR VIDP NIL=
201412131200 METAR VIDP 131200Z 12010KT 1200 R28/P2000 R29/P2000 BR SCT030 FEW035CB OVC080 16/15 Q1014 TEMPO 0800 TSRA=
201412131205 METAR VIDP NIL=
201412131230 METAR VIDP 131230Z 13012KT 1200 R28/P2000 R29/P2000 BR SCT030 FEW035CB OVC080 16/15 Q1015 NOSIG=
201412131300 METAR VIDP 131300Z 13012KT 1200 R28/P2000 R29/P2000 BR SCT030 FEW035CB OVC080 16/15 Q1015 NOSIG=
201412131305 METAR VIDP NIL=
201412131330 METAR VIDP 131330Z 13007G17KT 1400 R28/P2000 R29/P2000 BR SCT030 BKN080 16/15 Q1015 BECMG 1500=
201412131405 METAR VIDP NIL=
201412131500 METAR VIDP 131500Z 15011KT 1700 R28/P2000 R29/P2000 BR SCT030 BKN080 16/15 Q1016 NOSIG=
201412131505 METAR VIDP NIL=
201412131530 METAR VIDP 131530Z 13010KT 1700 R28/P2000 R29/P2000 BR SCT030 BKN080 16/15 Q1016 NOSIG=
201412131600 METAR VIDP 131600Z 15012KT 1900 R28/P2000 R29/P2000 BR SCT030 BKN080 16/14 Q1016 NOSIG=
201412131605 METAR VIDP NIL=
201412131630 METAR VIDP 131630Z 14014KT 2200 BR SCT030 BKN080 16/14 Q1016 NOSIG=
201412131700 METAR VIDP 131700Z 14014KT 2200 BR SCT030 BKN100 15/14 Q1016 NOSIG=
201412131705 METAR VIDP NIL=
201412131730 METAR VIDP 131730Z 14011KT 2200 BR SCT030 BKN100 15/14 Q1017 NOSIG=
201412131800 METAR VIDP 131800Z 14012KT 2200 BR SCT030 BKN100 15/13 Q1017 NOSIG=
201412131805 METAR VIDP NIL=
201412131830 METAR VIDP 131830Z 14010KT 2200 BR SCT030 BKN100 15/13 Q1017 NOSIG=
201412131900 METAR VIDP 131900Z 14010KT 2200 BR SCT030 BKN100 15/13 Q1017 NOSIG=
201412131905 METAR VIDP NIL=
201412131930 METAR VIDP 131930Z 12008KT 2200 BR SCT030 BKN100 15/14 Q1016 NOSIG=
201412132000 METAR VIDP 132000Z 14006KT 2200 BR SCT030 BKN100 15/14 Q1016 NOSIG=
201412132005 METAR VIDP NIL=
201412132030 METAR VIDP 132030Z 14006KT 2200 BR SCT030 BKN100 15/14 Q1016 NOSIG=
201412132100 METAR VIDP 132100Z 10005KT 1800 R/28/29/P2000 BR SCT030 BKN100 14/13 Q1016 NOSIG=
201412132105 METAR VIDP NIL=
201412132130 METAR VIDP 132130Z 10006KT 1800 R/28/29/P2000 BR SCT030 BKN100 14/13 Q1015 NOSIG=
201412132200 METAR VIDP 132200Z 11009KT 1600 R28/P2000 R29/P2000 BR SCT030 BKN100 14/13 Q1015 NOSIG=
201412132205 METAR VIDP NIL=
201412132230 METAR VIDP 132230Z 11010KT 1600 R28/P2000 R29/P2000 BR SCT030 BKN100 14/12 Q1015 NOSIG=
201412132300 METAR VIDP 132300Z 11010KT 2000 R28/P2000 R29/P2000 BR SCT030 BKN100 14/12 Q1014 NOSIG=
201412132305 METAR VIDP NIL=
201412132330 METAR VIDP 132330Z 13011KT 2000 R28/P2000 R29/P2000 BR SCT030 BKN100 14/12 Q1014 NOSIG=
201412140000 METAR VIDP 140000Z 13010KT 2000 R28/P2000 R29/P2000 SCT030 BKN080 14/12 Q1014 NOSIG=
201412140005 METAR VIDP NIL=
201412140030 METAR VIDP 140030Z 13009KT 1600 R28/P2000 R29/P2000 BR SCT030 BKN080 14/12 Q1015 NOSIG=
201412140100 METAR VIDP 140100Z 15007KT 1600 R28/P2000 R29/P2000 BR SCT030 BKN080 14/12 Q1015 TEMPO 1500=
201412140105 METAR VIDP NIL=
201412140130 METAR VIDP NIL=
201412140200 METAR VIDP 140200Z 14008KT 1400 R28/P2000 R29/1800 BR SCT030 BKN080 14/12 Q1016 NOSIG=
201412140205 METAR VIDP NIL=
201412140230 METAR VIDP 140230Z 14006KT 1400 R28/P2000 R29/1800 BR SCT030 BKN080 14/14 Q1016 NOSIG=
201412140300 METAR VIDP 140300Z 14006KT 1400 R28/P2000 R29/1500 BR SCT030 BKN080 14/14 Q1017 NOSIG=
201412140305 METAR VIDP NIL=
201412140330 METAR VIDP 140330Z 13006KT 1400 R28/P2000 R29/1800 BR SCT030 BKN080 14/14 Q1017 NOSIG=
201412140400 METAR VIDP 140400Z 13007KT 1400 R28/P2000 R29/1900 BR SCT030 BKN080 14/14 Q1017 BECMG 1500=
201412140405 METAR VIDP NIL=
201412140430 METAR VIDP 140430Z 13007KT 1400 R28/P2000 R29/1900 BR SCT030 BKN080 14/14 Q1018 BECMG 1500=
201412140500 METAR VIDP 140500Z 13008KT 1400 R28/P2000 R29/P2000 BR SCT030 BKN080 14/14 Q1018 BECMG 1500=
201412140505 METAR VIDP NIL=
201412140600 METAR COR VIDP 140600Z 16003KT 1700 R28/29/P2000 BR SCT030 BKN080 15/14 Q1017 NOSIG=
201412140605 METAR VIDP NIL=
201412140630 METAR VIDP 140630Z 16007KT 1700 R28/29/P2000 BR SCT030 BKN080 15/14 Q1017 NOSIG=
201412140700 METAR COR VIDP 140700Z 16003KT 1700 R28/29/P2000 BR SCT030 BKN080 15/14 Q1017 NOSIG=
201412140705 METAR VIDP NIL=
201412140730 METAR VIDP 140730Z 13005KT 1800 R28/29/P2000 BR SCT030 BKN080 15/14 Q1016 NOSIG=
201412140800 METAR VIDP 140800Z 14004KT 1800 R28/29/P2000 BR SCT030 BKN080 15/14 Q1016 NOSIG=
201412140805 METAR VIDP NIL=
201412140830 METAR VIDP 140830Z 15004KT 1700 R28/29/P2000 BR SCT030 BKN080 15/15 Q1016 NOSIG=
201412140900 METAR VIDP 140900Z 11004KT 1700 R28/P1700 R29/P1900 BR SCT030 BKN080 15/15 Q1015 NOSIG=
201412140905 METAR VIDP NIL=
201412140930 METAR VIDP 140930Z 13004KT 1700 R28/P2000 R29/P2000 BR SCT030 BKN080 15/15 Q1015 NOSIG=
201412141005 METAR VIDP NIL=
201412141030 METAR VIDP NIL=
201412141100 METAR VIDP 141100Z 14005KT 1000 R28/P2000 R29/1700 -TSRA SCT030 FEW040CB BKN080 15/15 Q1016 TEMPO 0800 TSRA=
201412141105 METAR VIDP NIL=
201412141130 METAR VIDP 141130Z 12004KT 1200 R28/P2000 R29/1500 BR SCT030 FEW040CB BKN080 15/15 Q1016 TEMPO 0800 TSRA=
201412141200 METAR VIDP 141200Z 12006KT 1000 R28/2000 R29/1100 BR SCT030 FEW040CB BKN080 15/15 Q1016 NOSIG=
201412141205 METAR VIDP NIL=
201412141230 METAR VIDP 141230Z 13004KT 1200 R28/P2000 R29/P2000 BR SCT030 FEW040CB BKN080 15/15 Q1016 NOSIG=
201412141300 METAR VIDP 141300Z 13005KT 1200 R28/2000 R29/2000 BR SCT030 FEW040CB BKN080 15/15 Q1016 NOSIG=
201412141305 METAR VIDP NIL=
201412141330 METAR VIDP 141330Z 12005KT 1000 R28/P2000 R29/1900 BR SCT030 FEW040CB BKN080 15/15 Q1016 BECMG 0800=
201412141405 METAR VIDP NIL=
201412141430 METAR VIDP 141430Z 11003KT 1000 R28/P2000 R29/P2000 BR SCT030 FEW040CB BKN080 15/14 Q1017 NOSIG=
201412141500 METAR VIDP 141500Z 09003KT 1200 R28/P2000 R29/P2000 BR SCT030 FEW040CB BKN080 15/14 Q1017 NOSIG=
201412141505 METAR VIDP NIL=
201412141530 METAR VIDP 141530Z 07006KT 1200 R28/P2000 R29/P2000 -RA SCT030 FEW040CB BKN080 15/14 Q1017 NOSIG=
201412141600 METAR VIDP 141600Z 09010KT 1000 R28/P2000 R29/P2000 -RA SCT030 FEW040CB BKN080 15/14 Q1017 NOSIG=
201412141605 METAR VIDP NIL=
201412141630 METAR VIDP 141630Z 06008KT 1400 R28/P2000 R29/P2000 -TSRA SCT030 FEW040CB BKN080 13/13 Q1018 TEMPO 0800 TSRA=
201412141705 METAR VIDP NIL=
201412141730 METAR VIDP 141730Z 07009KT 2500 -TSRA SCT030 FEW040CB BKN080 13/12 Q1017 NOSIG=
201412141800 METAR VIDP 141800Z 09009KT 2500 -RA SCT030 FEW040CB BKN080 13/12 Q1017 TEMPO TSRA=
201412141805 METAR VIDP NIL=
201412141830 METAR VIDP 141830Z 08005KT 2200 BR FEW030 FEW040CB SCT100 13/12 Q1017 TEMPO TSRA=
201412141900 METAR VIDP 141900Z 12006KT 1800 R28/29/P2000 BR FEW030 FEW040CB SCT100 13/12 Q1017 NOSIG=
201412141905 METAR VIDP NIL=
201412141930 METAR VIDP 141930Z 12006KT 1800 R28/29/P2000 BR FEW030 FEW040CB SCT100 13/12 Q1017 NOSIG=
201412142000 METAR VIDP 142000Z 12006KT 1800 R28/29/P2000 BR FEW030 FEW040CB SCT100 13/12 Q1017 NOSIG=
201412142005 METAR VIDP NIL=
201412142030 METAR VIDP 142030Z 04005KT 1800 R28/29/P2000 BR FEW030 FEW040CB SCT100 12/11 Q1017 NOSIG=
201412142100 METAR VIDP 142100Z 04007KT 2500 R28/29/P2000 BR FEW030 SCT100 12/11 Q1017 NOSIG=
201412142105 METAR VIDP NIL=
201412142130 METAR VIDP 142130Z 03006KT 2500 BR FEW030 SCT100 12/11 Q1017 NOSIG=
201412142200 METAR VIDP 142200Z 03006KT 2500 BR FEW030 SCT100 13/11 Q1018 BECMG VIS 3000=
201412142205 METAR VIDP NIL=
201412142300 METAR VIDP 142300Z 04004KT 3000 BR SCT030 BKN100 13/11 Q1018 NOSIG=
201412142305 METAR VIDP NIL=
201412142330 METAR VIDP 142330Z 06006KT 3000 BR SCT030 BKN100 12/11 Q1018 NOSIG=
201412150000 METAR VIDP 150000Z 05005KT 3000 BR SCT030 BKN100 12/11 Q1018 NOSIG=
201412150005 METAR VIDP NIL=
201412150030 METAR VIDP 150030Z 07006KT 3000 BR SCT030 FEW040CB BKN100 12/11 Q1018 NOSIG=
201412150100 METAR VIDP 150100Z 21006KT 3000 BR SCT030 FEW040CB BKN100 12/11 Q1018 NOSIG=
201412150105 METAR VIDP NIL=
201412150130 METAR VIDP 150130Z 18005KT 2500 BR SCT030 FEW040CB BKN100 12/11 Q1019 NOSIG=
201412150200 METAR VIDP 150200Z 12006KT 2200 BR SCT030 FEW040CB BKN100 13/11 Q1019 NOSIG=
201412150205 METAR VIDP NIL=
201412150230 METAR VIDP 150230Z 13007KT 2200 BR SCT030 BKN100 13/11 Q1019 NOSIG=
201412150300 METAR VIDP 150300Z 13006KT 2200 BR SCT030 BKN100 13/11 Q1019 NOSIG=
201412150305 METAR VIDP NIL=
201412150330 METAR VIDP 150330Z 01004KT 2200 BR SCT030 BKN100 13/13 Q1020 NOSIG=
201412150400 METAR VIDP 150400Z 06003KT 2200 BR SCT030 BKN100 14/13 Q1020 NOSIG=
201412150405 METAR VIDP NIL=
201412150430 METAR VIDP 150430Z 04003KT 2300 BR SCT030 BKN100 15/12 Q1020 NOSIG=
201412150500 METAR VIDP 150500Z 30003KT 2300 BR SCT030 BKN100 15/12 Q1020 NOSIG=
201412150505 METAR VIDP NIL=
201412150530 METAR VIDP 150530Z 15003KT 2100 BR SCT030 BKN100 15/12 Q1020 NOSIG=
201412150600 METAR VIDP 150600Z 24003KT 1800 R28/P2000 R29/P2000 BR SCT030 BKN100 16/12 Q1020 NOSIG=
201412150605 METAR VIDP NIL=
201412150630 METAR VIDP 150630Z 28004KT 1800 R28/P2000 R29/P2000 BR SCT030 BKN100 16/12 Q1019 NOSIG=
201412150700 METAR VIDP 150700Z 27006KT 1800 R28/P2000 R29/P2000 BR SCT030 BKN100 17/12 Q1019 NOSIG=
201412150705 METAR VIDP NIL=
201412150730 METAR VIDP 150730Z 30005KT 2000 R28/P2000 R29/P2000 BR SCT030 BKN100 17/12 Q1019 NOSIG=
201412150800 METAR VIDP 150800Z 25005KT 2500 R28/P2000 R29/P2000 BR SCT030 BKN100 17/11 Q1018 NOSIG=
201412150805 METAR VIDP NIL=
201412150830 METAR VIDP 150830Z 32005KT 2500 HZ FEW030 BKN100 18/11 Q1018 NOSIG=
201412150900 METAR VIDP 150900Z 31007KT 2500 HZ FEW030 SCT100 18/11 Q1018 NOSIG=
201412150905 METAR VIDP NIL=
201412150930 METAR VIDP 150930Z 31007KT 2500 HZ FEW030 SCT100 18/11 Q1018 NOSIG=
201412151000 METAR VIDP 151000Z 33006KT 2500 HZ SCT030 SCT100 18/11 Q1017 NOSIG=
201412151005 METAR VIDP NIL=
201412151030 METAR VIDP 151030Z 33008KT 2500 HZ SCT030 SCT100 18/11 Q1017 NOSIG=
201412151100 METAR VIDP 151100Z 34008KT 2500 HZ SCT030 SCT100 18/10 Q1017 NOSIG=
201412151105 METAR VIDP NIL=
201412151130 METAR VIDP 151130Z 32007KT 2800 HZ FEW030 SCT100 17/10 Q1018 BECMG 3000=
201412151200 METAR VIDP 151200Z 33006KT 2800 HZ FEW030 17/10 Q1018 BECMG 3000=
201412151205 METAR VIDP NIL=
201412151300 METAR VIDP 151300Z 31005KT 2500 HZ FEW030 16/11 Q1018 NOSIG=
201412151305 METAR VIDP NIL=
201412151330 METAR VIDP 151330Z 31004KT 2500 BR NSC 15/11 Q1018 NOSIG=
201412151400 METAR VIDP 151400Z 32003KT 2200 BR NSC 15/11 Q1019 NOSIG=
201412151405 METAR VIDP NIL=
201412151430 METAR VIDP 151430Z 31004KT 2100 BR NSC 15/11 Q1019 NOSIG=
201412151500 METAR VIDP 151500Z 27003KT 1800 R28/29/P2000 BR NSC 14/11 Q1019 NOSIG=
201412151505 METAR VIDP NIL=
201412151530 METAR VIDP 151530Z 28004KT 1600 R28/29/P2000 BR NSC 14/11 Q1019 NOSIG=
201412151605 METAR VIDP NIL=
201412151630 METAR VIDP 151630Z 23003KT 1200 R28/29/P2000 BR NSC 13/11 Q1020 NOSIG=
201412151700 METAR VIDP 151700Z 24004KT 1200 R28/29/P2000 BR NSC 13/11 Q1020 NOSIG=
201412151705 METAR VIDP NIL=
201412151730 METAR VIDP 151730Z 25004KT 1000 R28/29/P2000 BR NSC 12/11 Q1020 NOSIG=
201412151800 METAR VIDP 151800Z 00000KT 0900 R28/29/P2000 BR NSC 12/11 Q1020 BECMG 0800=
201412151805 METAR VIDP NIL=
201412151830 METAR VIDP 151830Z 00000KT 0900 R28/29/P2000 BR NSC 11/11 Q1020 BECMG 0800=
201412151900 METAR VIDP 151900Z 00000KT 0900 R28/29/P2000 BR NSC 11/11 Q1020 BECMG 0800=
201412151905 METAR VIDP NIL=
201412151930 METAR VIDP NIL=
201412152000 METAR VIDP 152000Z 00000KT 0800 R28/29/P2000 MIFG NSC 10/10 Q1020 NOSIG=
201412152005 METAR VIDP NIL=
201412152030 METAR VIDP 152030Z 00000KT 0800 R28/P2000 R29/1800 MIFG NSC 10/10 Q1019 NOSIG=
201412152100 METAR VIDP 152100Z 24004KT 0800 R28/P2000 R29/1600 MIFG NSC 10/10 Q1019 NOSIG=
201412152105 METAR VIDP NIL=
201412152130 METAR VIDP 152130Z 23004KT 0800 R28/P2000 R29/1600 MIFG NSC 10/10 Q1019 NOSIG=
201412152200 METAR VIDP 152200Z 27003KT 0700 R28/P2000 R29/1600 MIFG NSC 10/10 Q1019 NOSIG=
201412152205 METAR VIDP NIL=
201412152230 METAR VIDP 152230Z 25003KT 0700 R28/P2000 R29/1600 MIFG NSC 10/10 Q1019 TEMPO 0600=
201412152300 METAR VIDP 152300Z 23004KT 0500 R28/P2000 R29/1300 FG NSC 10/10 Q1019 TEMPO 0350=
201412152305 METAR VIDP NIL=
201412152330 METAR VIDP 152330Z 24003KT 0350 R28/P2000 R29/1300 FG NSC 10/10 Q1020 NOSIG=
201412160000 METAR VIDP 160000Z 21002KT 0350 R28/2000 R29/1000 FG NSC 09/09 Q1020 NOSIG=
201412160005 METAR VIDP NIL=
201412160030 METAR VIDP 160030Z 23002KT 0350 R28/2000 R29/1300 FG NSC 09/09 Q1020 NOSIG=
201412160100 METAR VIDP 160100Z 23004KT 0350 R28/1500 R29/0900 FG NSC 09/09 Q1020 NOSIG=
201412160105 METAR VIDP NIL=
201412160130 METAR VIDP 160130Z 23003KT 0300 R28/1500 R29/0800 FG NSC 09/09 Q1021 BECMG 0150=
201412160200 METAR VIDP 160200Z 25003KT 0100 R28/0900 R29/0400 FG NSC 08/08 Q1021 BECMG 0150=
201412160205 METAR VIDP NIL=
201412160230 METAR VIDP 160230Z 25004KT 0050 R28/0800 R29/0150 FG VV/// 08/08 Q1021 NOSIG=
201412160300 METAR COR VIDP 160300Z 25004KT 0050 R28/0100 R29/0075 FG VV/// 08/08 Q1021 NOSIG=
201412160305 METAR VIDP NIL=
201412160330 METAR VIDP 160330Z 25004KT 0000 R28/0100 R28M/0150 R10/0125 R29/0050 FG VV/// 09/09 Q1022 BECMG 0350 FG=
201412160400 METAR VIDP 160400Z 27004KT 0050 R28/0200 R28M/0175 R10/0150 R29/0100 FG VV/// 10/10 Q1022 BECMG 0350 FG=
201412160405 METAR VIDP NIL=
201412160430 METAR VIDP 160430Z 26005KT 0050 R28/0350 R28M/0350 R10/0250 R29/0150 FG VV/// 10/10 Q1023 BECMG 0350 FG=
201412160500 METAR VIDP 160500Z 27005KT 0250 R28/0700 R28M/0600 R10/0300 R29/0375 FG VV/// 11/11 Q1023 BECMG 0350=
201412160505 METAR VIDP NIL=
201412160530 METAR VIDP 160530Z 25004KT 0500 R28/0800 R29/0800 FG VV/// 11/11 Q1022 BECMG 0600=
201412160600 METAR VIDP 160600Z 27005KT 0700 R28/P1700 R29/P1100 MIFG NSC 12/12 Q1022 BECMG 0800=
201412160605 METAR VIDP NIL=
201412160630 METAR VIDP NIL=
201412160700 METAR VIDP 160700Z 28007KT 1400 R28/P2000 R29/P2000 BR NSC 15/14 Q1021 BECMG 1500=
201412160705 METAR VIDP NIL=
201412160730 METAR VIDP NIL=
201412160800 METAR VIDP 160800Z 27007KT 1700 R28/P2000 R29/P2000 BR NSC 17/14 Q1021 NOSIG=
201412160805 METAR VIDP NIL=
201412160830 METAR COR VIDP 160830Z 26006KT 1800 R28/P2000 R29/P2000 BR NSC 17/13 Q1020 NOSIG=
201412160900 METAR VIDP 160900Z 28007KT 2500 HZ FEW100 18/12 Q1020 NOSIG=
201412160905 METAR VIDP NIL=
201412160930 METAR VIDP 160930Z 28007KT 2500 HZ FEW100 18/12 Q1020 NOSIG=
201412161000 METAR VIDP 161000Z 29008KT 2500 HZ FEW100 18/11 Q1020 NOSIG=
201412161005 METAR VIDP NIL=
201412161030 METAR VIDP 161030Z 30007KT 2500 HZ FEW100 18/11 Q1020 BECMG 3000=
201412161105 METAR VIDP NIL=
201412161130 METAR VIDP 161130Z 30006KT 3500 HZ FEW100 17/11 Q1020 NOSIG=
201412161200 METAR VIDP 161200Z 29004KT 3300 HZ FEW100 16/11 Q1020 BECMG 3000=
201412161205 METAR VIDP NIL=
201412161230 METAR VIDP NIL=
201412161300 METAR VIDP 161300Z 26004KT 2500 BR FEW100 15/11 Q1021 NOSIG=
201412161305 METAR VIDP NIL=
201412161330 METAR VIDP 161330Z 25004KT 2100 BR FEW100 14/11 Q1021 NOSIG=
201412161400 METAR VIDP 161400Z 26004KT 1600 R28/P2000 R29/P2000 BR FEW100 14/11 Q1021 NOSIG=
201412161405 METAR VIDP NIL=
201412161430 METAR VIDP 161430Z 25004KT 1600 R28/P2000 R29/P2000 BR FEW100 13/11 Q1021 BECMG 1500=
201412161505 METAR VIDP NIL=
201412161530 METAR VIDP 161530Z 27004KT 1400 R28/P2000 R29/P2000 BR FEW100 13/11 Q1021 NOSIG=
201412161600 METAR VIDP 161600Z 24004KT 1100 R28/P2000 R29/P2000 BR FEW100 13/11 Q1022 NOSIG=
201412161605 METAR VIDP NIL=
201412161630 METAR VIDP 161630Z 27004KT 1100 R28/P2000 R29/P2000 BR FEW100 13/11 Q1022 NOSIG=
201412161700 METAR VIDP 161700Z 27004KT 1000 R28/P2000 R29/P2000 BR FEW100 13/11 Q1022 BECMG 0800=
201412161705 METAR VIDP NIL=
201412161730 METAR VIDP 161730Z 26004KT 0900 R28/P2000 R29/P2000 MIFG FEW100 12/11 Q1022 BECMG 0800=
201412161800 METAR VIDP 161800Z 27003KT 0900 R28/P2000 R29/P2000 MIFG FEW100 12/11 Q1022 BECMG 0800=
201412161805 METAR VIDP NIL=
201412161830 METAR VIDP NIL=
201412161900 METAR VIDP 161900Z 24003KT 0700 R28/P2000 R29/1300 MIFG FEW100 12/11 Q1021 BECMG 0600=
201412161905 METAR VIDP NIL=
201412161930 METAR VIDP 161930Z 23003KT 0600 R28/P2000 R29/1300 MIFG FEW100 11/10 Q1021 NOSIG=
201412162000 METAR VIDP 162000Z 25003KT 0500 R28/2000 R29/1000 FG FEW100 11/10 Q1021 NOSIG=
201412162005 METAR VIDP NIL=
201412162030 METAR VIDP 162030Z 24003KT 0500 R28/2000 R29/1000 FG FEW100 10/10 Q1021 NOSIG=
201412162100 METAR VIDP 162100Z 25003KT 0400 R28/2000 R29/1200 FG FEW100 10/10 Q1021 BECMG 0350=
201412162105 METAR VIDP NIL=
201412162130 METAR VIDP 162130Z 25003KT 0400 R28/2000 R29/1100 FG FEW100 10/10 Q1021 BECMG 0350=
201412162200 METAR VIDP 162200Z 24003KT 0300 R28/1800 R29/0800 FG FEW100 09/09 Q1021 NOSIG=
201412162205 METAR VIDP NIL=
201412162230 METAR VIDP 162230Z 26003KT 0300 R28/1900 R29/0800 FG FEW100 09/09 Q1021 NOSIG=
201412162300 METAR VIDP 162300Z 25003KT 0300 R28/P2000 R29/0800 FG VV/// 09/08 Q1020 NOSIG=
201412162305 METAR VIDP NIL=
201412162330 METAR VIDP 162330Z 22003KT 0250 R28/P2000 R29/0800 FG VV/// 09/09 Q1020 NOSIG=
201412170000 METAR VIDP 170000Z 25004KT 0200 R28/1700 R29/0800 FG FEW100 09/09 Q1020 BECMG 0150=
201412170005 METAR VIDP NIL=
201412170030 METAR VIDP 170030Z 26003KT 0000 R28/1200 R29/0100 FG FEW100 09/09 Q1020 NOSIG=
201412170100 METAR VIDP 170100Z 24003KT 0000 R28/0150 R29/0050 FG VV/// 09/09 Q1021 NOSIG=
201412170105 METAR VIDP NIL=
201412170130 METAR VIDP 170130Z 25003KT 0000 R28/0150 R29/0050 FG VV/// 08/08 Q1021 NOSIG=
201412170200 METAR VIDP 170200Z 27004KT 0000 R28/0175 R29/0050 FG VV/// 08/08 Q1021 NOSIG=
201412170205 METAR VIDP NIL=
201412170230 METAR VIDP 170230Z 27006KT 0000 R28/0200 R29/0100 FG VV/// 09/09 Q1021 NOSIG=
201412170300 METAR VIDP 170300Z 26006KT 0050 R28/0250 R29/0125 FG VV/// 09/09 Q1022 NOSIG=
201412170305 METAR VIDP NIL=
201412170330 METAR VIDP 170330Z 28007KT 0100 R28/0500 R29/0200 FG VV/// 09/09 Q1022 BECMG 0150=
201412170400 METAR COR VIDP 170400Z 28006KT 0150 R28/0800 R29/0300 FG NSC 10/10 Q1022 BECMG 0350=
201412170405 METAR VIDP NIL=
201412170430 METAR VIDP 170430Z 26007KT 0400 R28/0800 R29/0500 FG NSC 10/10 Q1022 BECMG 0600=
201412170500 METAR VIDP 170500Z 27006KT 0500 R28/1100 R29/0600 MIFG NSC 10/10 Q1022 BECMG 0600=
201412170505 METAR VIDP NIL=
201412170530 METAR VIDP 170530Z 27007KT 0700 R28/1700 R29/0700 MIFG NSC 11/10 Q1022 BECMG 0800=
201412170605 METAR VIDP NIL=
201412170630 METAR VIDP 170630Z 27005KT 1200 R28/P2000 R29/1300 BR NSC 13/11 Q1021 BECMG 1500=
201412170705 METAR VIDP NIL=
201412170730 METAR COR VIDP 170730Z 30008KT 1700 R28/P2000 R29/1800 FU NSC 16/10 Q1020 NOSIG=
201412170800 METAR VIDP 170800Z 29008KT 2200 R28/P2000 R29/1800 FU NSC 17/10 Q1019 NOSIG=
201412170805 METAR VIDP NIL=
201412170830 METAR VIDP 170830Z 28008KT 2300 FU NSC 17/11 Q1019 BECMG VIS 3000=
201412170900 METAR VIDP 170900Z 29009KT 2800 HZ NSC 18/10 Q1019 BECMG 3000=
201412170905 METAR VIDP NIL=
201412170930 METAR VIDP 170930Z 29009KT 2800 HZ NSC 18/10 Q1019 BECMG 3000=
201412171005 METAR VIDP NIL=
201412171030 METAR VIDP 171030Z 29007KT 3000 HZ NSC 18/10 Q1019 NOSIG=
201412171100 METAR VIDP 171100Z 27007KT 3000 HZ NSC 17/11 Q1018 NOSIG=
201412171105 METAR VIDP NIL=
201412171130 METAR COR VIDP 171130Z 27006KT 2500 HZ NSC 16/12 Q1018 NOSIG=
201412171200 METAR VIDP 171200Z 26006KT 2100 FU NSC 15/12 Q1018 NOSIG=
201412171205 METAR VIDP NIL=
201412171230 METAR VIDP 171230Z 26005KT 2100 BR NSC 15/12 Q1018 NOSIG=
201412171300 METAR VIDP 171300Z 26005KT 1600 R28/P2000 R29/P2000 BR NSC 13/11 Q1018 BECMG 1500=
201412171305 METAR VIDP NIL=
201412171330 METAR VIDP NIL=
201412171400 METAR VIDP 171400Z 27006KT 1400 R28/29/P2000 BR NSC 13/11 Q1019 NOSIG=
201412171405 METAR VIDP NIL=
201412171430 METAR VIDP 171430Z 27006KT 1200 R28/29/P2000 BR NSC 12/11 Q1019 NOSIG=
201412171500 METAR VIDP 171500Z 27006KT 1100 R28/29/P2000 BR NSC 12/11 Q1019 NOSIG=
201412171505 METAR VIDP NIL=
201412171530 METAR VIDP 171530Z 25005KT 1300 R28/29/P2000 BR NSC 11/11 Q1020 NOSIG=
201412171600 METAR VIDP 171600Z 26004KT 1200 R28/29/P2000 BR NSC 11/11 Q1020 NOSIG=
201412171605 METAR VIDP NIL=
201412171630 METAR VIDP 171630Z 26004KT 1100 R28/29/P2000 BR NSC 10/10 Q1020 NOSIG=
201412171700 METAR VIDP 171700Z 26004KT 1000 R28/29/P2000 BR NSC 09/09 Q1020 NOSIG=
201412171705 METAR VIDP NIL=
201412171730 METAR VIDP 171730Z 24003KT 1000 R28/29/P2000 BR NSC 09/09 Q1020 NOSIG=
201412171800 METAR VIDP 171800Z 24003KT 1000 R28/29/P2000 BR NSC 09/09 Q1020 NOSIG=
201412171805 METAR VIDP NIL=
201412171830 METAR VIDP 171830Z 26003KT 1000 R28/29/P2000 BR NSC 08/08 Q1020 NOSIG=
201412171900 METAR VIDP 171900Z 25003KT 0900 R28/29/P2000 BR NSC 08/08 Q1020 BECMG 0800=
201412171905 METAR VIDP NIL=
201412172000 METAR COR VIDP 172000Z 00000KT 0700 R28/P2000 R29/1300 MIFG NSC 07/07 Q1019 BECMG 0600=
201412172005 METAR VIDP NIL=
201412172030 METAR VIDP 172030Z 00000KT 0600 R28/P2000 R29/1300 MIFG NSC 07/07 Q1019 NOSIG=
201412172100 METAR VIDP 172100Z 00000KT 0600 R28/P2000 R29/1500 MIFG NSC 07/07 Q1019 NOSIG=
201412172103 METAR VIDP 172103Z 00000KT 0600 R28/P2000 R29/1500 MIFG NSC 07/07 Q1019 NOSIG=
201412172105 METAR VIDP NIL=
201412172200 METAR VIDP 172200Z 27004KT 0600 R28/P2000 R29/P1300 MIFG NSC 08/08 Q1020 NOSIG=
201412172205 METAR VIDP NIL=
201412172230 METAR VIDP 172230Z 00000KT 0450 R28/P2000 R29/1000 FG NSC 07/07 Q1020 NOSIG=
201412172300 METAR VIDP 172300Z 25004KT 0400 R28/P2000 R29/0900 FG NSC 07/07 Q1019 BECMG VIS 0350=
201412172305 METAR VIDP NIL=
201412172330 METAR VIDP 172330Z 25004KT 0050 R28/1900 R29/0100 R10/1700 R11/0100 FG VV/// 06/06 Q1019 NOSIG=
201412180000 METAR VIDP 180000Z 23003KT 0050 R28/0150 R28M/1000 R29/0000 R10/0150 R11/0100 FG VV/// 06/06 Q1020 NOSIG=
201412180005 METAR VIDP NIL=
201412180030 METAR VIDP NIL=
201412180100 METAR VIDP 180100Z 17004KT R28/0200 R29/0050 FG VV/// 06/06 Q1020 NOSIG=
201412180105 METAR VIDP NIL=
201412180130 METAR VIDP 180130Z 28004KT 0050 R28/1200 R29/0150 FG VV/// 06/06 Q1021 NOSIG=
201412180200 METAR VIDP 180200Z 27003KT 0050 R28/0900 R29/0175 FG VV/// 07/07 Q1021 NOSIG=
201412180205 METAR VIDP NIL=
201412180230 METAR VIDP 180230Z 30005KT 0050 R28/0700 R10/0600 R29/0100 R11/0125 FG VV/// 07/07 Q1021 NOSIG=
201412180300 METAR VIDP 180300Z 30005KT 0100 R28/0800 R10/0800 R29/0400 R11/0150 FG VV/// 08/08 Q1021 BECMG VIS 0150=
201412180305 METAR VIDP NIL=
201412180330 METAR VIDP 180330Z 33005KT 0350 R28/0900 R10/0900 R29/0500 R11/0500 FG VV/// 08/08 Q1022 NOSIG=
201412180400 METAR VIDP 180400Z 32005KT 0400 R28/1300 R10/1200 R29/0500 R11/0500 FG VV/// 08/08 Q1022 BECMG 0600=
201412180405 METAR VIDP NIL=
201412180430 METAR VIDP NIL=
201412180500 METAR VIDP 180500Z 24004KT 0600 R28/1400 R10/1400 R29/0700 FG VV/// 09/08 Q1022 BECMG 0800=
201412180505 METAR VIDP NIL=
201412180530 METAR VIDP 180530Z 25005KT 0700 R28/1400 R10/1400 R29/0700 MIFG VV/// 10/08 Q1022 BECMG 0800=
201412180600 METAR VIDP 180600Z 25005KT 0800 R28/1400 R10/1300 R29/0800 MIFG NSC 11/08 Q1021 NOSIG=
201412180605 METAR VIDP NIL=
201412180630 METAR VIDP 180630Z 25007KT 0800 R28/1500 R10/1500 R29/0900 MIFG NSC 11/10 Q1021 NOSIG=
201412180700 METAR VIDP 180700Z 25006KT 0800 R28/1500 R10/1400 R29/1000 R11/1000 MIFG NSC 12/10 Q1020 NOSIG=
201412180705 METAR VIDP NIL=
201412180730 METAR VIDP 180730Z 25006KT 1000 R28/1500 R10/1400 R29/1100 R11/1000 MIFG NSC 12/10 Q1020 NOSIG=
201412180800 METAR VIDP 180800Z 27007KT 1000 R28/1500 R10/1300 R29/1200 R11/1200 BR NSC 13/10 Q1020 NOSIG=
201412180805 METAR VIDP NIL=
201412180830 METAR VIDP 180830Z 26005KT 1200 R28/1900 R10/2000 R29/1600 R11/1700 BR NSC 13/12 Q1020 BECMG VIS 1500=
201412180900 METAR VIDP 180900Z 25003KT 1200 R28/2000 R10/2000 R29/1600 R11/1800 BR FEW040 13/12 Q1020 BECMG VIS 1500=
201412180905 METAR VIDP NIL=
201412181000 METAR VIDP 181000Z 28004KT 1800 R28/2000 R10/2000 R29/2000 R11/2000 BR FEW100 15/11 Q1020 NOSIG=
201412181005 METAR VIDP NIL=
201412181030 METAR VIDP 181030Z 31004KT 1800 R28/2000 R10/2000 R29/2000 R11/2000 BR FEW100 15/11 Q1020 NOSIG=
201412181100 METAR VIDP 181100Z 28004KT 2000 BR FEW100 15/11 Q1020 NOSIG=
201412181105 METAR VIDP NIL=
201412181130 METAR VIDP 181130Z 27004KT 1700 R28/P2000 R29/1700 R27/P2000 R11/1700 BR FEW100 14/12 Q1020 NOSIG=
201412181200 METAR VIDP 181200Z 300003KT 1600 R28/P2000 R29/1700 R27/P2000 R11/2000 BR FEW100 14/12 Q1020 BECMG VIS 1500=
201412181205 METAR VIDP NIL=
201412181300 METAR VIDP 181300Z 28003KT 1100 R28/P2000 R29/P2000 R27/P2000 R11/2000 BR FEW100 13/12 Q1020 NOSIG=
201412181305 METAR VIDP NIL=
201412181330 METAR VIDP 181330Z 32003KT 1100 R28/P2000 R29/P2000 R27/P2000 R11/2000 BR FEW100 13/12 Q1020 NOSIG=
201412181400 METAR VIDP 181400Z 31003KT 0900 R28/P2000 R29/P2000 R27/P2000 R11/2000 MIFG FEW100 13/12 Q1021 BECMG 0800=
201412181405 METAR VIDP NIL=
201412181430 METAR VIDP NIL=
201412181500 METAR VIDP 181500Z 00000KT 0700 R28/P2000 R29/1400 R27/1600 R11/1600 MIFG FEW100 12/11 Q1021 BECMG 0600=
201412181505 METAR VIDP NIL=
201412181530 METAR VIDP 181530Z 00000KT 0600 R28/P2000 R29/1300 R27/1400 R11/1300 MIFG FEW100 12/11 Q1021 NOSIG=
201412181600 METAR VIDP 181600Z 00000KT 0600 R28/P2000 R29/1300 R27/1400 R11/1400 MIFG FEW100 11/11 Q1021 NOSIG=
201412181605 METAR VIDP NIL=
201412181630 METAR VIDP 181630Z 00000KT 0500 R28/1900 R29/1100 R27/1300 R11/1100 MIFG FEW100 11/11 Q1021 NOSIG=
201412181700 METAR VIDP 181700Z 00000KT 0400 R28/1900 R29/1100 R27/1300 R11/1100 MIFG FEW100 11/10 Q1021 TEMPO 0350=
201412181705 METAR VIDP NIL=
201412181730 METAR VIDP 181730Z 00000KT 0350 R28/2000 R29/1000 R10/2000 R28MID/1600 R27/1200 R29MID/0900 R11/0900 10/09 Q1021 NOSIG=
201412181800 METAR VIDP 181800Z 00000KT 0250 R28/2000 R29/0900 R10/1500 R28MID/1700 R27/1100 R11/0750 FG NSC 09/08 Q1021 NOSIG=
201412181805 METAR VIDP NIL=
201412181830 METAR VIDP 181830Z 00000KT 0200 R28/1900 R29/0700 R27/1000 R11/0700 FG NSC 09/08 Q1021 NOSIG=
201412181905 METAR VIDP NIL=
201412181930 METAR VIDP 181930Z 00000KT 0150 R28/1400 R10/1200 R29/0500 R27/0900 R11/0600 FG NSC 08/07 Q1021 NOSIG=
201412182000 METAR VIDP 182000Z 00000KT 0100 R28/1500 R10/0900 R29/0350 R27/0800 R11/0800 FG NSC 08/07 Q1020 NOSIG=
201412182005 METAR VIDP NIL=
201412182030 METAR VIDP 182030Z 00000KT 0100 R28/1300 R10/0600 R29/0300 R27/0450 R11/0300 FG 08/07 Q1020 NOSIG=
201412182100 METAR VIDP 182100Z 00000KT 0000 R28/1100 R10/0600 R29/0450 R27/0450 R11/0100 FG NSC 08/07 Q1020 NOSIG=
201412182105 METAR VIDP NIL=
201412182130 METAR VIDP 182130Z 00000KT 0000 R28/1000 R10/0800 R29/0700 R27/0600 R11/0125 FG NSC 08/07 Q1020 NOSIG=
201412182200 METAR COR VIDP 182200Z 00000KT 0100 R28/1000 R10/0500 R29/0600 R27/0900 R11/0650 FG NSC 08/07 Q1021 TEMPO 0150=
201412182205 METAR VIDP NIL=
201412182230 METAR VIDP 182230Z 00000KT 0100 R28/1400 R10/0950 R29/0600 R27/0750 R11/0250 FG NSC 08/07 Q1022 TEMPO 0150=
201412182300 METAR VIDP 182300Z 00000KT 0100 R28/0800 R10/0950 R29/0300 R27/0750 R11/0300 FG NSC 08/07 Q1022 TEMPO 0150=
201412182305 METAR VIDP NIL=
201412182330 METAR VIDP 182330Z 00000KT 0050 R28/0300 R10/0800 R29/0250 R27/0650 R11/0300 FG NSC 08/07 Q1022 NOSIG=
201412190000 METAR VIDP 190000Z 00000KT 0000 R28/0175 R10/0475 R29/0000 R27/0550 R11/0175 FG NSC 08/07 Q1022 NOSIG=
201412190005 METAR VIDP NIL=
201412190030 METAR VIDP 190030Z 00000KT 0000 R28/0200 R10/0250 R29/0000 R27/0225 R11/0100 FG VV/// 08/08 Q1022 NOSIG=
201412190100 METAR VIDP 190100Z 00000KT 0000 R28/0275 R10/0200 R29/0000 R27/0275 R11/0100 FG VV/// 09/08 Q1022 NOSIG=
201412190105 METAR VIDP NIL=
201412190130 METAR VIDP 190130Z 00000KT 0050 R28/1200 R10/0800 R29/0200 R27/0550 R11/0250 FG VV/// 09/08 Q1022 NOSIG=
201412190200 METAR VIDP 190200Z 30003KT 0100 R28/1200 R10/0800 R29/0450 R27/0600 R11/0600 FG VV/// 09/08 Q1023 TEMPO VIS 0150=
201412190205 METAR VIDP NIL=
201412190230 METAR VIDP 190230Z 00000KT 0200 R28/0800 R10/0600 R29/0350 R27/0600 R11/0450 FG VV/// 09/08 Q1023 NOSIG=
201412190300 METAR VIDP 190300Z 00000KT 0200 R28/0750 R10/0750 R29/0400 R27/0600 R11/0400 FG VV/// 09/08 Q1024 NOSIG=
201412190305 METAR VIDP NIL=
201412190330 METAR VIDP 190330Z 00000KT 0250 R28/0080 R10/0800 R29/0400 R27/0600 R11/0350 FG VV/// 09/08 Q1024 NOSIG=
201412190400 METAR VIDP 190400Z 23002KT 0300 R28/0850 R10/1000 R29/0450 R27/0600 R11/0550 FG VV/// 09/09 Q1024 BECMG VIS 0350=
201412190405 METAR VIDP NIL=
201412190430 METAR VIDP 190430Z 25004KT 0300 R28/0900 R10/1000 R29/0500 R27/0600 R11/0500 FG VV/// 09/09 Q1024 BECMG VIS 0350=
201412190500 METAR VIDP 190500Z 26003KT 0400 R28/0900 R10/1000 R29/0550 R27/0650 R11/0600 FG VV/// 09/09 Q1024 NOSIG=
201412190505 METAR VIDP NIL=
201412190530 METAR VIDP 190530Z 27003KT 0500 R28/0110 R10/1010 R29/0650 R27/0800 R11/0650 FG VV/// 10/10 Q1024 BECMG VIS 0600=
201412190600 METAR VIDP 190600Z 27004KT 0600 R28/1100 R10/1100 R29/0700 R27/0800 R11/0700 FG VV/// 10/10 Q1024 NOSIG=
201412190605 METAR VIDP NIL=
201412190630 METAR VIDP 190630Z 28003KT 0700 R28/1100 R10/1100 R29/0800 R27/0900 R11/0800 MIFG VV/// 11/10 Q1023 BECMG VIS 0800=
201412190705 METAR VIDP NIL=
201412190730 METAR VIDP 190730Z 26003KT 0800 R28/1200 R10/1300 R29/0900 R27/0900 R11/0900 MIFG NSC 13/10 Q1022 NOSIG=
201412190800 METAR VIDP 190800Z 27005KT 0800 R28/1200 R10/1200 R29/0900 R27/1000 R11/0900 MIFG NSC 14/11 Q1022 NOSIG=
201412190805 METAR VIDP NIL=
201412190830 METAR VIDP 190830Z 27006KT 0800 R28/1200 R10/1400 R29/0900 R27/0800 R11/1000 MIFG FEW030 SCT100 14/12 Q1021 NOSIG=
201412190900 METAR VIDP 190900Z 28006KT 0800 R28/1200 R10/1300 R29/0900 R27/0800 R11/1000 MIFG FEW030 SCT100 14/13 Q1021 NOSIG=
201412190905 METAR VIDP NIL=
201412190930 METAR VIDP 190930Z 29006KT 0800 R28/1300 R10/1300 R29/0900 R27/0900 R11/1000 MIFG SCT030 BKN100 14/13 Q1021 NOSIG=
201412191000 METAR VIDP 191000Z 00000KT 0800 R28/1500 R29/0900 MIFG SCT030 BKN100 14/13 Q1021 NOSIG=
201412191005 METAR VIDP NIL=
201412191030 METAR VIDP 191030Z 00000KT 0800 R28/1500 R29/0900 MIFG SCT030 BKN100 14/12 Q1021 NOSIG=
201412191100 METAR VIDP 191100Z 28005KT 0800 R28/1600 R29/0900 MIFG SCT030 BKN100 14/13 Q1021 NOSIG=
201412191105 METAR VIDP NIL=
201412191130 METAR VIDP 191130Z 28005KT 0800 R28/P2000 R29/1000 MIFG SCT030 BKN100 13/13 Q1020 NOSIG=
201412191200 METAR VIDP 191200Z 31003KT 1000 R28/2000 R29/1400 BR SCT030 BKN100 13/12 Q1020 NOSIG=
201412191205 METAR VIDP NIL=
201412191230 METAR VIDP 191230Z 00000KT 0900 R28/2000 R29/1700 MIFG SCT040 BKN100 13/13 Q1020 TEMPO 0800=
201412191305 METAR VIDP NIL=
201412191330 METAR VIDP 191330Z 00000KT 0500 R28/2000 R29/1300 MIFG SCT040 BKN100 11/11 Q1021 BECMG 0350=
201412191400 METAR VIDP 191400Z 00000KT 0500 R28/2000 R29/1300 MIFG SCT040 BKN100 11/11 Q1021 BECMG 0350=
201412191405 METAR VIDP NIL=
201412191430 METAR VIDP 191430Z 00000KT 0500 R28/2000 R29/1300 MIFG FEW040 SCT100 10/10 Q1021 BECMG 0350=
201412191500 METAR VIDP 191500Z 00000KT 0500 R28/2000 R29/1700 MIFG SCT100 11/11 Q1022 NOSIG=
201412191505 METAR VIDP NIL=
201412191530 METAR VIDP 191530Z 00000KT 0500 R28/2000 R29/1300 MIFG SCT100 11/11 Q1022 NOSIG=
201412191600 METAR VIDP 191600Z 00000KT 0500 R28/2000 R29/1300 MIFG SCT100 10/10 Q1022 NOSIG=
201412191605 METAR VIDP NIL=
201412191630 METAR VIDP 191630Z 00000KT 0400 R28/2000 R29/1000 FG SCT100 10/10 Q1022 NOSIG=
201412191700 METAR VIDP 191700Z 00000KT 0400 R28/2000 R29/0900 FG SCT100 10/10 Q1022 BECMG 0350=
201412191705 METAR VIDP NIL=
201412191730 METAR VIDP 191730Z 34004KT 0300 R28/2000 R29/1000 FG SCT100 10/10 Q1021 TEMPO 0150=
201412191800 METAR VIDP 191800Z 00000KT 0300 R28/2000 R29/0900 FG SCT100 10/10 Q1021 TEMPO 0150=
201412191805 METAR VIDP NIL=
201412191830 METAR VIDP 191830Z 00000KT 0200 R28/2000 R29/0600 FG FEW100 09/09 Q1021 TEMPO 0150=
201412191900 METAR VIDP 191900Z 00000KT 0150 R28/1200 R29/0400 FG FEW100 09/09 Q1021 NOSIG=
201412191905 METAR VIDP NIL=
201412191930 METAR VIDP 191930Z 00000KT 0100 R28/1200 R29/0400 FG FEW100 08/08 Q1020 NOSIG=
201412192000 METAR VIDP 192000Z 29003KT 0000 R28/1600 R29/0400 FG FEW100 08/08 Q1020 NOSIG=
201412192005 METAR VIDP NIL=
201412192030 METAR VIDP 192030Z 27003KT 0000 R28/1600 R29/0100 VV/// 08/08 Q1020 NOSIG=
201412192100 METAR VIDP 192100Z 30005KT 0000 R28/1600 R29/0150 VV/// 08/08 Q1020 NOSIG=
201412192105 METAR VIDP NIL=
201412192130 METAR VIDP 192130Z 30005KT 0050 R28/1600 R29/0150 VV/// 08/08 Q1020 NOSIG=
201412192200 METAR VIDP 192200Z 31007KT 0600 R28/2000 R29/1700 MIFG SCT100 09/09 Q1020 NOSIG=
201412192205 METAR VIDP NIL=
201412192230 METAR VIDP 192230Z 32008KT 0500 R28/2000 R29/1000 FG SCT100 09/09 Q1020 TEMPO 0350=
201412192300 METAR VIDP 192300Z 32007KT 0700 R28/2000 R29/1000 MIFG SCT100 09/09 Q1020 TEMPO 0800=
201412192305 METAR VIDP NIL=
201412192330 METAR VIDP NIL=
201412200000 METAR VIDP 200000Z 32006KT 1000 R28/P2000 R29/2000 BR SCT100 09/09 Q1020 NOSIG=
201412200005 METAR VIDP NIL=
201412200030 METAR VIDP 200030Z 31005KT 1100 R28/P2000 R29/P2000 BR SCT100 09/09 Q1020 NOSIG=
201412200100 METAR VIDP 200100Z 32007KT 1200 R28/29/P2000 BR SCT100 09/09 Q1020 NOSIG=
201412200105 METAR VIDP NIL=
201412200130 METAR VIDP 200130Z 30006KT 1000 R28/29/P2000 BR SCT100 09/09 Q1020 BECMG 0800=
201412200205 METAR VIDP NIL=
201412200230 METAR VIDP 200230Z 29007KT 0800 R28/P2000 R29/1100 MIFG SCT100 09/09 Q1021 NOSIG=
201412200300 METAR VIDP 200300Z 30007KT 1000 R28/1800 R29/1100 BR SCT100 08/08 Q1021 NOSIG=
201412200305 METAR VIDP NIL=
201412200330 METAR VIDP 200330Z 30007KT 1000 R28/1500 R29/1200 BR SCT100 08/08 Q1021 NOSIG=
201412200400 METAR VIDP 200400Z 28006KT 1000 R28/1800 R29/1200 BR SCT100 08/08 Q1022 NOSIG=
201412200405 METAR VIDP NIL=
201412200430 METAR VIDP 200430Z 28006KT 1200 R28/2000 R29/1200 BR SCT100 09/09 Q1022 NOSIG=
201412200500 METAR VIDP 200500Z 29005KT 1200 R28/1800 R29/1500 BR FEW100 10/09 Q1021 NOSIG=
201412200505 METAR VIDP NIL=
201412200530 METAR VIDP 200530Z 27006KT 1300 R28/1300 R29/1400 BR FEW100 10/09 Q1021 BECMG 1500=
201412200605 METAR VIDP NIL=
201412200630 METAR VIDP 200630Z 28008KT 1800 R28/2000 R29/P2000 BR FEW100 12/09 Q1020 NOSIG=
201412200700 METAR VIDP 200700Z 28008KT 2000 R28/2000 R29/P2000 BR FEW100 12/09 Q1020 NOSIG=
201412200705 METAR VIDP NIL=
201412200730 METAR VIDP 200730Z 29007KT 2200 R28/2000 R29/P2000 BR FEW100 12/10 Q1019 NOSIG=
201412200800 METAR VIDP 200800Z 29006KT 2400 BR FEW100 13/11 Q1018 NOSIG=
201412200805 METAR VIDP NIL=
201412200830 METAR VIDP 200830Z 29009KT 2400 BR FEW100 14/11 Q1018 NOSIG=
201412200900 METAR VIDP 200900Z 30006KT 2500 HZ FEW100 15/10 Q1017 NOSIG=
201412200905 METAR VIDP NIL=
201412200930 METAR VIDP 200930Z 30008KT 2500 HZ FEW100 15/09 Q1017 BECMG 3000=
201412201005 METAR VIDP NIL=
201412201030 METAR VIDP NIL=
201412201100 METAR VIDP 201100Z 29008KT 3000 HZ NSC 16/09 Q1017 NOSIG=
201412201105 METAR VIDP NIL=
201412201130 METAR VIDP 201130Z 29008KT 3000 HZ NSC 15/08 Q1016 NOSIG=
201412201200 METAR VIDP 201200Z 27006KT 2500 HZ NSC 14/09 Q1016 NOSIG=
201412201205 METAR VIDP NIL=
201412201230 METAR VIDP 201230Z 27006KT 2200 BR NSC 13/09 Q1016 NOSIG=
201412201300 METAR VIDP 201300Z 28006KT 1800 R28/P2000 R29/P2000 BR NSC 12/09 Q1017 NOSIG=
201412201305 METAR VIDP NIL=
201412201330 METAR VIDP 201330Z 29007KT 1600 R28/P2000 R29/P2000 BR NSC 12/09 Q1017 BECMG 1500=
201412201405 METAR VIDP NIL=
201412201430 METAR VIDP 201430Z 28005KT 1200 R28/P2000 R29/P2000 BR NSC 10/09 Q1017 NOSIG=
201412201500 METAR VIDP 201500Z 28005KT 1100 R28/P2000 R29/P2000 BR NSC 09/08 Q1017 NOSIG=
201412201505 METAR VIDP NIL=
201412201530 METAR VIDP 201530Z 28005KT 1000 R28/P2000 R29/P2000 BR NSC 09/08 Q1017 NOSIG=
201412201600 METAR VIDP 201600Z 28005KT 0900 R28/P2000 R29/1700 MIFG NSC 09/08 Q1017 BECMG VIS 0800=
201412201605 METAR VIDP NIL=
201412201630 METAR VIDP NIL=
201412201705 METAR VIDP NIL=
201412201805 METAR VIDP NIL=
201412201830 METAR VIDP 201830Z 00000KT 0600 R28/P2000 R29/1500 MIFG NSC 08/07 Q1017 NOSIG=
201412201900 METAR VIDP 201900Z 30004KT 0600 R28/P2000 R29/1600 MIFG NSC 08/07 Q1017 NOSIG=
201412201905 METAR VIDP NIL=
201412201930 METAR VIDP 201930Z 32004KT 0600 R28/P2000 R29/1600 MIFG NSC 07/06 Q1017 NOSIG=
201412202000 METAR VIDP 202000Z 30005KT 0600 R28/P2000 R29/1600 MIFG NSC 07/06 Q1017 NOSIG=
201412202005 METAR VIDP NIL=
201412202030 METAR VIDP 202030Z 33005KT 0400 R28/1700 R29/1200 FG NSC 07/07 Q1016 BECMG 0350=
201412202100 METAR VIDP 202100Z 32005KT 0350 R28/1900 R29/1100 FG NSC 07/07 Q1016 NOSIG=
201412202105 METAR VIDP NIL=
201412202130 METAR VIDP 202130Z 35004KT 0350 R28/1800 R29/1500 FG NSC 07/07 Q1016 NOSIG=
201412202200 METAR VIDP 202200Z 30005KT 0350 R28/2000 R29/1400 FG NSC 07/07 Q1016 NOSIG=
201412202205 METAR VIDP NIL=
201412202230 METAR VIDP 202230Z 32005KT 0350 R28/2000 R29/1500 FG NSC 07/07 Q1016 NOSIG=
201412202300 METAR VIDP 202300Z 29005KT 0350 R28/2000 R29/1000 FG NSC 07/07 Q1016 NOSIG=
201412202305 METAR VIDP NIL=
201412202330 METAR VIDP 202330Z 28004KT 0350 R28/2000 R29/1000 FG NSC 07/07 Q1016 NOSIG=
201412210000 METAR VIDP 210000Z 30004KT 0400 R28/2000 R29/1400 FG NSC 07/07 Q1016 NOSIG=
201412210005 METAR VIDP NIL=
201412210030 METAR VIDP 210030Z 29004KT 0500 R28/2000 R29/1400 FG FEW100 07/07 Q1016 NOSIG=
201412210100 METAR VIDP 210100Z 27004KT 0500 R28/2000 R29/1600 FG FEW100 07/07 Q1017 NOSIG=
201412210105 METAR VIDP NIL=
201412210130 METAR VIDP 210130Z 00000KT 0500 R28/2000 R29/1700 FG FEW100 07/07 Q1017 NOSIG=
201412210200 METAR VIDP 210200Z 00000KT 0500 R28/2000 R29/1700 FG FEW100 07/07 Q1017 BECMG VIS 0600=
201412210205 METAR VIDP NIL=
201412210230 METAR VIDP 210230Z 00000KT 0600 R28/1400 R29/0800 MIFG FEW100 07/07 Q1017 NOSIG=
201412210300 METAR VIDP 210300Z 00000KT 0700 R28/1400 R29/0800 MIFG FEW100 08/07 Q1018 BECMG 0800=
201412210305 METAR VIDP NIL=
201412210330 METAR VIDP 210330Z 27004KT 0700 R28/1500 R29/0800 MIFG FEW100 08/07 Q1019 BECMG VIS 0800=
201412210400 METAR VIDP 210400Z 00000KT 0800 R28/1500 R29/0800 MIFG FEW100 08/07 Q1020 NOSIG=
201412210405 METAR VIDP NIL=
201412210430 METAR VIDP 210430Z 00000KT 0900 R28/1500 R29/0900 MIFG FEW100 09/08 Q1020 NOSIG=
201412210500 METAR VIDP 210500Z 09003KT 1000 R28/1400 R29/1100 BR VV/// 09/08 Q1020 NOSIG=
201412210505 METAR VIDP NIL=
201412210530 METAR VIDP 210530Z 08004KT 1200 R28/1500 R29/1200 BR VV/// 10/08 Q1020 NOSIG=
201412210600 METAR VIDP 210600Z 00000KT 1400 R28/1600 R29/1400 BR VV/// 11/09 Q1020 BECMG 1500=
201412210605 METAR VIDP NIL=
201412210630 METAR VIDP 210630Z 00000KT 1400 R28/1700 R29/1600 BR VV/// 12/09 Q1019 BECMG 1500=
201412210705 METAR VIDP NIL=
201412210730 METAR VIDP 210730Z 00000KT 1500 R28/1600 R29/1900 FU NSC 14/08 Q1018 NOSIG=
201412210800 METAR VIDP 210800Z 00000KT 1500 R28/1600 R29/1800 FU NSC 15/08 Q1018 NOSIG=
201412210805 METAR VIDP NIL=
201412210830 METAR VIDP 210830Z 09005KT 1000 R28/1300 R29/1400 FU NSC 16/09 Q1017 NOSIG=
201412210900 METAR VIDP 210900Z 09005KT 1300 R28/1300 R29/1300 FU NSC 16/09 Q1016 NOSIG=
201412210905 METAR VIDP NIL=
201412210930 METAR VIDP 210930Z 08005KT 1000 R28/1200 R29/1000 FU FEW100 16/09 Q1016 NOSIG=
201412211000 METAR VIDP 211000Z 08006KT 1000 R28/1200 R29/1000 FU FEW100 16/09 Q1016 NOSIG=
201412211005 METAR VIDP NIL=
201412211030 METAR VIDP 211030Z 08005KT 1000 R28/1500 R29/1200 FU FEW100 15/09 Q1016 NOSIG=
201412211100 METAR VIDP 211100Z 08005KT 0900 R28/1600 R29/1200 FU FEW100 14/09 Q1016 BECMG 0800=
201412211105 METAR VIDP NIL=
201412211200 METAR VIDP 211200Z 09006KT 0900 R28/1900 R29/1800 MIFG FEW100 12/10 Q1016 NOSIG=
201412211205 METAR VIDP NIL=
201412211230 METAR VIDP 211230Z 09005KT 0800 R28/2000 R29/1600 MIFG FEW100 11/10 Q1016 NOSIG=
201412211300 METAR VIDP 211300Z 09004KT 0700 R28/2000 R29/1600 MIFG FEW100 10/10 Q1016 NOSIG=
201412211305 METAR VIDP NIL=
201412211330 METAR VIDP 211330Z 10004KT 0700 R28/2000 R29/1600 MIFG FEW100 10/10 Q1017 NOSIG=
201412211400 METAR VIDP 211400Z 11004KT 0700 R28/2000 R29/1700 MIFG FEW100 09/09 Q1017 TEMPO 0600=
201412211405 METAR VIDP NIL=
201412211430 METAR VIDP 211430Z 09004KT 0600 R28/2000 R29/1500 MIFG FEW100 09/09 Q1017 NOSIG=
201412211500 METAR VIDP 211500Z 08003KT 0600 R28/2000 R29/1400 MIFG FEW100 08/08 Q1017 NOSIG=
201412211505 METAR VIDP NIL=
201412211530 METAR VIDP 211530Z 09003KT 0600 R28/2000 R29/1400 MIFG FEW100 08/08 Q1017 NOSIG=
201412211600 METAR VIDP 211600Z 00000KT 0400 R28/2000 R29/1200 FG FEW100 08/08 Q1018 NOSIG=
201412211605 METAR VIDP NIL=
201412211630 METAR VIDP 211630Z 00000KT 0400 R28/2000 R29/1200 FG FEW100 08/08 Q1018 NOSIG=
201412211700 METAR VIDP 211700Z 00000KT 0400 R28/2000 R29/1400 FG FEW100 07/07 Q1018 NOSIG=
201412211705 METAR VIDP NIL=
201412211730 METAR VIDP 211730Z 00000KT 0400 R28/2000 R29/1400 FG FEW100 07/07 Q1018 NOSIG=
201412211800 METAR VIDP 211800Z 00000KT 0400 R28/1900 R29/1200 FG FEW100 07/07 Q1018 BECMG 0350=
201412211805 METAR VIDP NIL=
201412211830 METAR VIDP 211830Z 00000KT 0350 R28/1900 R29/1300 FG FEW100 07/07 Q1017 NOSIG=
201412211900 METAR VIDP 211900Z 00000KT 0350 R28/1700 R29/1400 FG FEW100 07/07 Q1017 NOSIG=
201412211905 METAR VIDP NIL=
201412211930 METAR COR VIDP 211930Z 00000KT 0350 R28/P2000 R29/1300 FG FEW100 07/07 Q1017 NOSIG=
201412212000 METAR VIDP 212000Z 00000KT 0350 R28/P2000 R29/1200 FG FEW100 07/07 Q1016 NOSIG=
201412212005 METAR VIDP NIL=
201412212030 METAR VIDP 212030Z 00000KT 0350 R28/1700 R29/1100 FG FEW100 06/06 Q1016 NOSIG=
201412212100 METAR VIDP 212100Z 00000KT 0350 R28/1700 R29/1300 FG FEW100 06/06 Q1016 NOSIG=
201412212105 METAR VIDP NIL=
201412212130 METAR VIDP 212130Z 00000KT 0350 R28/1700 R29/1300 FG FEW100 06/06 Q1016 NOSIG=
201412212200 METAR VIDP 212200Z 00000KT 0200 R28/1700 R29/0900 FG FEW100 06/06 Q1016 NOSIG=
201412212205 METAR VIDP NIL=
201412212230 METAR VIDP 212230Z 00000KT 0200 R28/1600 R29/0500 FG FEW100 06/06 Q1016 TEMPO 0150=
201412212300 METAR VIDP 212300Z 09004KT 0200 R28/1200 R29/0800 FG FEW100 06/06 Q1016 TEMPO 0150=
201412212305 METAR VIDP NIL=
201412212330 METAR VIDP 212330Z 00000KT 0200 R28/1200 R29/0700 FG FEW100 06/06 Q1016 TEMPO 0150=
201412220000 METAR VIDP 220000Z 00000KT 0000 R28/0900 R29/0075 FG VV/// 06/06 Q1016 NOSIG=
201412220005 METAR VIDP NIL=
201412220030 METAR VIDP 220030Z 00000KT 0000 R28/0100 R29/0000 FG VV/// 06/06 Q1016 NOSIG=
201412220100 METAR VIDP 220100Z 00000KT 0000 R28/0100 R29/0000 FG VV/// 06/06 Q1017 NOSIG=
201412220105 METAR VIDP NIL=
201412220130 METAR VIDP 220130Z 09004KT 0000 R28/0125 R29/0000 FG VV/// 06/06 Q1017 NOSIG=
201412220200 METAR VIDP 220200Z 09004KT 0000 R28/0100 R29/0000 FG VV/// 06/06 Q1017 NOSIG=
201412220205 METAR VIDP NIL=
201412220230 METAR VIDP 220230Z 10004KT 0000 R28/0100 R29/0000 FG VV/// 06/06 Q1017 NOSIG=
201412220300 METAR VIDP 220300Z 11005KT 0000 R28/0120 R29/0000 FG VV/// 07/07 Q1017 NOSIG=
201412220305 METAR VIDP NIL=
201412220330 METAR VIDP 220330Z 11005KT 0050 R28/0150 R29/0075 FG VV/// 07/07 Q1018 BECMG 0150=
201412220400 METAR VIDP 220400Z 12006KT 0050 R28/0250 R29/0100 FG VV/// 08/08 Q1018 BECMG 0150=
201412220405 METAR VIDP NIL=
201412220430 METAR VIDP 220430Z 11006KT 0100 R28/0225 R29/0250 FG VV/// 08/08 Q1018 BECMG VIS 0150=
201412220500 METAR VIDP 220500Z 11005KT 0200 R28/0600 R29/0300 FG VV/// 08/08 Q1019 BECMG VIS 0350=
201412220505 METAR VIDP NIL=
201412220530 METAR VIDP 220530Z 10005KT 0450 R28/0800 R29/0500 FG VV/// 08/08 Q1018 BECMG VIS 0600=
201412220600 METAR VIDP 220600Z 10003KT 0600 R28/1000 R29/0600 MIFG NSC 10/10 Q1018 BECMG VIS 0800=
201412220605 METAR VIDP NIL=
201412220630 METAR VIDP 220630Z 10004KT 0700 R28/1100 R29/0700 MIFG NSC 11/11 Q1017 BECMG VIS 0800=
201412220705 METAR VIDP NIL=
201412220730 METAR VIDP 220730Z 13005KT 0800 R28/1100 R29/0800 MIFG NSC 14/13 Q1016 NOSIG=
201412220800 METAR VIDP 220800Z 12004KT 0800 R28/1300 R29/0800 MIFG NSC 15/13 Q1016 NOSIG=
201412220805 METAR VIDP NIL=
201412220830 METAR VIDP 220830Z 13005KT 0800 R28/1200 R29/0800 MIFG NSC 15/13 Q1016 NOSIG=
201412220900 METAR VIDP 220900Z 13005KT 0900 R28/1200 R29/0900 MIFG NSC 15/13 Q1015 NOSIG=
201412220905 METAR VIDP NIL=
201412220930 METAR VIDP 220930Z 13006KT 0900 R28/1400 R29/1100 FU NSC 16/10 Q1015 NOSIG=
201412221000 METAR VIDP 221000Z 11005KT 1000 R28/1400 R29/1000 FU NSC 16/11 Q1015 NOSIG=
201412221005 METAR VIDP NIL=
201412221030 METAR VIDP 221030Z 13005KT 1000 R28/1400 R29/1000 BR NSC 15/11 Q1015 NOSIG=
201412221100 METAR VIDP 221100Z 13005KT 1000 R28/1600 R29/1200 BR NSC 15/11 Q1015 NOSIG=
201412221105 METAR VIDP NIL=
201412221130 METAR VIDP 221130Z 12005KT 1000 R28/1700 R29/1200 BR NSC 14/11 Q1015 NOSIG=
201412221200 METAR VIDP 221200Z 12005KT 0900 R28/1700 R29/1200 MIFG NSC 14/11 Q1015 BECMG VIS 0800=
201412221205 METAR VIDP NIL=
201412221300 METAR VIDP 221300Z 12006KT 0700 R28/2000 R29/1500 MIFG NSC 11/10 Q1015 BECMG VIS 0600=
201412221305 METAR VIDP NIL=
201412221330 METAR VIDP 221330Z 12004KT 0600 R28/2000 R29/1300 MIFG NSC 10/09 Q1015 NOSIG=
201412221400 METAR VIDP 221400Z 12004KT 0500 R28/2000 R29/1100 MIFG NSC 09/09 Q1016 NOSIG=
201412221405 METAR VIDP NIL=
201412221430 METAR VIDP 221430Z 13004KT 0400 R28/2000 R29/1000 FG NSC 09/09 Q1016 NOSIG=
201412221500 METAR COR VIDP 221500Z 12005KT 0400 R28/0900 R29/0900 FG NSC 09/08 Q1016 BECMG 0350=
201412221505 METAR VIDP NIL=
201412221530 METAR VIDP 221530Z 11006KT 0300 R28/1100 R29/0800 FG NSC 08/08 Q1016 NOSIG=
201412221600 METAR VIDP 221600Z 12006KT 0250 R28/1100 R29/0800 FG NSC 08/08 Q1016 NOSIG=
201412221605 METAR VIDP NIL=
201412221630 METAR VIDP 221630Z 13006KT 0250 R28/1500 R29/0800 FG NSC 08/08 Q1016 NOSIG=
201412221700 METAR VIDP 221700Z 13006KT 0200 R28/1700 R29/0700 FG NSC 07/07 Q1016 NOSIG=
201412221705 METAR VIDP NIL=
201412221730 METAR VIDP 221730Z 13006KT 0200 R28/1100 R29/0700 FG NSC 07/07 Q1016 NOSIG=
201412221800 METAR VIDP 221800Z 14005KT 0250 R28/1300 R29/1000 FG NSC 07/07 Q1016 NOSIG=
201412221805 METAR VIDP NIL=
201412221830 METAR VIDP 221830Z 13005KT 0250 R28/1300 R29/0800 FG NSC 07/07 Q1016 NOSIG=
201412221900 METAR VIDP 221900Z 12004KT 0250 R28/1400 R29/0800 FG NSC 07/07 Q1016 NOSIG=
201412221905 METAR VIDP NIL=
201412221930 METAR VIDP 221930Z 12005KT 0300 R28/1500 R29/0800 FG NSC 06/06 Q1016 NOSIG=
201412222000 METAR VIDP 222000Z 13005KT 0300 R28/1600 R29/0800 FG VV/// 06/06 Q1016 NOSIG=
201412222005 METAR VIDP NIL=
201412222030 METAR VIDP 222030Z 13004KT 0300 R28/1700 R29/0800 FG VV/// 06/06 Q1016 NOSIG=
201412222100 METAR VIDP 222100Z 12004KT 0250 R28/1200 R29/0700 FG VV/// 06/06 Q1016 NOSIG=
201412222105 METAR VIDP NIL=
201412222130 METAR VIDP 222130Z 12006KT 0250 R28/1100 R29/0800 FG VV/// 06/06 Q1016 NOSIG=
201412222200 METAR VIDP 222200Z 13007KT 0250 R28/1100 R29/0800 FG VV/// 06/06 Q1016 NOSIG=
201412222205 METAR VIDP NIL=
201412222230 METAR VIDP 222230Z 13009KT 0250 R28/1100 R29/0800 FG VV/// 06/06 Q1016 NOSIG=
201412222300 METAR VIDP 222300Z 13007KT 0250 R28/1400 R29/0900 FG VV/// 06/06 Q1015 NOSIG=
201412222305 METAR VIDP NIL=
201412222330 METAR VIDP 222330Z 15006KT 0300 R28/1300 R29/1400 FG VV/// 06/06 Q1016 TEMPO 0350=
201412230000 METAR VIDP 230000Z 12004KT 0500 R28/1800 R29/1500 FG VV/// 06/06 Q1016 NOSIG=
201412230005 METAR VIDP NIL=
201412230030 METAR VIDP 230030Z 14006KT 0500 R28/P2000 R29/1400 FG VV/// 06/06 Q1016 NOSIG=
201412230100 METAR VIDP 230100Z 12006KT 0500 R28/P2000 R29/1300 FG VV/// 07/06 Q1016 NOSIG=
201412230105 METAR VIDP NIL=
201412230130 METAR VIDP 230130Z 11006KT 0500 R28/P2000 R29/1500 FG VV/// 07/06 Q1017 TEMPO 0600=
201412230200 METAR VIDP 230200Z 12005KT 0600 R28/1700 R29/1500 MIFG VV/// 07/06 Q1017 NOSIG=
201412230205 METAR VIDP NIL=
201412230230 METAR VIDP 230230Z 12008KT 0700 R28/1700 R29/1000 MIFG VV/// 07/06 Q1017 TEMPO VIS 0800=
201412230300 METAR VIDP 230300Z 13006KT 0700 R28/1400 R29/0800 MIFG VV/// 07/06 Q1018 TEMPO VIS 0800=
201412230305 METAR VIDP NIL=
201412230330 METAR VIDP 230330Z 13006KT 0700 R28/1100 R29/0800 MIFG VV/// 07/06 Q1018 TEMPO VIS 0800=
201412230405 METAR VIDP NIL=
201412230430 METAR VIDP 230430Z 14007KT 0900 R28/1300 R29/0900 MIFG NSC 08/07 Q1019 NOSIG=
201412230500 METAR VIDP 230500Z 13006KT 0900 R28/1500 R29/0900 MIFG NSC 09/07 Q1019 NOSIG=
201412230505 METAR VIDP NIL=
201412230530 METAR VIDP 230530Z 14007KT 1100 R28/1600 R29/1200 BR NSC 10/07 Q1019 NOSIG=
201412230600 METAR VIDP 230600Z 13006KT 1200 R28/1900 R29/1200 BR NSC 11/07 Q1018 BECMG 1500=
201412230605 METAR VIDP NIL=
201412230630 METAR VIDP 230630Z 13006KT 1200 R28/2000 R29/1200 HZ NSC 12/07 Q1018 BECMG 1500=
201412230700 METAR VIDP 230700Z 14006KT 1200 R28/2000 R29/1200 HZ NSC 13/07 Q1018 NOSIG=
201412230705 METAR VIDP NIL=
201412230730 METAR VIDP 230730Z 14004KT 1200 R28/2000 R29/1300 HZ NSC 14/07 Q1018 NOSIG=
201412230800 METAR VIDP 230800Z 15004KT 1300 R28/2000 R29/1300 HZ NSC 14/08 Q1017 BECMG 1500=
201412230805 METAR VIDP NIL=
201412230830 METAR COR VIDP 230830Z 09004KT 1400 R28/2000 R29/1600 HZ NSC 16/09 Q1016 BECMG 1500=
201412230905 METAR VIDP NIL=
201412230930 METAR VIDP 230930Z 08005KT 1600 R28/P2000 R29/1800 HZ NSC 16/09 Q1015 NOSIG=
201412231000 METAR VIDP 231000Z 08005KT 1600 R28/P2000 R29/1800 HZ NSC 16/09 Q1015 NOSIG=
201412231005 METAR VIDP NIL=
201412231030 METAR VIDP 231030Z 08006KT 1700 R28/P2000 R29/1900 HZ NSC 15/09 Q1015 NOSIG=
201412231100 METAR VIDP 231100Z 10006KT 1800 R28/P2000 R29/1900 HZ NSC 15/09 Q1015 NOSIG=
201412231105 METAR VIDP NIL=
201412231130 METAR VIDP 231130Z 11005KT 1700 R28/P2000 R29/1700 HZ NSC 14/09 Q1015 NOSIG=
201412231200 METAR VIDP 231200Z 11004KT 1600 R28/P2000 R29/1800 BR NSC 13/09 Q1015 BECMG 1500=
201412231205 METAR VIDP NIL=
201412231300 METAR VIDP 231300Z 12003KT 1100 R28/P2000 R29/P2000 BR NSC 12/10 Q1016 NOSIG=
201412231305 METAR VIDP NIL=
201412231330 METAR COR VIDP 231330Z 00000KT 0900 R28/P2000 R29/P2000 BR NSC 11/11 Q1016 BECMG=
201412231405 METAR VIDP NIL=
201412231430 METAR VIDP 231430Z 00000KT 0800 R28/P2000 R29/1600 MIFG NSC 10/10 Q1017 NOSIG=
201412231500 METAR VIDP 231500Z 00000KT 0700 R28/P2000 R29/1600 MIFG NSC 10/10 Q1017 BECMG 0600=
201412231505 METAR VIDP NIL=
201412231530 METAR COR VIDP 231530Z 00000KT 0700 R28/P2000 R29/1300 MIFG NSC 10/10 Q1017 NOSIG=
201412231600 METAR VIDP 231600Z 00000KT 0600 R28/P2000 R29/1200 MIFG NSC 10/10 Q1017 NOSIG=
201412231605 METAR VIDP NIL=
201412231630 METAR VIDP 231630Z 00000KT 0600 R28/P2000 R29/1200 MIFG NSC 08/08 Q1017 NOSIG=
201412231700 METAR VIDP 231700Z 00000KT 0600 R28/P2000 R29/1200 MIFG NSC 08/08 Q1017 NOSIG=
201412231705 METAR VIDP NIL=
201412231730 METAR VIDP 231730Z 00000KT 0400 R28/P2000 R29/1100 FG NSC 08/08 Q1018 BECMG 0350=
201412231800 METAR VIDP 231800Z 00000KT 0400 R28/P2000 R29/1200 FG NSC 08/08 Q1018 BECMG 0350=
201412231805 METAR VIDP NIL=
201412231830 METAR VIDP 231830Z 00000KT 0400 R28/P2000 R29/1200 FG NSC 08/08 Q1018 BECMG 0350=
201412231900 METAR VIDP 231900Z 00000KT 0350 R28/P2000 R29/1200 FG NSC 07/07 Q1018 NOSIG=
201412231905 METAR VIDP NIL=
201412231930 METAR VIDP 231930Z 00000KT 0300 R28/P2000 R29/1200 FG NSC 07/07 Q1017 NOSIG=
201412232000 METAR VIDP 232000Z 00000KT 0300 R28/P2000 R29/1200 FG NSC 07/07 Q1017 NOSIG=
201412232005 METAR VIDP NIL=
201412232030 METAR VIDP 232030Z 00000KT 0300 R28/1800 R29/1000 FG NSC 07/07 Q1017 NOSIG=
201412232100 METAR VIDP 232100Z 00000KT 0300 R28/P2000 R29/1000 FG NSC 08/08 Q1017 NOSIG=
201412232105 METAR VIDP NIL=
201412232130 METAR VIDP 232130Z 00000KT 0300 R28/1500 R29/0900 FG NSC 08/08 Q1018 NOSIG=
201412232200 METAR COR VIDP 232200Z 00000KT 0300 R28/1400 R29/0900 FG NSC 08/08 Q1018 NOSIG=
201412232205 METAR VIDP NIL=
201412232230 METAR VIDP 232230Z 00000KT 0300 R28/1400 R29/0900 FG NSC 07/07 Q1018 NOSIG=
201412232300 METAR VIDP 232300Z 00000KT 0250 R28/1400 R29/0800 FG NSC 08/08 Q1018 NOSIG=
201412232305 METAR VIDP NIL=
201412232330 METAR VIDP 232330Z 00000KT 0250 R28/1400 R29/0700 FG NSC 07/07 Q1018 BECMG 0150=
201412240000 METAR VIDP 240000Z 00000KT 0250 R28/1400 R29/0600 FG NSC 07/07 Q1018 BECMG 0150=
201412240005 METAR VIDP NIL=
201412240030 METAR VIDP 240030Z 00000KT 0250 R28/1400 R29/0600 FG NSC 07/07 Q1018 BECMG 0150=
201412240105 METAR VIDP NIL=
201412240130 METAR VIDP 240130Z 24003KT 0050 R28/0700 R29/0400 FG VV/// 06/06 Q1019 NOSIG=
201412240200 METAR VIDP 240200Z 24006KT 0000 R28/0100 R29/0000 FG VV/// 06/06 Q1020 NOSIG=
201412240205 METAR VIDP NIL=
201412240230 METAR VIDP 240230Z 27005KT 0000 R28/0100 R29/0000 FG VV/// 05/05 Q1020 NOSIG=
201412240300 METAR VIDP 240300Z 28006KT 0000 R28/0075 R29/0000 FG VV/// 06/06 Q1021 BECMG VIS 0150=
201412240305 METAR VIDP NIL=
201412240330 METAR VIDP 240330Z 25005KT 0000 R28/0075 R2 CHECK TEXT NEW ENDING ADDED VIDPYFYX=
201412240400 METAR VIDP 240400Z 28004KT 0050 R28/0125 R29/0050 FG VV/// 06/06 Q1022 NOSIG=
201412240405 METAR VIDP NIL=
201412240430 METAR VIDP 240430Z 27004KT 0050 R28/0125 R29/0050 FG VV/// 06/06 Q1022 NOSIG=
201412240500 METAR VIDP 240500Z 26004KT 0050 R28/0150 R29/0075 FG VV/// 07/07 Q1022 BECMG 0150=
201412240505 METAR VIDP NIL=
201412240530 METAR VIDP 240530Z 27004KT 0050 R28/0600 R29/0100 FG VV/// 07/07 Q1022 BECMG 0150=
201412240600 METAR VIDP 240600Z 29004KT 0150 R28/0600 R29/0150 FG VV/// 08/08 Q1022 BECMG 0350=
201412240605 METAR VIDP NIL=
201412240630 METAR VIDP 240630Z 25004KT 0200 R28/0800 R29/0375 FG VV/// 08/07 Q1021 BECMG 0350=
201412240700 METAR VIDP 240700Z 26005KT 0300 R28/1000 R29/0450 FG VV/// 08/08 Q1021 BECMG 0350=
201412240705 METAR VIDP NIL=
201412240730 METAR VIDP 240730Z 27005KT 0450 R28/1200 R29/0600 FG NSC 08/08 Q1020 BECMG 0600=
201412240800 METAR VIDP 240800Z 26006KT 0500 R28/1200 R29/0700 FG NSC 09/08 Q1020 BECMG 0600=
201412240805 METAR VIDP NIL=
201412240830 METAR VIDP NIL=
201412240900 METAR VIDP 240900Z 26006KT 0700 R28/1200 R29/0800 MIFG NSC 11/08 Q1019 BECMG 0800=
201412240905 METAR VIDP NIL=
201412241000 METAR VIDP 241000Z 26007KT 0800 R28/1400 R29/0800 MIFG NSC 12/09 Q1019 NOSIG=
201412241005 METAR VIDP NIL=
201412241030 METAR VIDP 241030Z 27006KT 0800 R28/1500 R29/0800 MIFG NSC 12/09 Q1019 NOSIG=
201412241100 METAR VIDP 241100Z 27006KT 0800 R28/1500 R29/0800 MIFG NSC 12/09 Q1019 NOSIG=
201412241105 METAR VIDP NIL=
201412241130 METAR VIDP 241130Z 27006KT 0800 R28/1600 R29/0900 MIFG NSC 11/09 Q1019 NOSIG=
201412241200 METAR VIDP 241200Z 26005KT 0700 R28/1800 R29/0900 MIFG NSC 10/09 Q1019 BECMG 0600=
201412241205 METAR VIDP NIL=
201412241230 METAR VIDP 241230Z 26005KT 0500 R28/2000 R29/1300 MIFG NSC 10/09 Q1019 NOSIG=
201412241300 METAR VIDP 241300Z 26004KT 0400 R28/P2000 R29/1000 FG NSC 09/08 Q1019 TEMPO 0350=
201412241305 METAR VIDP NIL=
201412241330 METAR VIDP 241330Z 27005KT 0400 R28/P2000 R29/1000 FG NSC 09/08 Q1020 TEMPO 0350=
201412241400 METAR VIDP 241400Z 27004KT 0350 R28/1900 R29/0900 FG NSC 09/08 Q1020 NOSIG=
201412241405 METAR VIDP NIL=
201412241430 METAR VIDP 241430Z 26005KT 0250 R28/1600 R29/0800 FG NSC 09/08 Q1020 NOSIG=
201412241500 METAR VIDP 241500Z 27005KT 0200 R28/1500 R29/0700 FG VV/// 09/08 Q1020 TEMPO VIS 0150=
201412241505 METAR VIDP NIL=
201412241530 METAR VIDP 241530Z 28005KT 0000 R28/1100 R29/0150 FG VV/// 09/08 Q1020 NOSIG=
201412241600 METAR VIDP 241600Z 28004KT 0000 R28/0600 R29/M0050 FG VV/// 08/08 Q1020 NOSIG=
201412241605 METAR VIDP NIL=
201412241630 METAR VIDP 241630Z 28005KT 0000 R28/0700 R29/M0050 FG VV/// 08/08 Q1020 NOSIG=
201412241700 METAR VIDP 241700Z 30005KT 0000 R28/0800 R29/0100 FG VV/// 08/08 Q1020 NOSIG=
201412241705 METAR VIDP NIL=
201412241730 METAR VIDP 241730Z 28004KT 0000 R28/0400 R29/0150 FG VV/// 08/08 Q1020 NOSIG=
201412241800 METAR VIDP 241800Z 28006KT 0000 R28/0500 R29/0225 FG VV/// 07/07 Q1020 NOSIG=
201412241805 METAR VIDP NIL=
201412241830 METAR VIDP 241830Z 27006KT 0000 R28/0500 R29/0150 FG VV/// 07/07 Q1020 NOSIG=
201412241900 METAR VIDP 241900Z 27006KT 0000 R28/0500 R29/0150 FG VV/// 07/07 Q1020 NOSIG=
201412241905 METAR VIDP NIL=
201412241930 METAR VIDP 241930Z 28006KT 0000 R28/0700 R29/0150 FG VV/// 07/07 Q1019 NOSIG=
201412242000 METAR VIDP 242000Z 25006KT 0000 R28/0700 R29/0200 FG VV/// 07/07 Q1019 NOSIG=
201412242005 METAR VIDP NIL=
201412242030 METAR VIDP 242030Z 28004KT 0000 R28/0700 R29/0175 FG VV/// 07/07 Q1019 NOSIG=
201412242100 METAR VIDP 242100Z 25004KT 0000 R28/0800 R29/0175 FG VV/// 07/07 Q1019 NOSIG=
201412242105 METAR VIDP NIL=
201412242130 METAR VIDP 242130Z 27005KT 0000 R28/0700 R29/0150 FG VV/// 06/06 Q1019 NOSIG=
201412242200 METAR VIDP 242200Z 25005KT 0000 R28/0500 R29/0150 FG VV/// 06/06 Q1019 NOSIG=
201412242205 METAR VIDP NIL=
201412242230 METAR VIDP 242230Z 29005KT 0000 R28/0400 R29/0150 FG VV/// 06/06 Q1019 NOSIG=
201412242300 METAR VIDP 242300Z 27005KT 0000 R28/0400 R29/0150 FG VV/// 06/06 Q1018 NOSIG=
201412242305 METAR VIDP NIL=
201412242330 METAR VIDP 242330Z 27005KT 0000 R28/0500 R29/0150 FG VV/// 06/06 Q1018 NOSIG=
201412250000 METAR VIDP 250000Z 28005KT 0000 R28/0500 R29/0150 FG VV/// 06/06 Q1019 NOSIG=
201412250005 METAR VIDP NIL=
201412250030 METAR VIDP 250030Z 28005KT 0000 R28/0400 R29/0150 FG VV/// 06/06 Q1019 NOSIG=
201412250100 METAR VIDP 250100Z 26004KT 0000 R28/0500 R29/0200 FG VV/// 06/06 Q1019 NOSIG=
201412250105 METAR VIDP NIL=
201412250130 METAR VIDP 250130Z 28004KT 0000 R28/0500 R29/0200 FG VV/// 06/06 Q1019 NOSIG=
201412250200 METAR VIDP 250200Z 30005KT 0000 R28/0700 R29/0200 FG VV/// 06/06 Q1020 NOSIG=
201412250205 METAR VIDP NIL=
201412250230 METAR VIDP 250230Z 29007KT 0050 R28/0400 R29/0225 FG VV/// 06/06 Q1020 TEMPO 0150=
201412250300 METAR VIDP 250300Z 28005KT 0100 R28/0550 R29/0200 FG VV/// 06/06 Q1021 TEMPO 0150=
201412250305 METAR VIDP NIL=
201412250330 METAR VIDP 250330Z 29007KT 0150 R28/0800 R29/0225 FG VV/// 06/06 Q1021 NOSIG=
201412250400 METAR VIDP 250400Z 30006KT 0300 R28/1100 R29/0400 FG VV/// 06/06 Q1022 BECMG 0350=
201412250405 METAR VIDP NIL=
201412250430 METAR VIDP 250430Z 30007KT 0400 R28/0850 R29/0600 FG VV/// 07/06 Q1022 BECMG 0600=
201412250500 METAR VIDP 250500Z 29005KT 0500 R28/1100 R29/0600 FG VV/// 07/06 Q1022 BECMG 0600=
201412250505 METAR VIDP NIL=
201412250530 METAR VIDP 250530Z 30006KT 0700 R28/1100 R29/0800 MIFG VV/// 07/06 Q1022 BECMG 0600=
201412250605 METAR VIDP NIL=
201412250630 METAR VIDP 250630Z 228005KT 1000 R28/1200 R29/1000 BR VV/// 08/07 Q1022 NOSIG=
201412250700 METAR VIDP 250700Z 29005KT 1300 R28/1400 R29/1300 BR NSC 09/08 Q1021 BECMG 1500=
201412250705 METAR VIDP NIL=
201412250730 METAR VIDP 250730Z 31006KT 1400 R28/1400 R29/1400 BR NSC 10/08 Q1020 BECMG 1500=
201412250805 METAR VIDP NIL=
201412250830 METAR VIDP 250830Z 29006KT 1500 R28/1500 R29/1500 BR NSC 11/08 Q1020 NOSIG=
201412250900 METAR VIDP 250900Z 31005KT 1200 R28/1300 R29/1300 BR NSC 13/09 Q1019 NOSIG=
201412250905 METAR VIDP NIL=
201412250930 METAR VIDP 250930Z 30006KT 1300 R28/1700 R29/1300 BR NSC 13/09 Q1018 NOSIG=
201412251000 METAR VIDP 251000Z 30006KT 1300 R28/1700 R29/1300 BR NSC 13/09 Q1018 NOSIG=
201412251005 METAR VIDP NIL=
201412251030 METAR COR VIDP 251030Z 29005KT 1400 R28/1600 R29/1700 FU NSC 13/07 Q1018 NOSIG=
201412251100 METAR VIDP 251100Z 30005KT 1400 R28/1700 R29/1700 FU NSC 13/07 Q1018 NOSIG=
201412251105 METAR VIDP NIL=
201412251130 METAR VIDP 251130Z 31005KT 1400 R28/1700 R29/1700 FU NSC 13/06 Q1018 NOSIG=
201412251200 METAR VIDP 251200Z 31005KT 1400 R28/P2000 R29/1700 FU NSC 12/06 Q1018 NOSIG=
201412251205 METAR VIDP NIL=
201412251230 METAR VIDP 251230Z 30004KT 1200 R28/P2000 R29/P2000 BR NSC 11/07 Q1018 NOSIG=
201412251300 METAR VIDP 251300Z 29004KT 1000 R28/P2000 R29/P2000 BR NSC 10/07 Q1018 NOSIG=
201412251305 METAR VIDP NIL=
201412251330 METAR VIDP 251330Z 28004KT 0900 R28/P2000 R29/1600 BR NSC 10/10 Q1018 TEMPO VIS 0800=
201412251405 METAR VIDP NIL=
201412251430 METAR VIDP 251430Z 27004KT 0600 R28/2000 R29/1400 MIFG NSC 09/09 Q1019 NOSIG=
201412251500 METAR VIDP 251500Z 28004KT 0600 R28/2000 R29/1500 MIFG NSC 08/08 Q1019 NOSIG=
201412251505 METAR VIDP NIL=
201412251530 METAR VIDP 251530Z 28005KT 0600 R28/2000 R29/1700 MIFG NSC 08/08 Q1019 NOSIG=
201412251600 METAR VIDP 251600Z 28004KT 0600 R28/2000 R29/1600 MIFG NSC 08/08 Q1019 NOSIG=
201412251605 METAR VIDP NIL=
201412251630 METAR VIDP 251630Z 28003KT 0500 R28/2000 R29/1200 FG NSC 08/08 Q1019 NOSIG=
201412251700 METAR VIDP 251700Z 30003KT 0500 R28/1900 R29/1200 FG NSC 08/08 Q1019 NOSIG=
201412251705 METAR VIDP NIL=
201412251730 METAR VIDP 251730Z 29003KT 0400 R28/2000 R29/0900 FG NSC 07/07 Q1019 BECMG 0350=
201412251800 METAR VIDP 251800Z 30004KT 0250 R28/1800 R29/0750 FG NSC 06/06 Q1019 BECMG 0350=
201412251805 METAR VIDP NIL=
201412251830 METAR VIDP 251830Z 27004KT 0150 R28/1600 R29/0600 FG NSC 06/06 Q1018 NOSIG=
201412251900 METAR VIDP 251900Z 27004KT 0050 R28/1300 R29/0250 FG VV/// 06/06 Q1018 NOSIG=
201412251905 METAR VIDP NIL=
201412251930 METAR VIDP 251930Z 30005KT 0000 R28/0750 R29/0000 FG VV/// 06/06 Q1018 NOSIG=
201412252000 METAR VIDP 252000Z 30005KT 0000 R28/0800 R29/0000 FG VV/// 06/06 Q1018 NOSIG=
201412252005 METAR VIDP NIL=
201412252030 METAR VIDP 252030Z 29006KT 0000 R28/0900 R29/0000 FG VV/// 06/06 Q1018 NOSIG=
201412252100 METAR VIDP 252100Z 29006KT 0050 R28/1300 R29/0450 FG VV/// 06/06 Q1018 NOSIG=
201412252105 METAR VIDP NIL=
201412252130 METAR VIDP 252130Z 29005KT 0050 R28/0800 R29/0250 FG VV/// 06/06 Q1018 BECMG 0150=
201412252200 METAR VIDP 252200Z 27008KT 0100 R28/1000 R29/0250 FG VV/// 07/07 Q1017 BECMG 0150=
201412252205 METAR VIDP NIL=
201412252230 METAR VIDP 252230Z 28008KT 0150 R28/0800 R29/0600 FG VV/// 07/07 Q1017 NOSIG=
201412252300 METAR VIDP 252300Z 28008KT 0150 R28/0800 R29/0600 FG VV/// 07/07 Q1017 NOSIG=
201412252305 METAR VIDP NIL=
201412252330 METAR VIDP 252330Z 28008KT 0250 R28/1400 R29/0900 FG VV/// 07/07 Q1017 NOSIG=
201412260000 METAR VIDP 260000Z 29008KT 0300 R28/1700 R29/1100 FG VV/// 07/07 Q1017 TEMPO 0350=
201412260005 METAR VIDP NIL=
201412260030 METAR VIDP 260030Z 29007KT 0300 R28/2000 R29/1500 FG VV/// 07/07 Q1018 TEMPO 0350=
201412260100 METAR VIDP 260100Z 29007KT 0300 R28/2000 R29/1500 FG VV/// 06/06 Q1018 NOSIG=
201412260105 METAR VIDP NIL=
201412260130 METAR VIDP 260130Z 29007KT 0300 R28/2000 R29/1100 FG VV/// 06/06 Q1018 TEMPO 0150=
201412260200 METAR VIDP 260200Z 28009KT 0300 R28/1500 R29/0800 FG VV/// 06/06 Q1018 TEMPO 0150=
201412260205 METAR VIDP NIL=
201412260230 METAR VIDP 260230Z 30008KT 0300 R28/1300 R29/0800 FG VV/// 06/06 Q1018 TEMPO 0150=
201412260300 METAR VIDP 260300Z 28009KT 0400 R28/1200 R29/0800 FG VV/// 07/07 Q1019 BECMG 0600=
201412260305 METAR VIDP NIL=
201412260330 METAR VIDP 260330Z 28009KT 0600 R28/1300 R29/0700 FG VV/// 07/07 Q1019 NOSIG=
201412260400 METAR VIDP 260400Z 27007KT 0700 R28/1200 R29/0800 FG VV/// 07/07 Q1020 NOSIG=
201412260405 METAR VIDP NIL=
201412260430 METAR VIDP 260430Z 27007KT 0700 R28/1200 R29/1000 FG VV/// 08/08 Q1020 BECMG VIS 0800=
201412260505 METAR VIDP NIL=
201412260530 METAR VIDP 260530Z 29008KT 1000 R28/1300 R29/1100 MIFG NSC 09/09 Q1020 NOSIG=
201412260600 METAR VIDP 260600Z 28009KT 1200 R28/1500 R29/1300 MIFG NSC 10/10 Q1020 NOSIG=
201412260605 METAR VIDP NIL=
201412260630 METAR VIDP 260630Z 30008KT 1300 R28/1400 R29/1400 MIFG NSC 11/11 Q1019 NOSIG=
201412260700 METAR VIDP 260700Z 31009KT 1300 R28/1400 R29/1500 MIFG NSC 12/12 Q1018 NOSIG=
201412260705 METAR VIDP NIL=
201412260730 METAR VIDP 260730Z 29009KT 1300 R28/1500 R29/1500 BR NSC 13/13 Q1018 BECMG VIS 1500=
201412260800 METAR VIDP 260800Z 30009KT 1400 R28/1500 R29/1600 BR NSC 14/14 Q1018 BECMG VIS 1500=
201412260805 METAR VIDP NIL=
201412260830 METAR VIDP 260830Z 29008KT 1400 R28/1600 R29/1800 BR NSC 15/12 Q1017 BECMG VIS 1500=
201412260900 METAR VIDP 260900Z 29009KT 1500 R28/1600 R29/1800 BR NSC 15/13 Q1017 NOSIG=
201412260930 METAR VIDP 260930Z 29009KT 1500 R28/1600 R29/1900 BR NSC 15/13 Q1017 NOSIG=
201412261000 METAR VIDP 261000Z 30009KT 1500 R28/1700 R29/P2000 BR NSC 16/13 Q1016 NOSIG=
201412261005 METAR VIDP NIL=
201412261030 METAR VIDP 261030Z 28010KT 1600 R28/1800 R29/P2000 BR NSC 16/12 Q1016 NOSIG=
201412261100 METAR VIDP 261100Z 28009KT 1600 R28/1900 R29/P2000 BR NSC 16/12 Q1016 NOSIG=
201412261105 METAR VIDP NIL=
201412261130 METAR VIDP 261130Z 28008KT 1600 R28/2000 R29/P2000 BR NSC 15/13 Q1016 NOSIG=
201412261200 METAR VIDP 261200Z 27006KT 1600 R28/P2000 R29/P2000 BR NSC 15/13 Q1016 NOSIG=
201412261205 METAR VIDP NIL=
201412261230 METAR VIDP 261230Z 27005KT 1600 R28/P2000 R29/P2000 BR NSC 14/12 Q1016 BECMG VIS 1500=
201412261305 METAR VIDP NIL=
201412261330 METAR VIDP 261330Z 25004KT 1100 R28/P2000 R29/P2000 BR NSC 12/11 Q1016 NOSIG=
201412261400 METAR VIDP 261400Z 25004KT 1000 R28/P2000 R29/P2000 BR NSC 12/10 Q1016 NOSIG=
201412261405 METAR VIDP NIL=
201412261430 METAR VIDP 261430Z 26003KT 1000 R28/P2000 R29/P2000 BR NSC 10/10 Q1016 NOSIG=
201412261500 METAR VIDP 261500Z 00000KT 1000 R28/P2000 R29/P2000 BR NSC 10/10 Q1016 NOSIG=
201412261505 METAR VIDP NIL=
201412261530 METAR VIDP 261530Z 00000KT 0900 R28/P2000 R29/P2000 MIFG NSC 10/10 Q1017 TEMPO 0800=
201412261605 METAR VIDP NIL=
201412261630 METAR VIDP 261630Z 00000KT 0800 R28/P2000 R29/P2000 MIFG NSC 09/09 Q1017 NOSIG=
201412261700 METAR VIDP 261700Z 00000KT 0800 R28/P2000 R29/P2000 MIFG NSC 09/09 Q1017 NOSIG=
201412261705 METAR VIDP NIL=
201412261730 METAR VIDP 261730Z 00000KT 0800 R28/P2000 R29/P2000 MIFG NSC 08/08 Q1016 NOSIG=
201412261800 METAR VIDP 261800Z 00000KT 0700 R28/P2000 R29/P2000 MIFG NSC 08/08 Q1016 BECMG 0600=
201412261805 METAR VIDP NIL=
201412261830 METAR VIDP 261830Z 00000KT 0500 R28/P2000 R29/P2000 MIFG NSC 07/07 Q1016 NOSIG=
201412261900 METAR VIDP 261900Z 00000KT 0500 R28/P2000 R29/1800 MIFG NSC 07/07 Q1015 NOSIG=
201412261905 METAR VIDP NIL=
201412261930 METAR VIDP 261930Z 00000KT 0450 R28/P2000 R29/1700 FG NSC 07/06 Q1015 BECMG 0350=
201412262000 METAR VIDP 262000Z 00000KT 0450 R28/P2000 R29/1300 FG NSC 06/06 Q1015 BECMG 0350=
201412262005 METAR VIDP NIL=
201412262030 METAR VIDP 262030Z 00000KT 0450 R28/P2000 R29/1700 FG NSC 06/06 Q1015 BECMG 0350=
201412262100 METAR VIDP 262100Z 00000KT 0500 R28/P2000 R29/P2000 MIFG NSC 06/06 Q1015 NOSIG=
201412262105 METAR VIDP NIL=
201412262130 METAR VIDP 262130Z 00000KT 0500 R28/P2000 R29/P2000 MIFG NSC 06/06 Q1015 NOSIG=
201412262200 METAR VIDP 262200Z 00000KT 0500 R28/P2000 R29/1500 MIFG NSC 06/06 Q1015 NOSIG=
201412262205 METAR VIDP NIL=
201412262230 METAR VIDP 262230Z 00000KT 0500 R28/P2000 R29/1300 MIFG NSC 06/06 Q1015 NOSIG=
201412262300 METAR VIDP 262300Z 00000KT 0500 R28/P2000 R29/1500 MIFG NSC 06/06 Q1015 NOSIG=
201412262305 METAR VIDP NIL=
201412262330 METAR VIDP 262330Z 00000KT 0500 R28/P2000 R29/P2000 MIFG NSC 06/06 Q1015 BECMG 0600=
201412270000 METAR VIDP 270000Z 00000KT 0600 R28/P2000 R29/P2000 MIFG NSC 06/06 Q1015 NOSIG=
201412270005 METAR VIDP NIL=
201412270030 METAR VIDP 270030Z 00000KT 0600 R28/P2000 R29/P2000 MIFG NSC 06/05 Q1016 NOSIG=
201412270100 METAR VIDP 270100Z 00000KT 0700 R28/P2000 R29/P2000 MIFG NSC 06/05 Q1016 NOSIG=
201412270105 METAR VIDP NIL=
201412270130 METAR VIDP 270130Z 00000KT 0700 R28/P2000 R29/P2000 MIFG NSC 06/05 Q1016 NOSIG=
201412270200 METAR VIDP 270200Z 00000KT 0700 R28/P2000 R29/1800 MIFG NSC 06/05 Q1017 NOSIG=
201412270205 METAR VIDP NIL=
201412270230 METAR VIDP 270230Z 00000KT 0700 R28/P2000 R29/P1500 MIFG NSC 06/05 Q1017 NOSIG=
201412270300 METAR VIDP 270300Z 23003KT 0900 R28/1600 R29/1300 MIFG NSC 06/05 Q1018 NOSIG=
201412270305 METAR VIDP NIL=
201412270330 METAR VIDP 270330Z 25004KT 1300 R28/1600 R29/1500 BR NSC 07/05 Q1018 BECMG VIS 1500=
201412270405 METAR VIDP NIL=
201412270430 METAR VIDP 270430Z 26005KT 1300 R28/1500 R29/1600 BR NSC 10/05 Q1019 NOSIG=
201412270500 METAR VIDP 270500Z 29005KT 1300 R28/1500 R29/1600 BR NSC 11/07 Q1019 NOSIG=
201412270505 METAR VIDP NIL=
201412270530 METAR VIDP 270530Z 29005KT 1400 R/28/1500 R/29/1800 BR NSC 12/07 Q1018 BECMG VIS 1500=
201412270600 METAR VIDP 270600Z 29004KT 1400 R/28/1500 R/29/1800 BR NSC 13/07 Q1018 BECMG VIS 1500=
201412270605 METAR VIDP NIL=
201412270630 METAR VIDP 270630Z 29005KT 1400 R28/1600 R29/P2000 FU NSC 15/08 Q1018 BECMG 1500=
201412270705 METAR VIDP NIL=
201412270730 METAR VIDP NIL=
201412270800 METAR VIDP 270800Z 31005KT 1500 R28/1700 R29/P2000 FU NSC 17/08 Q1017 NOSIG=
201412270805 METAR VIDP NIL=
201412270830 METAR VIDP 270830Z 31006KT 1500 R28/1700 R29/P2000 FU NSC 17/08 Q1017 NOSIG=
201412270900 METAR VIDP 270900Z 31007KT 1800 R28/P2000 R29/P2000 FU NSC 18/06 Q1017 NOSIG=
201412270905 METAR VIDP NIL=
201412270930 METAR VIDP 270930Z 32005KT 1700 R28/1700 R29/P2000 FU NSC 18/06 Q1017 NOSIG=
201412271000 METAR VIDP 271000Z 34005KT 1600 R28/1600 R29/P2000 FU NSC 18/07 Q1017 TEMPO 1500=
201412271005 METAR VIDP NIL=
201412271030 METAR VIDP 271030Z 34005KT 1600 R28/1600 R29/P2000 HZ NSC 18/08 Q1017 TEMPO 1500=
201412271105 METAR VIDP NIL=
201412271130 METAR VIDP 271130Z 35004KT 1400 R28/1900 R29/1400 FU NSC 17/09 Q1017 NOSIG=
201412271200 METAR VIDP 271200Z 05003KT 1300 R28/P2000 R29/1500 FU NSC 16/09 Q1017 NOSIG=
201412271205 METAR VIDP NIL=
201412271230 METAR VIDP 271230Z 02003KT 1200 R28/P2000 R29/P2000 FU NSC 16/09 Q1018 NOSIG=
201412271300 METAR VIDP 271300Z 00000KT 1000 R28/P2000 R29/P2000 FU NSC 14/09 Q1018 BECMG 0800=
201412271305 METAR VIDP NIL=
201412271330 METAR VIDP 271330Z 00000KT 1000 R28/P2000 R29/P2000 BR NSC 13/09 Q1018 BECMG 0800=
201412271400 METAR VIDP 271400Z 00000KT 0900 R28/P2000 R29/P2000 MIFG NSC 13/09 Q1019 BECMG 0800=
201412271405 METAR VIDP NIL=
201412271500 METAR VIDP 271500Z 00000KT 0500 R28/P2000 R29/1400 FG NSC 13/09 Q1019 BECMG 0350=
201412271505 METAR VIDP NIL=
201412271530 METAR VIDP 271530Z 00000KT 0300 R28/P2000 R29/1100 FG NSC 08/08 Q1019 BECMG 0150=
201412271600 METAR VIDP 271600Z 00000KT 0300 R28/P2000 R29/1200 FG NSC 07/07 Q1019 BECMG 0150=
201412271605 METAR VIDP NIL=
201412271630 METAR VIDP 271630Z 00000KT 0300 R28/P2000 R29/1200 FG NSC 06/06 Q1020 NOSIG=
201412271700 METAR VIDP 271700Z 00000KT 0300 R28/P2000 R29/1200 FG NSC 07/07 Q1020 NOSIG=
201412271705 METAR VIDP NIL=
201412271730 METAR VIDP 271730Z 00000KT 0300 R28/P2000 R29/1100 FG NSC 06/06 Q1019 NOSIG=
201412271800 METAR VIDP 271800Z 00000KT 0300 R28/1900 R29/1200 FG NSC 06/06 Q1019 NOSIG=
201412271805 METAR VIDP NIL=
201412271830 METAR VIDP 271830Z 00000KT 0300 R28/1900 R29/1600 FG NSC 06/06 Q1019 NOSIG=
201412271900 METAR VIDP 271900Z 00000KT 0300 R28/P2000 R29/1600 FG NSC 05/05 Q1019 NOSIG=
201412271905 METAR VIDP NIL=
201412271930 METAR VIDP 271930Z 00000KT 0300 R28/P2000 R29/1700 FG NSC 04/04 Q1019 NOSIG=
201412272000 METAR VIDP 272000Z 00000KT 0300 R28/P2000 R29/1600 FG NSC 04/04 Q1018 NOSIG=
201412272005 METAR VIDP NIL=
201412272030 METAR VIDP 272030Z 00000KT 0300 R28/1700 R29/1600 FG NSC 04/04 Q1018 BECMG 0350=
201412272100 METAR VIDP 272100Z 00000KT 0300 R28/1600 R29/1500 FG NSC 04/04 Q1018 BECMG 0350=
201412272105 METAR VIDP NIL=
201412272130 METAR VIDP 272130Z 00000KT 0300 R28/1600 R29/1500 FG NSC 04/04 Q1018 NOSIG=
201412272200 METAR VIDP 272200Z 00000KT 0300 R28/1200 R29/0800 FG NSC 04/04 Q1018 NOSIG=
201412272205 METAR VIDP NIL=
201412272230 METAR VIDP 272230Z 00000KT 0300 R28/1200 R29/0800 FG NSC 04/04 Q1018 NOSIG=
201412272300 METAR VIDP 272300Z 00000KT 0100 R28/0900 R29/0600 FG NSC 04/04 Q1018 NOSIG=
201412272305 METAR VIDP NIL=
201412280000 METAR VIDP 280000Z 00000KT 0000 R28/1000 R29/M0050 FG VV/// 03/03 Q1019 NOSIG=
201412280005 METAR VIDP NIL=
201412280030 METAR VIDP 280030Z 00000KT 0000 R28/0800 R29/0000 FG VV/// 02/02 Q1019 NOSIG=
201412280100 METAR VIDP 280100Z 00000KT 0000 R28/0000 R29/0000 FG VV/// 02/02 Q1019 NOSIG=
201412280105 METAR VIDP NIL=
201412280130 METAR VIDP 280130Z 00000KT 0000 R28/0000 R29/0000 FG VV/// 02/02 Q1019 NOSIG=
201412280200 METAR VIDP 280200Z 00000KT 0000 R28/0000 R29/0000 FG VV/// 02/02 Q1020 NOSIG=
201412280205 METAR VIDP NIL=
201412280230 METAR VIDP 280230Z 00000KT 0000 R28/0050 R29/0000 FG VV/// 02/02 Q1020 NOSIG=
201412280300 METAR COR VIDP 280300Z 00000KT 0000 R28/0050 R29/0000 FG VV/// 03/03 Q1020 NOSIG=
201412280305 METAR VIDP NIL=
201412280330 METAR VIDP 280330Z 00000KT 0000 R28/0050 R29/0050 FG VV/// 04/04 Q1020 NOSIG=
201412280400 METAR VIDP 280400Z 00000KT 0000 R28/0050 R29/0050 FG VV/// 05/05 Q1021 NOSIG=
201412280405 METAR VIDP NIL=
201412280430 METAR VIDP 280430Z 00000KT 0000 R28/0075 R29/0000 FG VV/// 06/06 Q1021 NOSIG=
201412280500 METAR VIDP 280500Z 00000KT 0000 R28/0075 R29/0000 FG VV/// 07/07 Q1021 BECMG 0150=
201412280505 METAR VIDP NIL=
201412280530 METAR VIDP 280530Z 00000KT 0200 R28/0650 R29/0300 FG VV/// 09/09 Q1021 BECMG 0350=
201412280600 METAR VIDP 280600Z 29004KT 0350 R28/0800 R29/0500 FG VV/// 10/10 Q1021 BECMG 0600=
201412280605 METAR VIDP NIL=
201412280700 METAR VIDP 280700Z 28005KT 0700 R28/1000 R29/0900 MIFG NSC 14/12 Q1020 BECMG 0800=
201412280705 METAR VIDP NIL=
201412280730 METAR VIDP 280730Z 29006KT 0700 R28/0900 R29/0800 MIFG NSC 15/12 Q1019 BECMG 0800=
201412280805 METAR VIDP NIL=
201412280830 METAR VIDP 280830Z 33005KT 0900 R28/1300 R29/1300 FU NSC 16/11 Q1019 NOSIG=
201412280900 METAR VIDP 280900Z 32004KT 1000 R28/1300 R29/1500 FU NSC 17/11 Q1018 NOSIG=
201412280905 METAR VIDP NIL=
201412280930 METAR VIDP 280930Z 32006KT 1000 R28/1300 R29/1300 FU NSC 17/10 Q1018 NOSIG=
201412281000 METAR VIDP 281000Z 31006KT 1000 R28/1300 R29/1400 FU NSC 17/10 Q1018 NOSIG=
201412281005 METAR VIDP NIL=
201412281030 METAR VIDP 281030Z 32005KT 1000 R28/1300 R29/1300 FU NSC 17/10 Q1018 NOSIG=
201412281100 METAR VIDP 281100Z 32006KT 1000 R28/1200 R29/1300 FU NSC 16/09 Q1018 NOSIG=
201412281105 METAR VIDP NIL=
201412281130 METAR VIDP 281130Z 32004KT 0900 R28/1300 R29/1100 FU NSC 15/09 Q1018 NOSIG=
201412281200 METAR VIDP 281200Z 30004KT 0900 R28/1500 R29/1100 FU NSC 14/09 Q1018 BECMG 0800=
201412281205 METAR VIDP NIL=
201412281230 METAR VIDP NIL=
201412281300 METAR VIDP 281300Z 00000KT 0700 R28/1800 R29/1400 MIFG NSC 13/09 Q1018 BECMG 0600=
201412281305 METAR VIDP NIL=
201412281400 METAR VIDP 281400Z 00000KT 0350 R28/1500 R29/1100 FG NSC 11/09 Q1019 NOSIG=
201412281405 METAR VIDP NIL=
201412281430 METAR VIDP 281430Z 00000KT 0350 R28/1500 R29/0900 FG NSC 10/09 Q1019 NOSIG=
201412281500 METAR VIDP 281500Z 00000KT 0250 R28/1500 R29/0800 FG NSC 09/09 Q1019 NOSIG=
201412281505 METAR VIDP NIL=
201412281530 METAR VIDP 281530Z 00000KT 0200 R28/1300 R29/0800 FG NSC 08/08 Q1019 TEMPO 0150=
201412281600 METAR VIDP 281600Z 00000KT 0200 R28/1100 R29/0700 FG NSC 08/08 Q1019 TEMPO 0150=
201412281605 METAR VIDP NIL=
201412281630 METAR VIDP 281630Z 00000KT 0150 R28/1000 R29/0600 FG NSC 08/08 Q1019 NOSIG=
201412281700 METAR VIDP 281700Z 00000KT 0100 R28/1000 R29/0300 FG NSC 07/07 Q1019 NOSIG=
201412281705 METAR VIDP NIL=
201412281730 METAR VIDP 281730Z 00000KT 0100 R28/0800 R29/0500 FG NSC 07/07 Q1019 NOSIG=
201412281800 METAR VIDP 281800Z 00000KT 0000 R28/0800 R29/M0050 FG VV/// 06/06 Q1019 NOSIG=
201412281805 METAR VIDP NIL=
201412281830 METAR VIDP 281830Z 00000KT 0000 R28/0075 R29/M0050 FG VV/// 06/06 Q1019 NOSIG=
201412281900 METAR VIDP 281900Z 00000KT 0000 R28/0075 R29/M0050 FG VV/// 07/07 Q1019 NOSIG=
201412281905 METAR VIDP NIL=
201412281930 METAR VIDP 281930Z 00000KT 0000 R28/0075 R29/M0050 FG VV/// 07/07 Q1018 NOSIG=
201412282000 METAR VIDP 282000Z 00000KT 0000 R28/0125 R29/M0050 FG VV/// 07/07 Q1019 NOSIG=
201412282005 METAR VIDP NIL=
201412282030 METAR VIDP 282030Z 00000KT 0000 R28/0125 R29/M0050 FG VV/// 07/07 Q1019 NOSIG=
201412282100 METAR VIDP 282100Z 00000KT 0000 R28/0150 R29/M0050 FG VV/// 08/08 Q1018 NOSIG=
201412282105 METAR VIDP NIL=
201412282130 METAR VIDP 282130Z 00000KT 0000 R28/0150 R29/M0050 FG VV/// 08/08 Q1018 NOSIG=
201412282200 METAR VIDP 282200Z 00000KT 0000 R28/0150 R29/M0050 FG VV/// 08/08 Q1018 NOSIG=
201412282205 METAR VIDP NIL=
201412282230 METAR VIDP 282230Z 00000KT 0000 R28/0200 R29/M0050 FG VV/// 08/08 Q1018 NOSIG=
201412282300 METAR VIDP 282300Z 00000KT 0000 R28/0150 R29/M0050 FG VV/// 08/08 Q1018 NOSIG=
201412282305 METAR VIDP NIL=
201412282330 METAR VIDP 282330Z 00000KT 0000 R28/0200 R29/M0050 FG VV/// 08/08 Q1018 NOSIG=
201412290000 METAR VIDP 290000Z 00000KT 0000 R28/0175 R29/M0050 R27/0100 R11/0150 R10/0200 FG VV/// 07/07 Q1018 NOSIG=
201412290005 METAR VIDP NIL=
201412290030 METAR VIDP 290030Z 00000KT 0000 R28/0200 R29/M0050 R27/0100 R11/0150 R10/0150 FG VV/// 07/07 Q1018 NOSIG=
201412290100 METAR VIDP 290100Z 00000KT 0000 R28/0275 R29/M0050 R27/0200 R11/0150 R10/0175 FG VV/// 07/07 Q1018 NOSIG=
201412290105 METAR VIDP NIL=
201412290130 METAR VIDP 290130Z 00000KT 0000 R28/0150 R29/M0050 R27/0100 R11/0100 R10/0150 FG VV/// 07/07 Q1018 NOSIG=
201412290200 METAR VIDP 290200Z 00000KT 0000 R28/0175 R29/M0050 R27/0050 R11/0125 R10/0150 FG VV/// 07/07 Q1019 NOSIG=
201412290205 METAR VIDP NIL=
201412290230 METAR VIDP 290230Z 00000KT 0000 R28/0150 R29/0100 R27/0100 R11/0100 R10/0150 FG VV/// 07/07 Q1019 NOSIG=
201412290300 METAR VIDP 290300Z 00000KT 0000 R28/0150 R29/0050 R27/0075 R11/0100 R10/0700 FG VV/// 07/07 Q1019 NOSIG=
201412290305 METAR VIDP NIL=
201412290330 METAR VIDP 290330Z 00000KT 0050 R28/0200 R29/0100 R27/0175 R11/0100 R10/0250 FG VV/// 07/07 Q1019 BECMG VIS 0150=
201412290400 METAR VIDP 290400Z 00000KT 0050 R28/0400 R29/0150 R27/0300 R11/0150 R10/0375 FG VV/// 08/07 Q1020 BECMG VIS 0150=
201412290405 METAR VIDP NIL=
201412290430 METAR VIDP 290430Z 00000KT 0200 R28/0700 R29/0250 R27/0500 R11/0350 R10/0850 FG NSC 08/07 Q1020 BECMG VIS 0350=
201412290500 METAR VIDP 290500Z 00000KT 0350 R28/1150 R29/0400 FG NSC 08/07 Q1020 TEMPO 0600=
201412290505 METAR VIDP NIL=
201412290530 METAR VIDP 290530Z 00000KT 0700 R28/1200 R29/0900 MIFG NSC 09/07 Q1019 BECMG 0800=
201412290605 METAR VIDP NIL=
201412290630 METAR VIDP 290630Z 26006KT 1400 R28/1400 R29/1500 BR NSC 12/09 Q1019 BECMG VIS 1500=
201412290700 METAR VIDP 290700Z 29005KT 1500 R28/1500 R29/1700 BR NSC 14/11 Q1018 NOSIG=
201412290705 METAR VIDP NIL=
201412290730 METAR VIDP 290730Z 25006KT 1600 R28/1600 R29/1800 BR NSC 15/10 Q1018 NOSIG=
201412290800 METAR VIDP 290800Z 26006KT 1800 R28/1800 R29/P2000 FU NSC 16/09 Q1017 NOSIG=
201412290805 METAR VIDP NIL=
201412290830 METAR VIDP 290830Z 26006KT 1600 R28/1700 R29/P2000 HZ NSC 18/09 Q1016 NOSIG=
201412290900 METAR VIDP 290900Z 28004KT 1600 R28/1700 R29/P2000 HZ NSC 18/09 Q1015 NOSIG=
201412290905 METAR VIDP NIL=
201412290930 METAR VIDP 290930Z 28006KT 2500 R28/2000 R29/P2000 HZ NSC 19/05 Q1015 BECMG 3000=
201412291005 METAR VIDP NIL=
201412291030 METAR VIDP 291030Z 28006KT 2800 R28/2000 R29/P2000 HZ NSC 18/04 Q1015 NOSIG=
201412291100 METAR VIDP 291100Z 28006KT 2600 R28/2000 R29/P2000 HZ NSC 18/05 Q1015 NOSIG=
201412291105 METAR VIDP NIL=
201412291130 METAR VIDP 291130Z 28004KT 2600 R28/2000 R29/P2000 HZ NSC 17/06 Q1015 NOSIG=
201412291200 METAR VIDP 291200Z 29003KT 2600 R28/2000 R29/P2000 FU NSC 16/06 Q1015 NOSIG=
201412291205 METAR VIDP NIL=
201412291230 METAR VIDP 291230Z 28003KT 2500 R28/2000 R29/P2000 FU NSC 16/06 Q1015 BECMG 1500=
201412291300 METAR VIDP 291300Z 00000KT 1800 R28/P2000 R29/P2000 FU NSC 14/08 Q1015 BECMG 1500=
201412291305 METAR VIDP NIL=
201412291330 METAR VIDP NIL=
201412291400 METAR VIDP 291400Z 00000KT 1200 R28/P2000 R29/P2000 BR NSC 12/10 Q1016 NOSIG=
201412291405 METAR VIDP NIL=
201412291430 METAR VIDP 291430Z 00000KT 1000 R28/P2000 R29/P2000 BR NSC 11/10 Q1016 TEMPO 0800=
201412291500 METAR VIDP 291500Z 00000KT 0800 R28/P2000 R29/P1300 MIFG NSC 11/11 Q1016=
201412291505 METAR VIDP NIL=
201412291530 METAR VIDP 291530Z 00000KT 0700 R28/P2000 R29/1500 MIFG NSC 10/10 Q1016 BECMG 0600=
201412291600 METAR VIDP 291600Z 00000KT 0600 R28/P2000 R29/1200 MIFG NSC 09/09 Q1016 NOSIG=
201412291605 METAR VIDP NIL=
201412291630 METAR VIDP 291630Z 00000KT 0500 R28/P2000 R29/1300 FG NSC 09/09 Q1016 NOSIG=
201412291700 METAR VIDP 291700Z 00000KT 0450 R28/P2000 R29/1300 FG NSC 09/09 Q1016 BECMG 0350=
201412291705 METAR VIDP NIL=
201412291730 METAR VIDP 291730Z 00000KT 0400 R28/P2000 R29/1100 FG NSC 09/09 Q1016 BECMG 0350=
201412291800 METAR VIDP 291800Z 00000KT 0400 R28/1900 R29/1200 FG NSC 09/09 Q1016 BECMG 0350=
201412291805 METAR VIDP NIL=
201412291830 METAR VIDP 291830Z 00000KT 0400 R28/1800 R29/1300 FG NSC 08/08 Q1016 NOSIG=
201412291900 METAR VIDP 291900Z 00000KT 0400 R28/2000 R29/1700 FG NSC 08/08 Q1015 NOSIG=
201412291905 METAR VIDP NIL=
201412291930 METAR VIDP 291930Z 00000KT 0400 R28/2000 R29/1400 FG NSC 07/07 Q1015 NOSIG=
201412292000 METAR VIDP 292000Z 00000KT 0400 R28/2000 R29/0900 FG NSC 07/07 Q1015 NOSIG=
201412292005 METAR VIDP NIL=
201412292030 METAR VIDP 292030Z 00000KT 0350 R28/1900 R29/0900 FG NSC 07/07 Q1015 NOSIG=
201412292100 METAR VIDP 292100Z 00000KT 0250 R28/1700 R29/0800 FG NSC 06/06 Q1014 NOSIG=
201412292105 METAR VIDP NIL=
201412292130 METAR VIDP 292130Z 00000KT 0200 R28/1900 R29/0800 FG NSC 06/06 Q1014 BECMG 0150=
201412292200 METAR VIDP 292200Z 00000KT 0250 R28/1600 R29/0700 FG NSC 05/05 Q1014 BECMG 0150=
201412292205 METAR VIDP NIL=
201412292230 METAR VIDP 292230Z 00000KT 0200 R28/1600 R29/0800 FG NSC 05/05 Q1014 BECMG 0150=
201412292300 METAR VIDP 292300Z 00000KT 0150 R28/1400 R29/0800 FG NSC 05/05 Q1014 NOSIG=
201412292305 METAR VIDP NIL=
201412292330 METAR VIDP 292330Z 26003KT 0100 R28/1200 R29/0500 FG NSC 05/05 Q1014 NOSIG=
201412300000 METAR VIDP 300000Z 26005KT 0000 R28/1000 R29/0050 FG NSC 04/04 Q1014 NOSIG=
201412300005 METAR VIDP NIL=
201412300030 METAR VIDP 300030Z 26004KT 0000 R28/0100 R29/0075 FG NSC 04/04 Q1014 NOSIG=
201412300100 METAR VIDP 300100Z 24004KT 0000 R28/0100 R29/0000 FG NSC 03/03 Q1014 NOSIG=
201412300105 METAR VIDP NIL=
201412300130 METAR VIDP 300130Z 25004KT 0000 R28/0100 R29/0000 FG NSC 03/03 Q1015 NOSIG=
201412300200 METAR VIDP 300200Z 24004KT 0000 R28/0100 R29/0000 FG NSC 03/03 Q1015 NOSIG=
201412300205 METAR VIDP NIL=
201412300230 METAR VIDP 300230Z 24004KT 0000 R28/0100 R29/0000 FG VV/// 04/04 Q1016 NOSIG=
201412300300 METAR VIDP 300300Z 26004KT 0000 R28/0100 R29/0000 FG VV/// 04/04 Q1016 NOSIG=
201412300305 METAR VIDP NIL=
201412300330 METAR VIDP 300330Z 28004KT 0000 R28/0100 R29/0000 FG VV/// 04/04 Q1016 NOSIG=
201412300400 METAR COR VIDP 300400Z 27004KT 0000 R28/0125 R29/0075 FG VV/// 05/05 Q1017 NOSIG=
201412300405 METAR VIDP NIL=
201412300430 METAR VIDP 300430Z 27004KT 0050 R28/0500 R29/0100 FG VV/// 05/05 Q1017 BECMG 0150=
201412300500 METAR VIDP 300500Z 28004KT 0100 R28/1100 R29/0150 FG VV/// 06/06 Q1017 BECMG 0150=
201412300505 METAR VIDP NIL=
201412300530 METAR VIDP 300530Z 28004KT 0300 R28/2000 R29/0500 FG VV/// 07/07 Q1016 BECMG 0600=
201412300600 METAR VIDP 300600Z 26004KT 0700 R28/1800 R29/0800 FG NSC 08/08 Q1016 BECMG 0800=
201412300605 METAR VIDP NIL=
201412300700 METAR VIDP 300700Z 30005KT 1100 R28/2000 R29/1400 BR NSC 12/12 Q1015 BECMG 1500=
201412300705 METAR VIDP NIL=
201412300730 METAR VIDP 300730Z 29006KT 1100 R28/1700 R29/1300 BR NSC 13/13 Q1014 BECMG 1500=
201412300800 METAR VIDP 300800Z 27006KT 1100 R28/1600 R29/1300 BR NSC 15/15 Q1014 NOSIG=
201412300805 METAR VIDP NIL=
201412300830 METAR VIDP 300830Z 30005KT 1100 R28/1600 R29/1200 FU NSC 17/10 Q1013 NOSIG=
201412300900 METAR VIDP 300900Z 34006KT 1100 R28/1800 R29/1400 FU NSC 17/10 Q1013 NOSIG=
201412300905 METAR VIDP NIL=
201412300930 METAR VIDP 300930Z 32006KT 1100 R28/2000 R29/1100 FU NSC 18/10 Q1013 NOSIG=
201412301000 METAR VIDP 301000Z 34006KT 1400 R28/1700 R29/1500 FU NSC 18/09 Q1013 TEMPO VIS 1500=
201412301005 METAR VIDP NIL=
201412301100 METAR VIDP 301100Z 30004KT 1700 R28/2000 R29/1700 FU NSC 18/09 Q1013 NOSIG=
201412301105 METAR VIDP NIL=
201412301130 METAR VIDP 301130Z 32004KT 1600 R28/2000 R29/1700 FU NSC 18/09 Q1013 NOSIG=
201412301200 METAR VIDP 301200Z 32005KT 1600 R28/2000 R29/1700 FU NSC 16/09 Q1012 BECMG VIS 1500=
201412301205 METAR VIDP NIL=
201412301230 METAR VIDP NIL=
201412301300 METAR VIDP 301300Z 31005KT 1100 R28/2000 R29/2000 FU NSC 14/09 Q1013 NOSIG=
201412301305 METAR VIDP NIL=
201412301330 METAR VIDP 301330Z 35003KT 1000 R28/2000 R29/2000 BR NSC 13/10 Q1013 NOSIG=
201412301400 METAR VIDP 301400Z 34003KT 0900 R28/2000 R29/2000 MIFG NSC 13/10 Q1013 BECMG 0800=
201412301405 METAR VIDP NIL=
201412301500 METAR VIDP 301500Z 00000KT 0700 R28/2000 R29/1600 MIFG NSC 13/11 Q1014 TEMPO 0600=
201412301505 METAR VIDP NIL=
201412301530 METAR VIDP 301530Z 00000KT 0600 R28/2000 R29/1300 MIFG NSC 12/11 Q1014 NOSIG=
201412301600 METAR VIDP 301600Z 00000KT 0600 R28/2000 R29/1800 MIFG NSC 12/11 Q1014 NOSIG=
201412301605 METAR VIDP NIL=
201412301630 METAR VIDP 301630Z 00000KT 0600 R28/2000 R29/1400 MIFG NSC 12/11 Q1014 NOSIG=
201412301700 METAR VIDP 301700Z 00000KT 0450 R28/2000 R29/1300 FG NSC 11/10 Q1014 NOSIG=
201412301705 METAR VIDP NIL=
201412301730 METAR VIDP 301730Z 00000KT 0400 R28/1600 R29/1000 FG NSC 10/09 Q1013 BECMG 0350=
201412301805 METAR VIDP NIL=
201412301830 METAR VIDP 301830Z 00000KT 0200 R28/1200 R29/0550 FG NSC 10/09 Q1013 BECMG 0150=
201412301905 METAR VIDP NIL=
201412301930 METAR VIDP 301930Z 12010KT 0050 R28/0450 R29/0400 FG VV/// 09/08 Q1014 NOSIG=
201412302005 METAR VIDP NIL=
201412302030 METAR VIDP 302030Z 12008KT 0200 R28/1500 R29/1100 FG VV/// 09/08 Q1014 BECMG 0350=
201412302100 METAR VIDP 302100Z 12009KT 0500 R28/P2000 R29/1500 MIFG NSC 09/08 Q1014 BECMG 0600=
201412302105 METAR VIDP NIL=
201412302200 METAR VIDP 302200Z 12007KT 1400 R28/P2000 R29/P2000 BR NSC 09/08 Q1014 NOSIG=
201412302205 METAR VIDP NIL=
201412302230 METAR VIDP 302230Z 11008KT 1400 R28/P2000 R29/P2000 BR NSC 09/08 Q1014 BECMG 1500=
201412302305 METAR VIDP NIL=
201412302330 METAR VIDP 302330Z 11008KT 2500 BR NSC 09/08 Q1015 NOSIG=
