##########################################################
# Query made at 12/13/2025 04:35:22 UTC
# Time interval: from 12/10/2015 00:00  to 12/30/2015 23:59  UTC
##########################################################

##########################################################
# VIDP, New Delhi / Palam (India)
# WMO index: 42181. WIGOS ID: 0-20000-0-42181
# Latitude 28-34-00N. Longitude 077-07-00E. Altitude 225 m.
##########################################################

###################################
#  METAR/SPECI from VIDP
###################################
201512100000 METAR COR VIDP 100000Z 11003KT 0600 R28/P2000 R29/2000 MIFG FEW040 SCT100 16/14 Q1014 NOSIG=
201512100030 METAR VIDP 100030Z 11004KT 0600 R28/P2000 R29/2000 MIFG SCT040 SCT100 16/14 Q1014 NOSIG=
201512100100 METAR VIDP 100100Z 09004KT 0700 R28/P2000 R29/2000 MIFG SCT040 BKN100 16/14 Q1014 BECMG 0800=
201512100130 METAR VIDP 100130Z 09004KT 0800 R28/P2000 R29/2000 MIFG SCT040 BKN100 16/13 Q1014 NOSIG=
201512100200 METAR VIDP 100200Z 09004KT 0800 R28/1900 R29/1800 MIFG SCT040 BKN100 16/14 Q1015 BECMG 0600=
201512100205 METAR VIDP NIL=
201512100230 METAR VIDP 100230Z 10004KT 0700 R28/1300 R29/1200 MIFG SCT040 BKN100 17/14 Q1015 BECMG 0600=
201512100300 METAR VIDP 100300Z 10005KT 0700 R28/1600 R29/1300 MIFG SCT040 BKN100 17/14 Q1015 BECMG 0600=
201512100330 METAR VIDP 100330Z 11007KT 0700 R28/1700 R29/1400 MIFG SCT040 BKN100 17/14 Q1015 BECMG 0800=
201512100400 METAR VIDP 100400Z 10007KT 0800 R28/P2000 R29/1500 MIFG SCT040 BKN100 18/14 Q1016 NOSIG=
201512100430 METAR VIDP 100430Z 11007KT 0900 R28/P2000 R29/1800 FU SCT040 BKN100 19/14 Q1016 NOSIG=
201512100500 METAR VIDP 100500Z 13008KT 1100 R28/1500 R29/P2000 FU SCT040 BKN100 21/14 Q1016 NOSIG=
201512100505 METAR VIDP NIL=
201512100530 METAR VIDP 100530Z 13008KT 1200 R28/1500 R29/P2000 FU SCT040 BKN100 22/14 Q1015 BECMG 1500=
201512100600 METAR VIDP 100600Z 14008KT 1300 R28/1400 R29/P2000 FU SCT040 BKN100 23/13 Q1015 BECMG 1500=
201512100605 METAR VIDP NIL=
201512100630 METAR VIDP 100630Z 14008KT 1500 R28/1600 R29/P2000 FU SCT040 BKN100 24/13 Q1014 NOSIG=
201512100700 METAR VIDP 100700Z 15008KT 1500 R28/1600 R29/P2000 FU SCT040 BKN100 25/13 Q1013 NOSIG=
201512100705 METAR VIDP NIL=
201512100730 METAR VIDP 100730Z 14008KT 1500 R28/1700 R29/P2000 FU SCT040 BKN100 25/11 Q1013 NOSIG=
201512100800 METAR VIDP 100800Z 14008KT 1500 R28/1700 R29/P2000 FU SCT040 BKN100 25/11 Q1012 NOSIG=
201512100830 METAR VIDP 100830Z 15006KT 1500 R28/1500 R29/P2000 FU SCT040 BKN100 26/11 Q1011 NOSIG=
201512100900 METAR COR VIDP 100900Z 15006KT 1500 R28/1500 R29/P2000 FU SCT040 BKN100 26/11 Q1011 NOSIG=
201512100930 METAR VIDP 100930Z 15005KT 1500 R28/1600 R29/P2000 FU SCT040 BKN100 26/11 Q1011 NOSIG=
201512101000 METAR VIDP 101000Z 12006KT 1500 R28/1500 R29/P2000 FU SCT040 BKN100 25/11 Q1010 NOSIG=
201512101030 METAR VIDP 101030Z 10005KT 1500 R28/1600 R29/P2000 FU SCT040 BKN100 25/12 Q1010 NOSIG=
201512101100 METAR VIDP 101100Z 10006KT 1500 R28/1700 R29/P2000 FU SCT040 BKN100 25/12 Q1010 NOSIG=
201512101130 METAR VIDP 101130Z 10004KT 1500 R28/P2000 R29/P2000 FU SCT040 BKN100 24/12 Q1010 NOSIG=
201512101200 METAR COR VIDP 101200Z 10004KT 1300 R28/P2000 R29/P2000 FU SCT040 BKN100 24/12 Q1010 NOSIG=
201512101230 METAR VIDP 101230Z 10004KT 1300 R28/P2000 R29/P2000 FU SCT040 BKN100 24/12 Q1010 NOSIG=
201512101300 METAR VIDP 101300Z 10004KT 1200 R28/P2000 R29/P2000 FU SCT040 BKN100 21/13 Q1010 NOSIG=
201512101305 METAR VIDP NIL=
201512101330 METAR VIDP 101330Z 09003KT 1000 R28/P2000 R29/P2000 FU FEW040 SCT100 20/14 Q1010 NOSIG=
201512101405 METAR VIDP NIL=
201512101430 METAR VIDP 101430Z 10003KT 1000 R28/P2000 R29/P2000 FU FEW040 SCT100 19/14 Q1010 NOSIG=
201512101500 METAR VIDP 101500Z 10005KT 1000 R28/P2000 R29/P2000 BR FEW040 SCT100 19/15 Q1010 NOSIG=
201512101505 METAR VIDP NIL=
201512101530 METAR VIDP 101530Z 10003KT 1000 R28/P2000 R29/P2000 BR FEW040 SCT100 19/15 Q1010 NOSIG=
201512101600 METAR VIDP 101600Z 10005KT 1000 R28/P2000 R29/P2000 BR FEW040 SCT100 19/15 Q1010 NOSIG=
201512101605 METAR VIDP NIL=
201512101630 METAR VIDP 101630Z 11004KT 1000 R28/P2000 R29/P2000 BR FEW040 SCT100 19/15 Q1010 NOSIG=
201512101705 METAR VIDP NIL=
201512101730 METAR VIDP 101730Z 12004KT 1000 R28/P2000 R29/P2000 BR FEW040 SCT100 19/15 Q1010 NOSIG=
201512101800 METAR VIDP 101800Z 13004KT 1000 R28/2000 R29/2000 BR FEW040 SCT100 19/15 Q1010 NOSIG=
201512101805 METAR VIDP NIL=
201512101830 METAR VIDP 101830Z 14004KT 1000 R28/2000 R29/2000 BR FEW040 SCT100 19/15 Q1010 NOSIG=
201512101900 METAR VIDP 101900Z 15004KT 1000 R28/2000 R29/2000 BR FEW040 SCT100 19/15 Q1010 NOSIG=
201512101905 METAR VIDP NIL=
201512101930 METAR VIDP 101930Z 14005KT 1000 R28/2000 R29/2000 BR FEW040 SCT100 19/15 Q1009 NOSIG=
201512102000 METAR VIDP 102000Z 15004KT 1000 R28/2000 R29/2000 BR FEW040 SCT100 19/15 Q1009 NOSIG=
201512102030 METAR VIDP 102030Z 00000KT 1000 R28/2000 R29/2000 BR FEW040 SCT100 19/15 Q1009 NOSIG=
201512102100 METAR VIDP 102100Z 00000KT 1000 R28/2000 R29/2000 BR FEW040 SCT100 19/15 Q1009 NOSIG=
201512102105 METAR VIDP NIL=
201512102130 METAR VIDP 102130Z 00000KT 1000 R28/2000 R29/2000 BR FEW040 SCT100 19/15 Q1009 NOSIG=
201512102200 METAR VIDP 102200Z 28005KT 1100 R28/2000 R29/2000 BR FEW040 SCT100 18/15 Q1009 NOSIG=
201512102205 METAR VIDP NIL=
201512102230 METAR VIDP 102230Z 22005KT 1200 R28/2000 R29/2000 BR FEW100 18/14 Q1009 NOSIG=
201512102300 METAR VIDP 102300Z 22002KT 1000 R28/2000 R29/2000 BR FEW100 16/14 Q1009 NOSIG=
201512102330 METAR VIDP 102330Z 22002KT 1000 R28/2000 R29/2000 BR FEW100 16/14 Q1009 NOSIG=
201512110000 METAR VIDP 110000Z 00000KT 0900 R28/2000 R29/2000 MIFG FEW100 16/14 Q1009 BECMG 0800=
201512110005 METAR VIDP NIL=
201512110030 METAR VIDP 110030Z 00000KT 0800 R28/2000 R29/2000 MIFG FEW100 16/14 Q1009 NOSIG=
201512110100 METAR VIDP 110100Z 23003KT 0600 R28/2000 R29/1700 MIFG FEW100 16/14 Q1010 NOSIG=
201512110130 METAR VIDP 110130Z 25005KT 0400 R28/1800 R29/1400 FG FEW100 15/14 Q1010 NOSIG=
201512110200 METAR VIDP 110200Z 26005KT 0300 R28/1000 R29/0900 FG FEW100 15/14 Q1010 NOSIG=
201512110230 METAR COR VIDP 110230Z 27004KT 0300 R28/1000 R29/1000 FG FEW100 15/14 Q1011 BECMG 0350=
201512110300 METAR VIDP 110300Z 27006KT 0500 R28/1000 R29/0900 FG FEW100 15/13 Q1011 BECMG 0600=
201512110305 METAR VIDP NIL=
201512110330 METAR VIDP 110330Z 27006KT 0600 R28/1100 R29/1300 MIFG SCT100 16/13 Q1012 NOSIG=
201512110400 METAR VIDP 110400Z 26006KT 0700 R28/1300 R29/1200 MIFG SCT100 17/13 Q1012 BECMG VIS 0800=
201512110430 METAR VIDP 110430Z 27007KT 0900 R28/1300 R29/1200 MIFG SCT100 17/13 Q1012 NOSIG=
201512110500 METAR COR VIDP 110500Z 30008KT 1000 R/28/1200 R/29/2000 FU SCT100 18/13 Q1012NOSIG=
201512110505 METAR VIDP NIL=
201512110530 METAR VIDP 110530Z 30008KT 1000 R/28/1200 R/29/2000 FU SCT100 19/13 Q1012 NOSIG=
201512110600 METAR VIDP 110600Z 29009KT 1000 R/28/1200 R/29/1400 FU SCT100 19/13 Q1012 NOSIG=
201512110605 METAR VIDP NIL=
201512110630 METAR VIDP 110630Z 30009KT 1100 R/28/1200 R/29/2000 FU SCT100 20/13 Q1012 NOSIG=
201512110700 METAR VIDP 110700Z 30008KT 1200 R/28/1200 R/29/P2000 FU SCT100 20/13 Q1012 NOSIG=
201512110730 METAR VIDP 110730Z 28010KT 1100 R/28/1100 R/29/P2000 FU SCT100 21/12 Q1011 NOSIG=
201512110800 METAR VIDP 110800Z 30010KT 1000 R/28/1000 R/29/1500 FU SCT100 21/12 Q1011 NOSIG=
201512110830 METAR VIDP 110830Z 33008KT 1200 R28/1700 R29/1300 FU SCT100 21/12 Q1010 NOSIG=
201512110900 METAR VIDP 110900Z 32008KT 1200 R/28/1500 R/29/1300 FU SCT100 21/12 Q1010 NOSIG=
201512110905 METAR VIDP NIL=
201512110930 METAR VIDP NIL=
201512111000 METAR COR VIDP 111000Z 29006KT 1400 R/28/1500 R/29/1500 FU SCT100 20/13 Q1010 BECMG 1500=
201512111005 METAR VIDP NIL=
201512111030 METAR VIDP 111030Z 29006KT 1500 R/28/1600 R/29/1500 FU SCT100 20/13 Q1010 NOSIG=
201512111100 METAR VIDP 111100Z 29006KT 1500 R/28/1600 R/29/1500 FU SCT100 20/13 Q1010 NOSIG=
201512111130 METAR VIDP 111130Z 28005KT 1500 R/28/1800 R/29/1800 FU SCT100 20/13 Q1010 NOSIG=
201512111200 METAR VIDP 111200Z 29005KT 1300 R/28/29/P2000 FU SCT100 18/13 Q1010 NOSIG=
201512111230 METAR VIDP 111230Z 28005KT 1300 R28/29/P2000 BR SCT100 17/13 Q1010 NOSIG=
201512111300 METAR VIDP 111300Z 01003KT 1300 R/28/29/P2000 BR SCT100 17/13 Q1011 NOSIG=
201512111330 METAR VIDP 111330Z 35005KT 1300 R28/29/P2000 BR FEW100 17/13 Q1011 NOSIG=
201512111400 METAR VIDP 111400Z 01004KT 1300 R28/29/P2000 BR SCT100 17/13 Q1011 NOSIG=
201512111430 METAR VIDP 111430Z 00000KT 1000 R28/29/P2000 BR FEW100 16/13 Q1012 NOSIG=
201512111500 METAR VIDP 111500Z 00000KT 1000 R28/29/P2000 BR FEW100 16/13 Q1012 NOSIG=
201512111530 METAR VIDP 111530Z 00000KT 1000 R28/29/P2000 BR FEW100 16/13 Q1012 NOSIG=
201512111600 METAR VIDP 111600Z 00000KT 0900 R28/29/P2000 MIFG FEW100 16/13 Q1012 BECMG 0800=
201512111630 METAR VIDP 111630Z 26006KT 0600 R28/P2000 R29/1900 MIFG FEW100 15/13 Q1013 NOSIG=
201512111700 METAR VIDP 111700Z 26006KT 0600 R28/P2000 R29/1800 MIFG FEW100 14/12 Q1013 NOSIG=
201512111730 METAR VIDP 111730Z 28005KT 0500 R28/P2000 R29/1700 MIFG FEW100 14/12 Q1013 NOSIG=
201512111800 METAR VIDP 111800Z 26003KT 0400 R28/P2000 R29/1200 FG FEW100 13/11 Q1013 BECMG 0350=
201512111830 METAR VIDP 111830Z 23003KT 0300 R28/1800 R29/1300 FG FEW100 13/12 Q1013 NOSIG=
201512111900 METAR VIDP 111900Z 25004KT 0250 R28/1200 R29/0900 FG FEW100 13/12 Q1013 NOSIG=
201512111930 METAR VIDP 111930Z 25004KT 0250 R28/1100 R29/0900 FG VV/// 13/12 Q1013 NOSIG=
201512112000 METAR VIDP 112000Z 24003KT 0250 R28/1000 R29/0800 FG VV/// 13/12 Q1013 NOSIG=
201512112030 METAR VIDP 112030Z 25003KT 0250 R28/1200 R29/1000 FG VV/// 12/11 Q1013 NOSIG=
201512112100 METAR VIDP 112100Z 26004KT 0250 R28/1200 R29/0900 FG VV/// 12/11 Q1013 NOSIG=
201512112130 METAR VIDP 112130Z 29003KT 0250 R28/1400 R29/1100 FG VV/// 12/11 Q1013 NOSIG=
201512112200 METAR VIDP 112200Z 29003KT 0250 R28/1400 R29/1100 FG VV/// 12/11 Q1013 NOSIG=
201512112230 METAR VIDP 112230Z 26003KT 0200 R28/1500 R29/0800 FG VV/// 12/11 Q1013 NOSIG=
201512112300 METAR VIDP 112300Z 28003KT 0200 R28/1500 R29/0750 FG VV/// 12/11 Q1013 NOSIG=
201512112305 METAR VIDP NIL=
201512112330 METAR VIDP 112330Z 30003KT 0200 R28/1500 R29/1000 FG VV/// 12/11 Q1013 BECMG 0150=
201512120000 METAR VIDP 120000Z 25003KT 0150 R28/1400 R29/0700 FG VV/// 12/11 Q1013 NOSIG=
201512120005 METAR VIDP NIL=
201512120030 METAR VIDP 120030Z 25003KT 0100 R28/0900 R29/0125 FG VV/// 11/11 Q1013 NOSIG=
201512120100 METAR VIDP 120100Z 26004KT 0000 R28/0150 R29/0150 FG VV/// 11/11 Q1013 NOSIG=
201512120105 METAR VIDP NIL=
201512120130 METAR VIDP 120130Z 28004KT 0000 R28/0900 R29/0150 FG VV/// 11/11 Q1014 NOSIG=
201512120200 METAR VIDP 120200Z 26004KT 0000 R28/0550 R29/0150 FG VV/// 11/11 Q1014 NOSIG=
201512120230 METAR VIDP 120230Z 27006KT 0000 R28/0325 R29/0125 FG VV/// 11/11 Q1015 NOSIG=
201512120300 METAR VIDP 120300Z 27005KT 0050 R28/0475 R29/0150 FG VV/// 12/12 Q1015 BECMG 0150=
201512120330 METAR VIDP 120330Z 27006KT 0050 R28/0275 R29/0200 FG VV/// 12/12 Q1015 BECMG 0150=
201512120400 METAR VIDP 120400Z 29006KT 0100 R28/0375 R29/0300 FG VV/// 12/12 Q1015 BECMG 0150=
201512120430 METAR VIDP 120430Z 26006KT 0150 R28/0500 R29/0300 FG VV/// 12/12 Q1016 BECMG 0350=
201512120500 METAR VIDP 120500Z 25006KT 0150 R28/0600 R29/0300 FG VV/// 13/13 Q1016 BECMG 0350=
201512120530 METAR VIDP 120530Z 25007KT 0200 R28/0500 R29/0350 FG VV/// 13/13 Q1016 NOSIG=
201512120600 METAR VIDP 120600Z 25008KT 0250 R28/0700 R29/0500 FG VV/// 13/12 Q1016 NOSIG=
201512120605 METAR VIDP NIL=
201512120630 METAR VIDP 120630Z 27008KT 0350 R28/0700 R29/0600 FG VV/// 13/12 Q1015 NOSIG=
201512120700 METAR VIDP 120700Z 26008KT 0400 R28/0800 R29/0700 FG VV/// 13/12 Q1015 NOSIG=
201512120730 METAR VIDP 120730Z 27008KT 0500 R28/0800 R29/0800 MIFG VV/// 13/12 Q1015 BECMG 0600=
201512120800 METAR VIDP 120800Z 27008KT 0600 R28/1000 R29/0900 MIFG VV/// 13/12 Q1014 NOSIG=
201512120830 METAR VIDP 120830Z 28008KT 0700 R28/1200 R29/1200 MIFG VV/// 13/12 Q1014 BECMG 0800=
201512120900 METAR VIDP 120900Z 28008KT 1000 R28/1200 R29/1300 MIFG VV/// 14/12 Q1014 NOSIG=
201512120930 METAR VIDP 120930Z 28008KT 1000 R28/1400 R29/1400 MIFG VV/// 14/12 Q1013 NOSIG=
201512121000 METAR VIDP 121000Z 29008KT 1100 R28/1600 R29/1300 BR BKN020 15/13 Q1013 NOSIG=
201512121030 METAR VIDP 121030Z 29007KT 1100 R28/1700 R29/1300 BR BKN020 16/13 Q1013 NOSIG=
201512121100 METAR VIDP 121100Z 27006KT 1100 R28/1700 R29/1300 BR BKN020 16/13 Q1013 NOSIG=
201512121130 METAR VIDP 121130Z 25006KT 1100 R28/1800 R29/1500 BR BKN020 16/13 Q1013 NOSIG=
201512121200 METAR VIDP 121200Z 24004KT 0900 R28/P2000 R29/1900 MIFG SCT025 14/12 Q1013 BECMG 0800=
201512121230 METAR VIDP 121230Z 24003KT 0800 R28/P2000 R29/P2000 MIFG SCT025 14/12 Q1013 TEMPO 0600=
201512121300 METAR VIDP 121300Z 23003KT 0700 R28/P2000 R29/1900 MIFG SCT025 14/12 Q1013 TEMPO 0600=
201512121330 METAR VIDP 121330Z 24003KT 0700 R28/P2000 R29/P2000 MIFG SCT025 13/11 Q1013 TEMPO 0600=
201512121400 METAR VIDP 121400Z 00000KT 0600 R28/P2000 R29/P2000 MIFG SCT025 14/12 Q1013 NOSIG=
201512121430 METAR VIDP 121430Z 22003KT 0600 R28/P2000 R29/P2000 MIFG SCT030 13/12 Q1014 NOSIG=
201512121500 METAR VIDP 121500Z 25003KT 0500 R28/P2000 R29/P2000 FG NSC 13/12 Q1014 NOSIG=
201512121530 METAR VIDP 121530Z 25003KT 0500 R28/P2000 R29/P2000 FG NSC 12/12 Q1014 NOSIG=
201512121600 METAR VIDP 121600Z 00000KT 0500 R28/P2000 R29/P2000 FG NSC 12/12 Q1014 NOSIG=
201512121605 METAR VIDP NIL=
201512121630 METAR VIDP 121630Z 00000KT 0500 R28/P2000 R29/P2000 FG NSC 12/12 Q1014 NOSIG=
201512121700 METAR VIDP 121700Z 00000KT 0400 R28/P2000 R29/1800 FG NSC 12/12 Q1014 BECMG 0350=
201512121730 METAR VIDP 121730Z 00000KT 0200 R28/P2000 R29/1600 FG NSC 12/12 Q1014 BECMG 0150=
201512121800 METAR VIDP 121800Z 24003KT 0450 R28/P2000 R29/1900 FG NSC 11/11 Q1014 BECMG 0600=
201512121830 METAR VIDP 121830Z 24004KT 0600 R28/1800 R29/P2000 MIFG NSC 11/11 Q1014 NOSIG=
201512121900 METAR VIDP 121900Z 23003KT 0500 R28/P2000 R29/P2000 FG NSC 10/10 Q1014 NOSIG=
201512121930 METAR VIDP 121930Z 24003KT 0500 R28/P2000 R29/1500 FG NSC 10/10 Q1014 NOSIG=
201512122000 METAR VIDP 122000Z 22004KT 0450 R28/P2000 R29/1500 FG NSC 10/10 Q1014 NOSIG=
201512122030 METAR VIDP 122030Z 23003KT 0450 R28/P2000 R29/1500 FG NSC 10/10 Q1014 BECMG 0350=
201512122100 METAR VIDP 122100Z 00000KT 0350 R28/P2000 R29/1700 FG NSC 09/09 Q1014 NOSIG=
201512122130 METAR VIDP 122130Z 00000KT 0200 R28/P2000 R29/1800 FG NSC 09/09 Q1014 BECMG 0150=
201512122200 METAR VIDP 122200Z 00000KT 0200 R28/P2000 R29/1900 FG NSC 09/09 Q1014 BECMG 0150=
201512122205 METAR VIDP NIL=
201512122230 METAR VIDP 122230Z 00000KT 0200 R28/P2000 R29/1800 FG NSC 09/09 Q1014 BECMG 0150=
201512122300 METAR VIDP 122300Z 00000KT 0300 R28/P2000 R29/1000 FG NSC 07/06 Q1014 NOSIG=
201512122305 METAR VIDP NIL=
201512122330 METAR VIDP 122330Z 00000KT 0300 R28/P2000 R29/1300 FG NSC 07/06 Q1014 BECMG VIS 0350=
201512130000 METAR VIDP 130000Z 00000KT 0500 R28/P2000 R29/2000 FG NSC 07/06 Q1014 BECMG VIS 0600=
201512130030 METAR VIDP 130030Z 00000KT 0600 R28/P2000 R29/2000 MIFG NSC 07/07 Q1014 BECMG VIS 0800=
201512130100 METAR VIDP 130100Z 00000KT 0800 R28/P2000 R29/2000 MIFG NSC 06/05 Q1014 NOSIG=
201512130130 METAR VIDP 130130Z 00000KT 1000 R28/P2000 R29/2000 BR NSC 05/04 Q1015 NOSIG=
201512130200 METAR VIDP 130200Z 00000KT 1200 R28/P2000 R29/2000 BR NSC 06/04 Q1015 BECMG VIS 1500=
201512130230 METAR VIDP NIL=
201512130300 METAR VIDP 130300Z 00000KT 1700 R28/P2000 R29/2000 BR NSC 08/05 Q1016 NOSIG=
201512130305 METAR VIDP NIL=
201512130330 METAR VIDP 130330Z 22005KT 2000 R28/P2000 R29/2000 BR NSC 10/07 Q1016 NOSIG=
201512130400 METAR VIDP 130400Z 24004KT 2000 BR NSC 11/07 Q1017 NOSIG=
201512130430 METAR VIDP 130430Z 27005KT 1700 R28/P2000 R29/P2000 HZ NSC 13/07 Q1017 NOSIG=
201512130500 METAR VIDP 130500Z 27005KT 1700 R28/P2000 R29/P2000 HZ NSC 15/06 Q1017 NOSIG=
201512130505 METAR VIDP NIL=
201512130530 METAR VIDP 130530Z 28006KT 1800 R28/P2000 R29/P2000 HZ NSC 16/06 Q1017 NOSIG=
201512130600 METAR VIDP 130600Z 28007KT 1600 R28/1800 R29/P2000 HZ NSC 17/06 Q1017 NOSIG=
201512130605 METAR VIDP NIL=
201512130630 METAR VIDP 130630Z 28007KT 1600 R28/1600 R29/P2000 HZ NSC 17/06 Q1017 NOSIG=
201512130700 METAR VIDP 130700Z 30007KT 1600 R28/1600 R29/P2000 HZ NSC 19/06 Q1016 NOSIG=
201512130730 METAR VIDP 130730Z 31007KT 1600 R27/P2000 R29/P2000 HZ NSC 19/05 Q1016 NOSIG=
201512130800 METAR VIDP 130800Z 31007KT 2200 HZ NSC 20/04 Q1015 NOSIG=
201512130830 METAR VIDP 130830Z 32008KT 2500 HZ NSC 20/03 Q1015 NOSIG=
201512130900 METAR VIDP 130900Z 29008KT 2800 HZ NSC 20/03 Q1015 BECMG 3000=
201512130930 METAR VIDP 130930Z 28008KT 3000 HZ NSC 21/03 Q1015 NOSIG=
201512131000 METAR VIDP 131000Z 28006KT 3500 HZ NSC 20/04 Q1015 NOSIG=
201512131030 METAR VIDP 131030Z 30006KT 3500 HZ NSC 20/04 Q1015 NOSIG=
201512131100 METAR VIDP 131100Z 30006KT 3500 HZ NSC 19/04 Q1015 NOSIG=
201512131130 METAR VIDP 131130Z 30005KT 3500 HZ NSC 19/04 Q1015 NOSIG=
201512131200 METAR VIDP 131200Z 30005KT 3500 HZ NSC 18/05 Q1015 BECMG 3000=
201512131230 METAR VIDP 131230Z 28003KT 3100 HZ NSC 18/05 Q1015 BECMG 3000=
201512131300 METAR VIDP 131300Z 30005KT 3000 HZ NSC 17/06 Q1015 NOSIG=
201512131305 METAR VIDP NIL=
201512131330 METAR VIDP 131330Z 27003KT 2800 HZ NSC 16/06 Q1016 NOSIG=
201512131400 METAR VIDP 131400Z 00000KT 2800 FU NSC 15/06 Q1016 NOSIG=
201512131430 METAR VIDP 131430Z 00000KT 2400 FU NSC 15/06 Q1016 NOSIG=
201512131500 METAR VIDP 131500Z 00000KT 2200 FU NSC 14/06 Q1017 NOSIG=
201512131530 METAR VIDP 131530Z 00000KT 2200 FU NSC 13/06 Q1017 NOSIG=
201512131600 METAR VIDP 131600Z 00000KT 2000 FU NSC 12/06 Q1017 NOSIG=
201512131630 METAR VIDP 131630Z 00000KT 2100 FU NSC 12/06 Q1017 NOSIG=
201512131700 METAR VIDP 131700Z 00000KT 2100 FU NSC 12/06 Q1017 NOSIG=
201512131730 METAR VIDP 131730Z 00000KT 1800 R28/29/P2000 FU NSC 12/06 Q1017 NOSIG=
201512131800 METAR VIDP 131800Z 00000KT 1600 R28/29/P2000 FU NSC 11/06 Q1017 BECMG 1500=
201512131830 METAR VIDP 131830Z 00000KT 1500 R28/29/P2000 BR NSC 10/06 Q1017 NOSIG=
201512131900 METAR VIDP 131900Z 00000KT 1500 R28/29/P2000 FU NSC 10/06 Q1017 NOSIG=
201512131905 METAR VIDP NIL=
201512131930 METAR VIDP 131930Z 00000KT 1500 R28/29/P2000 FU NSC 09/06 Q1017 NOSIG=
201512132000 METAR VIDP 132000Z 00000KT 1500 R28/29/P2000 FU NSC 09/06 Q1017 NOSIG=
201512132030 METAR VIDP 132030Z 00000KT 1300 R28/29/P2000 FU NSC 09/06 Q1017 NOSIG=
201512132100 METAR VIDP 132100Z 00000KT 1200 R28/29/P2000 FU NSC 09/06 Q1017 NOSIG=
201512132105 METAR VIDP NIL=
201512132130 METAR VIDP 132130Z 00000KT 1200 R28/29/P2000 FU NSC 08/06 Q1017 NOSIG=
201512132200 METAR VIDP 132200Z 26003KT 1000 R28/P2000 R29/P2000 BR NSC 08/05 Q1017 NOSIG=
201512132205 METAR VIDP NIL=
201512132230 METAR VIDP 132230Z 00000KT 0900 R28/P2000 R29/P2000 MIFG NSC 08/05 Q1017 BECMG 0800=
201512132300 METAR VIDP 132300Z 00000KT 0900 R28/P2000 R29/P2000 MIFG NSC 08/05 Q1017 BECMG 0800=
201512132330 METAR VIDP 132330Z 00000KT 0900 R28/P2000 R29/P2000 MIFG NSC 08/05 Q1017 BECMG 0800=
201512140000 METAR VIDP 140000Z 00000KT 0800 R28/P2000 R29/P2000 MIFG NSC 08/05 Q1017 NOSIG=
201512140005 METAR VIDP NIL=
201512140030 METAR VIDP 140030Z 00000KT 0700 R28/P2000 R29/1800 MIFG NSC 08/05 Q1017 NOSIG=
201512140100 METAR VIDP 140100Z 26003KT 0700 R28/P2000 R29/P2000 MIFG NSC 07/05 Q1017 NOSIG=
201512140105 METAR VIDP NIL=
201512140130 METAR VIDP 140130Z 26004KT 0700 R28/P2000 R29/1600 MIFG NSC 07/05 Q1017 NOSIG=
201512140200 METAR VIDP 140200Z 25003KT 0700 R28/1200 R29/0800 MIFG NSC 07/06 Q1018 BECMG 0600=
201512140230 METAR VIDP 140230Z 25003KT 0700 R28/1200 R29/0800 MIFG NSC 07/06 Q1018 BECMG 0600=
201512140300 METAR COR VIDP 140300Z 24003KT 0600 R28/1100 R29/0800 MIFG NSC 09/06 Q1018 NOSIG=
201512140305 METAR VIDP NIL=
201512140330 METAR VIDP 140330Z 26004KT 0600 R28/1300 R29/1000 MIFG NSC 10/06 Q1019 BECMG 0800=
201512140400 METAR VIDP 140400Z 26005KT 0700 R28/1300 R29/1000 MIFG NSC 11/06 Q1019 BECMG 0800=
201512140430 METAR VIDP 140430Z 28005KT 0800 R28/1500 R29/1600 FU NSC 13/06 Q1019 NOSIG=
201512140500 METAR VIDP 140500Z 29007KT 1200 R28/1500 R29/P2000 FU NSC 15/05 Q1019 BECMG 1500=
201512140530 METAR VIDP 140530Z 31008KT 1400 R28/1500 R29/P2000 FU NSC 17/05 Q1019 BECMG 1500=
201512140600 METAR VIDP 140600Z 31008KT 2100 FU NSC 18/05 Q1018 NOSIG=
201512140630 METAR VIDP 140630Z 31009KT 2200 FU NSC 18/04 Q1018 NOSIG=
201512140700 METAR VIDP 140700Z 31008KT 2200 FU NSC 19/04 Q1017 NOSIG=
201512140705 METAR VIDP NIL=
201512140730 METAR VIDP 140730Z 29010KT 2200 FU NSC 20/04 Q1017 NOSIG=
201512140800 METAR VIDP 140800Z 28010KT 2200 FU NSC 20/04 Q1017 NOSIG=
201512140805 METAR VIDP NIL=
201512140830 METAR VIDP 140830Z 29010KT 2500 HZ NSC 20/04 Q1017 BECMG VIS 3000=
201512140900 METAR VIDP 140900Z 29009KT 3000 HZ NSC 20/03 Q1016 NOSIG=
201512140930 METAR VIDP 140930Z 28010KT 3000 HZ NSC 20/03 Q1016 NOSIG=
201512141000 METAR VIDP 141000Z 28009KT 3500 HZ NSC 20/03 Q1016 NOSIG=
201512141030 METAR VIDP 141030Z 26008KT 3500 HZ NSC 20/02 Q1016 NOSIG=
201512141100 METAR VIDP 141100Z 28008KT 3500 HZ NSC 20/02 Q1016 NOSIG=
201512141130 METAR VIDP 141130Z 26008KT 3500 HZ NSC 18/02 Q1015 NOSIG=
201512141200 METAR VIDP 141200Z 27005KT 3200 HZ NSC 16/03 Q1015 BECMG VIS 3000=
201512141230 METAR VIDP 141230Z 27005KT 3000 HZ NSC 15/04 Q1015 NOSIG=
201512141300 METAR VIDP 141300Z 26006KT 3000 HZ NSC 15/03 Q1016 NOSIG=
201512141305 METAR VIDP NIL=
201512141330 METAR VIDP 141330Z 27006KT 3000 HZ NSC 15/03 Q1016 NOSIG=
201512141400 METAR VIDP 141400Z 28004KT 3000 HZ NSC 13/03 Q1016 NOSIG=
201512141430 METAR VIDP 141430Z 27004KT 3000 HZ NSC 13/03 Q1016 NOSIG=
201512141500 METAR VIDP 141500Z 28004KT 3000 HZ NSC 13/03 Q1017 NOSIG=
201512141530 METAR VIDP 141530Z 27004KT 2600 HZ NSC 13/03 Q1017 NOSIG=
201512141600 METAR VIDP 141600Z 25003KT 2600 HZ NSC 12/04 Q1017 NOSIG=
201512141630 METAR VIDP 141630Z 27005KT 2400 HZ NSC 12/04 Q1017 NOSIG=
201512141700 METAR VIDP 141700Z 27004KT 2200 HZ NSC 12/04 Q1017 NOSIG=
201512141730 METAR VIDP 141730Z 26004KT 2200 HZ NSC 11/04 Q1017 NOSIG=
201512141800 METAR VIDP 141800Z 26004KT 1800 R28/P2000 R29/P2000 HZ NSC 11/04 Q1017 NOSIG=
201512141830 METAR VIDP 141830Z 27003KT 1700 R28/P2000 R29/P2000 HZ NSC 11/04 Q1016 BECMG 1500=
201512141900 METAR VIDP 141900Z 27004KT 1500 R28/P2000 R29/P2000 HZ NSC 11/04 Q1016 NOSIG=
201512141930 METAR VIDP 141930Z 25005KT 1500 R28/P2000 R29/P2000 HZ NSC 11/04 Q1016 NOSIG=
201512142000 METAR VIDP 142000Z 24004KT 1500 R28/P2000 R29/P2000 HZ NSC 10/04 Q1016 NOSIG=
201512142030 METAR VIDP 142030Z 23003KT 1300 R28/P2000 R29/P2000 HZ NSC 10/04 Q1016 NOSIG=
201512142100 METAR VIDP 142100Z 25004KT 1300 R28/P2000 R29/P2000 HZ NSC 10/04 Q1015 NOSIG=
201512142105 METAR VIDP NIL=
201512142130 METAR VIDP 142130Z 24004KT 1300 R28/P2000 R29/P2000 HZ NSC 10/04 Q1015 NOSIG=
201512142200 METAR VIDP 142200Z 00000KT 1300 R28/2000 R29/2000 FU NSC 09/04 Q1016 NOSIG=
201512142205 METAR VIDP NIL=
201512142230 METAR VIDP 142230Z 00000KT 1300 R28/2000 R29/2000 FU NSC 09/04 Q1016 NOSIG=
201512142300 METAR VIDP 142300Z 00000KT 1300 R28/2000 R29/2000 FU NSC 08/03 Q1015 NOSIG=
201512142305 METAR VIDP NIL=
201512142330 METAR VIDP 142330Z 00000KT 1300 R28/2000 R29/2000 BR NSC 08/04 Q1015 NOSIG=
201512150000 METAR VIDP 150000Z 00000KT 1500 R28/2000 R29/2000 BR NSC 08/04 Q1015 NOSIG=
201512150030 METAR VIDP 150030Z 00000KT 1500 R28/2000 R29/2000 BR NSC 07/03 Q1015 NOSIG=
201512150100 METAR VIDP 150100Z 00000KT 1700 R28/2000 R29/2000 BR NSC 07/04 Q1016 NOSIG=
201512150130 METAR VIDP 150130Z 00000KT 1700 R28/2000 R29/2000 BR NSC 07/04 Q1016 NOSIG=
201512150200 METAR VIDP 150200Z 00000KT 1700 R28/2000 R29/2000 BR NSC 07/04 Q1017 NOSIG=
201512150230 METAR VIDP 150230Z 00000KT 1700 R28/2000 R29/2000 BR NSC 08/04 Q1017 NOSIG=
201512150300 METAR VIDP 150300Z 27005KT 1700 R28/2000 R29/2000 BR NSC 09/05 Q1017 NOSIG=
201512150305 METAR VIDP NIL=
201512150330 METAR VIDP 150330Z 26006KT 1700 R28/2000 R29/2000 FU NSC 10/04 Q1018 NOSIG=
201512150400 METAR VIDP 150400Z 28006KT 1700 R28/2000 R29/2000 FU NSC 10/04 Q1018 NOSIG=
201512150430 METAR VIDP 150430Z 28006KT 1700 R28/2000 R29/2000 FU NSC 13/04 Q1018 NOSIG=
201512150500 METAR VIDP 150500Z 30006KT 1700 R28/2000 R29/2000 FU NSC 14/03 Q1018 NOSIG=
201512150530 METAR VIDP 150530Z 29007KT 1700 R28/2000 R29/2000 FU NSC 15/05 Q1018 NOSIG=
201512150600 METAR VIDP 150600Z 29007KT 2000 HZ NSC 16/04 Q1018 NOSIG=
201512150630 METAR VIDP 150630Z 31006KT 2000 HZ NSC 17/02 Q1017 NOSIG=
201512150700 METAR VIDP 150700Z 31006KT 2200 HZ NSC 18/04 Q1017 NOSIG=
201512150730 METAR VIDP 150730Z 32008KT 2500 HZ NSC 19/03 Q1016 NOSIG=
201512150800 METAR VIDP 150800Z 30008KT 2500 HZ NSC 21/03 Q1016 NOSIG=
201512150830 METAR VIDP 150830Z 30009KT 2500 HZ NSC 21/03 Q1015 BECMG 3000=
201512150900 METAR VIDP 150900Z 31010KT 3000 HZ NSC 21/02 Q1015 NOSIG=
201512150905 METAR VIDP NIL=
201512150930 METAR VIDP 150930Z 32009KT 3500 HZ NSC 21/01 Q1015 NOSIG=
201512151000 METAR VIDP 151000Z 31009KT 4500 HZ NSC 21/01 Q1014 NOSIG=
201512151030 METAR VIDP 151030Z 32008KT 4500 HZ NSC 21/01 Q1014 NOSIG=
201512151100 METAR VIDP 151100Z 31008KT 4500 HZ NSC 21/01 Q1014 NOSIG=
201512151130 METAR VIDP 151130Z 32006KT 3500 HZ NSC 20/01 Q1014 NOSIG=
201512151200 METAR VIDP 151200Z 31005KT 3200 HZ NSC 19/01 Q1014 NOSIG=
201512151230 METAR VIDP 151230Z 31005KT 3200 HZ NSC 18/01 Q1014 NOSIG=
201512151300 METAR VIDP 151300Z 31003KT 3200 HZ NSC 17/02 Q1014 BECMG 3000=
201512151330 METAR VIDP 151330Z 00000KT 3000 HZ NSC 15/03 Q1015 NOSIG=
201512151400 METAR VIDP 151400Z 00000KT 2500 HZ NSC 14/03 Q1015 NOSIG=
201512151430 METAR VIDP 151430Z 00000KT 2500 HZ NSC 12/03 Q1016 NOSIG=
201512151500 METAR VIDP 151500Z 00000KT 2200 HZ NSC 12/04 Q1016 NOSIG=
201512151530 METAR VIDP 151530Z 00000KT 2200 HZ NSC 12/04 Q1016 NOSIG=
201512151600 METAR VIDP 151600Z 00000KT 2200 HZ NSC 12/04 Q1016 NOSIG=
201512151630 METAR VIDP 151630Z 00000KT 1600 FU NSC 11/04 Q1016 BECMG 1500=
201512151700 METAR VIDP 151700Z 00000KT 1200 R28/29/P2000 FU NSC 10/04 Q1016 NOSIG=
201512151730 METAR VIDP 151730Z 00000KT 1000 FU NSC 09/04 Q1016 NOSIG=
201512151800 METAR VIDP 151800Z 00000KT 1000 R28/P2000 R29/P2000 FU NSC 09/04 Q1016 NOSIG=
201512151805 METAR VIDP NIL=
201512151830 METAR VIDP 151830Z 00000KT 1000 R28/P2000 R29/P2000 FU NSC 09/04 Q1016 NOSIG=
201512151900 METAR VIDP 151900Z 00000KT 1000 R28/P2000 R29/P2000 FU NSC 09/04 Q1016 NOSIG=
201512151930 METAR VIDP 151930Z 00000KT 0900 R28/P2000 R29/P2000 FU NSC 08/03 Q1016 BECMG 0800=
201512152000 METAR VIDP 152000Z 00000KT 0800 R28/P2000 R29/1900 MIFG NSC 08/04 Q1015 NOSIG=
201512152030 METAR VIDP 152030Z 00000KT 0800 R28/P2000 R29/1900 MIFG NSC 08/04 Q1015 BECMG 0600=
201512152100 METAR VIDP 152100Z 00000KT 0600 R28/P2000 R29/P2000 MIFG NSC 08/04 Q1015 NOSIG=
201512152130 METAR VIDP 152130Z 00000KT 0600 R28/P2000 R29/P2000 MIFG NSC 07/04 Q1015 NOSIG=
201512152200 METAR VIDP 152200Z 00000KT 0600 R28/P2000 R29/P2000 MIFG NSC 07/04 Q1015 NOSIG=
201512152230 METAR VIDP 152230Z 00000KT 0600 R28/P2000 R29/P2000 MIFG NSC 06/04 Q1016 NOSIG=
201512152300 METAR VIDP 152300Z 00000KT 0600 R28/2000 R29/2000 MIFG NSC 06/04 Q1016 NOSIG=
201512152330 METAR VIDP 152330Z 00000KT 0600 R28/2000 R29/2000 MIFG NSC 06/04 Q1016 NOSIG=
201512160000 METAR VIDP 160000Z 00000KT 0600 R28/2000 R29/2000 MIFG NSC 06/04 Q1016 NOSIG=
201512160005 METAR VIDP NIL=
201512160030 METAR VIDP 160030Z 00000KT 0600 R28/2000 R29/2000 MIFG NSC 06/04 Q1016 NOSIG=
201512160100 METAR VIDP 160100Z 00000KT 0600 R/28/29/2000 MIFG NSC 06/04 Q1016 NOSIG=
201512160105 METAR VIDP NIL=
201512160130 METAR VIDP 160130Z 00000KT 0600 R/28/29/2000 MIFG NSC 06/04 Q1017 NOSIG=
201512160200 METAR VIDP 160200Z 00000KT 0600 R28/2000 R29/1700 MIFG NSC 06/04 Q1017 NOSIG=
201512160230 METAR VIDP 160230Z 00000KT 0700 R28/2000 R29/1500 MIFG NSC 07/04 Q1017 BECMG 0800=
201512160300 METAR VIDP 160300Z 00000KT 1000 R28/2000 R29/1500 BR NSC 09/05 Q1017 NOSIG=
201512160330 METAR VIDP 160330Z 26004KT 1400 R28/P2000 R29/P2000 FU NSC 11/03 Q1018 BECMG 1500=
201512160400 METAR VIDP 160400Z 28003KT 1800 R28/P2000 R29/P2000 FU NSC 14/03 Q1019 NOSIG=
201512160430 METAR VIDP 160430Z 25003KT 1800 R28/P2000 R29/P2000 FU NSC 15/03 Q1019 NOSIG=
201512160500 METAR VIDP 160500Z 22003KT 2000 R28/P2000 R29/P2000 FU NSC 16/03 Q1019 NOSIG=
201512160530 METAR VIDP 160530Z 24004KT 2500 FU NSC 17/03 Q1019 NOSIG=
201512160600 METAR VIDP 160600Z 24004KT 2500 FU NSC 18/03 Q1019 NOSIG=
201512160605 METAR VIDP NIL=
201512160630 METAR VIDP 160630Z 26004KT 2600 FU NSC 19/02 Q1018 NOSIG=
201512160700 METAR VIDP 160700Z 30003KT 2600 FU NSC 20/01 Q1017 NOSIG=
201512160705 METAR VIDP NIL=
201512160730 METAR VIDP 160730Z 14003KT 2800 FU NSC 20/01 Q1016 TEMPO VIS 3000=
201512160800 METAR VIDP 160800Z 26004KT 2900 FU NSC 21/00 Q1016 TEMPO VIS 3000=
201512160830 METAR VIDP NIL=
201512160900 METAR VIDP 160900Z VRB02KT 3500 FU NSC 21/01 Q1015 NOSIG=
201512160930 METAR VIDP 160930Z VRB02KT 3500 FU NSC 21/01 Q1014 NOSIG=
201512161000 METAR VIDP 161000Z VRB02KT 3500 FU NSC 22/M01 Q1014 NOSIG=
201512161030 METAR VIDP 161030Z VRB02KT 3500 HZ NSC 22/M01 Q1014 NOSIG=
201512161100 METAR VIDP 161100Z 14003KT 3500 HZ NSC 21/M01 Q1014 NOSIG=
201512161130 METAR VIDP 161130Z 16005KT 3500 HZ NSC 20/03 Q1014 NOSIG=
201512161200 METAR VIDP 161200Z 16004KT 3100 HZ NSC 19/03 Q1014 BECMG 3000=
201512161230 METAR VIDP 161230Z 15004KT 2500 FU NSC 18/03 Q1014 NOSIG=
201512161300 METAR VIDP 161300Z 16004KT 2500 FU NSC 17/03 Q1014 NOSIG=
201512161330 METAR VIDP 161330Z 16004KT 2500 FU NSC 16/03 Q1014 NOSIG=
201512161400 METAR VIDP 161400Z 14004KT 2100 FU NSC 15/04 Q1014 NOSIG=
201512161405 METAR VIDP NIL=
201512161430 METAR VIDP 161430Z 13004KT 2100 FU NSC 15/04 Q1015 NOSIG=
201512161500 METAR VIDP 161500Z 13004KT 1800 R28/29/P2000 FU 15/03 Q1015 NOSIG=
201512161505 METAR VIDP NIL=
201512161530 METAR VIDP 161530Z 14003KT 1800 R28/29/P2000 FU 15/03 Q1015 NOSIG=
201512161600 METAR VIDP 161600Z 13004KT 1700 R28/29/P2000 FU 15/04 Q1015 NOSIG=
201512161605 METAR VIDP NIL=
201512161630 METAR VIDP 161630Z 13004KT 1700 R28/29/P2000 FU 14/04 Q1015 NOSIG=
201512161700 METAR VIDP 161700Z 13003KT 1700 R28/29/P2000 FU 14/04 Q1015 NOSIG=
201512161705 METAR VIDP NIL=
201512161730 METAR VIDP NIL=
201512161800 METAR VIDP 161800Z 10004KT 2100 HZ 12/04 Q1016 NOSIG=
201512161830 METAR VIDP 161830Z 10004KT 1800 R/28/29/P2000 HZ 11/04 Q1015 NOSIG=
201512161900 METAR VIDP 161900Z 10004KT 1700 R/28/29/P2000 HZ 11/04 Q1015 NOSIG=
201512161930 METAR VIDP 161930Z 10004KT 1600 R/28/29/P2000 FU 10/04 Q1015 BECMG 1500=
201512162000 METAR VIDP 162000Z 10005KT 1300 R/28/29/P2000 FU 10/04 Q1015 NOSIG=
201512162030 METAR VIDP 162030Z 10005KT 1200 R/28/29/P2000 FU 09/04 Q1015 NOSIG=
201512162100 METAR VIDP 162100Z 10004KT 1200 R/28/29/P2000 FU 09/04 Q1015 NOSIG=
201512162130 METAR VIDP 162130Z 10004KT 1200 R/28/29/P2000 FU 09/04 Q1015 NOSIG=
201512162200 METAR VIDP 162200Z 09004KT 1200 R/28/29/P2000 FU 09/04 Q1015 NOSIG=
201512162230 METAR VIDP 162230Z 11004KT 1200 R/28/29/P2000 FU 09/05 Q1015 NOSIG=
201512162300 METAR VIDP 162300Z 10003KT 1200 R28/29/P2000 FU NSC 09/05 Q1015 NOSIG=
201512162330 METAR VIDP 162330Z 10002KT 1000 R28/29/P2000 FU NSC 09/05 Q1015 NOSIG=
201512170000 METAR VIDP 170000Z 12003KT 0900 R28/29/P2000 MIFG NSC 09/05 Q1015 BECMG VIS 0800=
201512170030 METAR VIDP 170030Z 09003KT 0900 R28/29/P2000 MIFG NSC 09/05 Q1015 BECMG VIS 0800=
201512170105 METAR VIDP NIL=
201512170130 METAR VIDP 170130Z VRB02KT 0800 R28/P2000 R29/1600 MIFG 09/06 Q1016 NOSIG=
201512170200 METAR VIDP 170200Z 08004KT 0800 R28/1700 R29/1300 MIFG 09/06 Q1016 NOSIG=
201512170230 METAR VIDP 170230Z 10005KT 0700 R28/1600 R29/1100 MIFG 09/06 Q1017 NOSIG=
201512170300 METAR VIDP 170300Z 10003KT 0700 R28/1400 R29/1100 MIFG 10/06 Q1017 NOSIG=
201512170305 METAR VIDP NIL=
201512170330 METAR VIDP 170330Z 12005KT 1000 R28/P2000 R29/1500 MIFG SCT100 14/08 Q1018 NOSIG=
201512170400 METAR VIDP 170400Z 13006KT 1000 R28/P2000 R29/1500 MIFG SCT100 15/07 Q1018 NOSIG=
201512170405 METAR VIDP NIL=
201512170430 METAR VIDP 170430Z 12005KT 1400 R28/P2000 R29/1800 FU SCT100 16/07 Q1018 BECMG VIS 1500=
201512170500 METAR VIDP 170500Z 11005KT 1400 R28/P2000 R29/1800 FU SCT040 17/07 Q1018 BECMG VIS 1500=
201512170530 METAR VIDP 170530Z 11005KT 1500 R28/P2000 R29/1800 FU SCT040 18/06 Q1018 NOSIG=
201512170600 METAR VIDP 170600Z 11005KT 1700 R28/P2000 R29/P2000 FU SCT040 19/06 Q1017 NOSIG=
201512170605 METAR VIDP NIL=
201512170630 METAR VIDP 170630Z 15006KT 1700 R28/1700 R29/2000 FU SCT040 20/06 Q1017 NOSIG=
201512170700 METAR VIDP 170700Z 15006KT 1700 R28/1700 R29/2000 FU SCT040 20/06 Q1017 NOSIG=
201512170730 METAR COR VIDP 170730Z 16007KT 1600 R28/1600 R29/P2000 FU FEW100 20/04 Q1016 NOSIG=
201512170800 METAR VIDP 170800Z 16007KT 1600 R28/P2000 R29/P2000 FU NSC 20/04 Q1016 NOSIG=
201512170830 METAR VIDP 170830Z 15007KT 1600 R28/P2000 R29/P2000 FU NSC 20/04 Q1016 NOSIG=
201512170900 METAR VIDP 170900Z 17006KT 1600 R28/P2000 R29/P2000 FU NSC 20/03 Q1016 NOSIG=
201512170930 METAR VIDP 170930Z 15004KT 2000 R28/P2000 R29/P2000 HZ NSC 21/03 Q1015 NOSIG=
201512171000 METAR VIDP 171000Z 16005KT 2500 HZ NSC 21/03 Q1015 NOSIG=
201512171030 METAR VIDP 171030Z 14003KT 2500 HZ NSC 20/03 Q1015 NOSIG=
201512171100 METAR VIDP 171100Z 12003KT 2500 HZ NSC 20/03 Q1015 NOSIG=
201512171130 METAR VIDP 171130Z 14003KT 2500 HZ NSC 19/03 Q1015 NOSIG=
201512171200 METAR VIDP 171200Z 14003KT 2200 HZ NSC 18/03 Q1015 NOSIG=
201512171230 METAR VIDP 171230Z 10002KT 2000 FU NSC 16/05 Q1015 NOSIG=
201512171300 METAR VIDP 171300Z 00000KT 1800 R/28/29/P2000 FU NSC 15/05 Q1016 NOSIG=
201512171330 METAR VIDP 171330Z 00000KT 1600 R/28/29/P2000 FU NSC 15/05 Q1016 BECMG 1500=
201512171400 METAR VIDP 171400Z 00000KT 1200 R/28/29/P2000 FU NSC 14/05 Q1016 NOSIG=
201512171430 METAR VIDP 171430Z 00000KT 1000 R/28/29/P2000 FU NSC 14/05 Q1016 BECMG 0800=
201512171500 METAR VIDP 171500Z 03003KT 0800 R/28/29/P2000 FU NSC 13/06 Q1017 NOSIG=
201512171530 METAR VIDP 171530Z 00000KT 0800 R/28/29/P2000 FU NSC 13/05 Q1017 NOSIG=
201512171600 METAR VIDP 171600Z 00000KT 0800 R28/P2000 R29/P2000 FU NSC 12/05 Q1017 NOSIG=
201512171630 METAR VIDP 171630Z 00000KT 0800 R28/P2000 R29/P2000 FU NSC 12/05 Q1017 NOSIG=
201512171700 METAR VIDP 171700Z 00000KT 0800 R/28/29/P2000 FU NSC 11/05 Q1017 NOSIG=
201512171705 METAR VIDP NIL=
201512171730 METAR VIDP 171730Z 00000KT 0800 R/28/29/P2000 FU NSC 11/05 Q1017 NOSIG=
201512171800 METAR VIDP 171800Z 00000KT 0700 R/28/P2000 R29/1900 MIFG NSC 10/06 Q1017 NOSIG=
201512171805 METAR VIDP NIL=
201512171830 METAR VIDP 171830Z 00000KT 0700 R/28/P2000 R29/1800 MIFG NSC 10/06 Q1017 NOSIG=
201512171900 METAR VIDP 171900Z 00000KT 0700 R/28/P2000 R29/1800 MIFG NSC 10/06 Q1017 NOSIG=
201512171905 METAR VIDP NIL=
201512171930 METAR VIDP 171930Z 00000KT 0700 R/28/P2000 R29/1700 MIFG NSC 10/06 Q1017 BECMG 0600=
201512172000 METAR VIDP 172000Z 00000KT 0600 R/28/P2000 R29/1700 MIFG NSC 09/06 Q1017 NOSIG=
201512172005 METAR VIDP NIL=
201512172030 METAR VIDP 172030Z 00000KT 0600 R/28/P2000 R29/1700 MIFG NSC 09/06 Q1017 NOSIG=
201512172100 METAR VIDP 172100Z 00000KT 0600 R/28/P2000 R29/1700 MIFG NSC 09/06 Q1017 NOSIG=
201512172130 METAR VIDP 172130Z 00000KT 0500 R/28/P2000 R29/1600 MIFG NSC 09/06 Q1017 NOSIG=
201512172200 METAR VIDP 172200Z 30003KT 0500 R/28/P2000 R29/1600 MIFG NSC 09/06 Q1017 BECMG 0350=
201512172205 METAR VIDP NIL=
201512172230 METAR VIDP 172230Z 29003KT 0400 R/28/P2000 R/29/1600 MIFG NSC 09/06 Q1017 BECMG 0350=
201512172300 METAR VIDP 172300Z 28003KT 0400 R/28/P2000 R/29/1600 MIFG NSC 08/06 Q1017 BECMG 0350=
201512172330 METAR VIDP 172330Z 25004KT 0350 R28/P2000 R29/1400 FG NSC 08/06 Q1017 NOSIG=
201512180000 METAR VIDP 180000Z 24002KT 0350 R28/P2000 R29/1100 FG NSC 08/07 Q1017 NOSIG=
201512180030 METAR VIDP 180030Z 25002KT 0300 R28/P2000 R29/1300 FG NSC 08/07 Q1017 NOSIG=
201512180100 METAR VIDP 180100Z 26003KT 0250 R28/1500 R29/1100 FG NSC 07/06 Q1018 NOSIG=
201512180130 METAR VIDP 180130Z 25003KT 0250 R28/1500 R29/1000 FG NSC 06/05 Q1018 NOSIG=
201512180200 METAR VIDP 180200Z 25003KT 0250 R28/1100 R29/0600 FG NSC 07/06 Q1019 NOSIG=
201512180230 METAR VIDP 180230Z 25003KT 0200 R28/0800 R29/0500 FG NSC 08/07 Q1019 BECMG VIS 0150=
201512180300 METAR VIDP 180300Z 23004KT 0400 R28/0650 R29/0450 FG NSC 09/08 Q1020 BECMG VIS 0600=
201512180305 METAR VIDP NIL=
201512180330 METAR VIDP 180330Z 25004KT 0400 R28/0700 R29/0500 FG NSC 10/08 Q1020 BECMG VIS 0600=
201512180400 METAR VIDP 180400Z 27004KT 0600 R28/1500 R29/0700 MIFG NSC 11/08 Q1020 BECMG VIS 0800=
201512180430 METAR VIDP 180430Z 25006KT 0600 R28/1800 R29/0800 MIFG NSC 12/08 Q1020 BECMG 0800=
201512180500 METAR VIDP 180500Z 27005KT 0700 R28/2000 R29/1050 FU NSC 13/08 Q1021 BECMG 0800=
201512180530 METAR VIDP 180530Z 27006KT 0800 R28/2000 R29/1200 FU NSC 14/08 Q1021 NOSIG=
201512180600 METAR VIDP 180600Z 30006KT 1000 R28/2000 R29/1300 FU NSC 16/08 Q1020 NOSIG=
201512180630 METAR VIDP 180630Z 29007KT 1200 R28/2000 R29/1400 FU NSC 17/07 Q1020 BECMG 1500=
201512180700 METAR VIDP 180700Z 30008KT 1400 R28/2000 R29/1500 FU NSC 18/07 Q1019 BECMG 1500=
201512180705 METAR VIDP NIL=
201512180730 METAR VIDP 180730Z 30008KT 1500 R28/2000 R29/1500 FU NSC 19/07 Q1019 NOSIG=
201512180800 METAR VIDP 180800Z 30009KT 1500 R28/2000 R29/1600 FU NSC 20/06 Q1019 NOSIG=
201512180805 METAR VIDP NIL=
201512180830 METAR VIDP 180830Z 31009KT 1500 R28/2000 R29/1500 FU NSC 21/06 Q1018 NOSIG=
201512180900 METAR VIDP 180900Z 31009KT 1800 R28/2000 R29/1800 FU NSC 21/06 Q1018 NOSIG=
201512180930 METAR VIDP 180930Z 32010KT 2000 FU NSC 21/05 Q1018 NOSIG=
201512181000 METAR VIDP 181000Z 31008KT 2000 FU NSC 21/05 Q1017 NOSIG=
201512181030 METAR VIDP 181030Z 30008KT 2000 FU NSC 21/05 Q1017 NOSIG=
201512181100 METAR VIDP 181100Z 31009KT 2000 FU NSC 20/05 Q1017 NOSIG=
201512181130 METAR VIDP 181130Z 30005KT 2000 FU NSC 19/06 Q1017 NOSIG=
201512181200 METAR VIDP 181200Z 30006KT 2000 FU NSC 18/06 Q1017 NOSIG=
201512181230 METAR VIDP 181230Z 27006KT 2000 FU NSC 17/06 Q1017 NOSIG=
201512181300 METAR VIDP 181300Z 27004KT 2000 FU NSC 16/06 Q1017 NOSIG=
201512181305 METAR VIDP NIL=
201512181330 METAR VIDP 181330Z 26005KT 1800 R28/P2000 R29/P2000 FU NSC 14/07 Q1018 NOSIG=
201512181400 METAR VIDP 181400Z 26004KT 1800 R28/P2000 R29/P2000 FU NSC 13/07 Q1018 NOSIG=
201512181430 METAR VIDP 181430Z 26004KT 1600 FU NSC 13/07 Q1018 NOSIG=
201512181500 METAR VIDP 181500Z 26004KT 1600 R28/29/P2000 FU NSC 13/07 Q1018 BECMG VIS 1500=
201512181530 METAR VIDP 181530Z 26003KT 1200 R28/29/P2000 FU NSC 12/07 Q1019 BECMG VIS 0800=
201512181600 METAR VIDP 181600Z 26003KT 0800 R28/29/P2000 FU NSC 12/07 Q1019 NOSIG=
201512181630 METAR VIDP 181630Z 25004KT 0800 R/28/P2000 R/29/P2000 MIFG NSC 11/07 Q1019 NOSIG=
201512181700 METAR VIDP 181700Z 23003KT 0800 R/28/P2000 R/29/P2000 MIFG NSC 11/07 Q1019 NOSIG=
201512181730 METAR VIDP 181730Z 00000KT 0700 R28/P2000 R29/P2000 MIFG NSC 10/06 Q1019 NOSIG=
201512181800 METAR VIDP 181800Z 00000KT 0700 R28/P2000 R29/P1900 MIFG NSC 10/06 Q1019 BECMG VIS 0600=
201512181830 METAR VIDP 181830Z 00000KT 0600 R28/P2000 R29/P1800 MIFG NSC 10/07 Q1019 NOSIG=
201512181900 METAR VIDP 181900Z 00000KT 0600 R28/P2000 R29/P1700 MIFG NSC 09/06 Q1019 NOSIG=
201512181930 METAR VIDP 181930Z 00000KT 0600 R28/P2000 R29/P1900 MIFG NSC 09/06 Q1018 NOSIG=
201512182000 METAR VIDP 182000Z 00000KT 0600 R28/P2000 R29/P2000 MIFG NSC 09/06 Q1018 NOSIG=
201512182030 METAR VIDP 182030Z 25003KT 0600 R28/P2000 R29/P1400 MIFG NSC 09/06 Q1018 NOSIG=
201512182100 METAR VIDP 182100Z 24004KT 0600 R28/P2000 R29/P1400 MIFG NSC 09/06 Q1018 NOSIG=
201512182130 METAR VIDP 182130Z 00000KT 0600 R28/P2000 R29/1400 MIFG NSC 09/06 Q1018 NOSIG=
201512182200 METAR VIDP 182200Z 00000KT 0500 R28/P2000 R29/1900 FG NSC 09/07 Q1018 NOSIG=
201512182205 METAR VIDP NIL=
201512182230 METAR VIDP 182230Z 23003KT 0500 R28/P2000 R29/1900 FG NSC 08/07 Q1018 NOSIG=
201512182300 METAR VIDP 182300Z 23004KT 0400 R28/2000 R29/1900 FG NSC 07/06 Q1018 BECMG VIS 0350=
201512182305 METAR VIDP NIL=
201512182330 METAR VIDP 182330Z 25003KT 0400 R28/2000 R29/1900 FG NSC 07/06 Q1018 BECMG 0350=
201512190000 METAR VIDP 190000Z 26003KT 0350 R28/2000 R29/1600 FG NSC 07/06 Q1018 NOSIG=
201512190030 METAR VIDP 190030Z 23004KT 0350 R28/P2000 R29/1900 FG NSC 07/06 Q1018 NOSIG=
201512190100 METAR VIDP 190100Z 25003KT 0350 R28/P2000 R29/1700 FG NSC 06/05 Q1019 NOSIG=
201512190130 METAR VIDP 190130Z 24004KT 0350 R28/P2000 R29/1100 FG NSC 07/05 Q1019 NOSIG=
201512190200 METAR VIDP 190200Z 25005KT 0400 R28/P2000 R29/1100 FG NSC 07/05 Q1019 NOSIG=
201512190230 METAR VIDP 190230Z 26003KT 0500 R28/P2000 R29/0900 FG NSC 07/05 Q1019 NOSIG=
201512190300 METAR VIDP 190300Z 24003KT 0600 R28/1200 R29/1200 FG NSC 09/06 Q1020 NOSIG=
201512190305 METAR VIDP NIL=
201512190330 METAR VIDP 190330Z 24004KT 0700 R28/1500 R29/1400 FG NSC 10/07 Q1020 BECMG VIS 0800=
201512190400 METAR VIDP 190400Z 23005KT 1000 R28/P2000 R29/1600 FU NSC 11/07 Q1020 NOSIG=
201512190405 METAR VIDP NIL=
201512190430 METAR VIDP 190430Z 24005KT 1300 R28/P2000 R29/P2000 FU NSC 13/07 Q1020 BECMG VIS 1500=
201512190500 METAR VIDP 190500Z 26005KT 1500 R28/P2000 R29/P2000 FU NSC 14/07 Q1020 NOSIG=
201512190530 METAR VIDP 190530Z 26005KT 1500 R28/29/P2000 FU NSC 16/07 Q1020 NOSIG=
201512190600 METAR VIDP 190600Z 26006KT 2100 FU NSC 17/06 Q1020 NOSIG=
201512190605 METAR VIDP NIL=
201512190630 METAR VIDP 190630Z 27006KT 2100 FU NSC 18/06 Q1020 NOSIG=
201512190700 METAR VIDP 190700Z 27007KT 2100 FU NSC 18/06 Q1020 NOSIG=
201512190730 METAR VIDP 190730Z 28007KT 2800 HZ NSC 19/04 Q1019 NOSIG=
201512190800 METAR VIDP 190800Z 29007KT 2500 FU NSC 20/03 Q1019 NOSIG=
201512190830 METAR VIDP 190830Z 29008KT 3500 HZ NSC 20/03 Q1018 NOSIG=
201512190900 METAR VIDP 190900Z 29008KT 3100 HZ NSC 20/04 Q1018 BECMG 3000=
201512190930 METAR VIDP 190930Z 28007KT 3000 HZ NSC 20/03 Q1017 NOSIG=
201512191000 METAR VIDP 191000Z 30007KT 3500 HZ NSC 20/02 Q1017 NOSIG=
201512191030 METAR VIDP 191030Z 29006KT 4000 HZ NSC 20/02 Q1017 NOSIG=
201512191100 METAR VIDP 191100Z 28006KT 4000 HZ NSC 20/03 Q1017 NOSIG=
201512191130 METAR VIDP 191130Z 29004KT 4000 HZ NSC 19/04 Q1017 NOSIG=
201512191200 METAR VIDP 191200Z 00000KT 3500 HZ NSC 18/04 Q1018 NOSIG=
201512191230 METAR VIDP 191230Z 00000KT 3000 HZ NSC 16/04 Q1018 NOSIG=
201512191300 METAR VIDP 191300Z 00000KT 2100 FU NSC 15/04 Q1018 BECMG 1500=
201512191330 METAR VIDP 191330Z 00000KT 1800 R28/P2000 R29/P2000 FU NSC 15/05 Q1018 BECMG 1500=
201512191400 METAR VIDP 191400Z 00000KT 1800 R28/P2000 R29/P2000 FU NSC 14/05 Q1018 BECMG 1500=
201512191430 METAR VIDP 191430Z 00000KT 1200 R28/P2000 R29/P2000 FU NSC 12/06 Q1019 NOSIG=
201512191500 METAR VIDP 191500Z 00000KT 1000 R28/P2000 R29/P2000 FU NSC 12/06 Q1019 BECMG 0800=
201512191530 METAR VIDP 191530Z 00000KT 0800 R28/P2000 R29/P2000 FU NSC 11/06 Q1019 NOSIG=
201512191600 METAR VIDP 191600Z 00000KT 0800 R28/P2000 R29/P2000 FU NSC 11/06 Q1019 NOSIG=
201512191630 METAR VIDP 191630Z 00000KT 0800 R28/P2000 R29/P2000 FU NSC 10/05 Q1019 NOSIG=
201512191700 METAR VIDP 191700Z 00000KT 0800 R28/P2000 R29/P2000 MIFG NSC 10/06 Q1019 NOSIG=
201512191730 METAR VIDP 191730Z 00000KT 0800 R28/P2000 R29/P2000 MIFG NSC 10/06 Q1019 NOSIG=
201512191800 METAR VIDP 191800Z 00000KT 0800 R28/P2000 R29/P2000 MIFG NSC 09/05 Q1019 NOSIG=
201512191830 METAR VIDP 191830Z 00000KT 0800 R28/P2000 R29/P2000 MIFG NSC 09/05 Q1019 NOSIG=
201512191900 METAR VIDP 191900Z 00000KT 0800 R28/P2000 R29/P2000 MIFG NSC 09/05 Q1019 NOSIG=
201512191930 METAR VIDP 191930Z 00000KT 0800 R28/P2000 R29/P2000 MIFG NSC 08/05 Q1019 NOSIG=
201512192000 METAR VIDP 192000Z 00000KT 0800 R28/P2000 R29/P2000 MIFG NSC 08/05 Q1019 NOSIG=
201512192005 METAR VIDP NIL=
201512192030 METAR VIDP 192030Z 00000KT 0700 R/28/29/P2000 MIFG NSC 07/06 Q1019 NOSIG=
201512192100 METAR VIDP 192100Z 00000KT 0700 R/28/29/P2000 MIFG NSC 07/06 Q1018 BECMG 0600=
201512192105 METAR VIDP NIL=
201512192130 METAR VIDP 192130Z 00000KT 0600 R/28/29/P2000 MIFG NSC 07/06 Q1018 NOSIG=
201512192200 METAR VIDP 192200Z 00000KT 0600 R/28/29/P2000 MIFG NSC 07/06 Q1018 NOSIG=
201512192230 METAR VIDP 192230Z 00000KT 0600 R28/P2000 R29/1900 MIFG NSC 06/05 Q1018 NOSIG=
201512192300 METAR VIDP 192300Z 00000KT 0500 R28/P2000 R29/1800 MIFG NSC 06/04 Q1018 BECMG 0350=
201512192330 METAR VIDP 192330Z 00000KT 0300 R28/P2000 R29/1700 FG NSC 06/04 Q1017 NOSIG=
201512200000 METAR VIDP 200000Z 00000KT 0300 R28/P2000 R29/1800 FG NSC 06/05 Q1017 NOSIG=
201512200030 METAR VIDP 200030Z 00000KT 0300 R28/P2000 R29/1500 FG NSC 06/05 Q1017 NOSIG=
201512200100 METAR VIDP 200100Z 00000KT 0300 R28/P2000 R29/1300 FG NSC 06/05 Q1018 NOSIG=
201512200130 METAR VIDP 200130Z 00000KT 0200 R28/P2000 R29/1400 FG FEW100 06/04 Q1018 NOSIG=
201512200200 METAR VIDP 200200Z 00000KT 0300 R28/P2000 R29/1100 FG FEW100 07/05 Q1019 NOSIG=
201512200230 METAR COR VIDP 200230Z 00000KT 0300 R28/P2000 R29/0900 FG FEW100 07/05 Q1020 BECMG 0350=
201512200300 METAR VIDP 200300Z 00000KT 0500 R28/P2000 R29/1000 FG SCT100 07/06 Q1020 NOSIG=
201512200330 METAR VIDP 200330Z 00000KT 0500 R28/P2000 R29/1000 MIFG SCT100 10/07 Q1020 BECMG 0600=
201512200400 METAR VIDP 200400Z 00000KT 0800 R28/1500 R29/1100 FU SCT100 13/07 Q1020 NOSIG=
201512200405 METAR VIDP NIL=
201512200430 METAR VIDP 200430Z 00000KT 0800 R28/1500 R29/1200 FU SCT100 15/06 Q1020 NOSIG=
201512200500 METAR VIDP 200500Z 00000KT 1000 R/28/1500 R/29/1200 FU SCT100 16/06 Q1020 NOSIG=
201512200530 METAR VIDP 200530Z 30003KT 1200 R28/P2000 R29/1500 FU SCT100 17/06 Q1020 NOSIG=
201512200600 METAR VIDP 200600Z 32003KT 1500 R28/P2000 R29/1700 FU FEW100 18/05 Q1020 NOSIG=
201512200605 METAR VIDP NIL=
201512200630 METAR VIDP 200630Z 28003KT 2100 FU FEW100 19/05 Q1020 NOSIG=
201512200700 METAR VIDP 200700Z 28005KT 2200 HZ FEW100 19/05 Q1019 NOSIG=
201512200730 METAR VIDP 200730Z 27005KT 2400 HZ NSC 20/04 Q1018 NOSIG=
201512200800 METAR VIDP 200800Z 27006KT 2800 HZ NSC 20/04 Q1018 NOSIG=
201512200830 METAR VIDP 200830Z 28006KT 2800 HZ NSC 20/04 Q1017 NOSIG=
201512200900 METAR VIDP 200900Z 28008KT 2800 HZ NSC 20/03 Q1017 NOSIG=
201512200930 METAR VIDP 200930Z 29008KT 2800 HZ NSC 20/03 Q1017 NOSIG=
201512201000 METAR VIDP 201000Z 28008KT 2500 HZ NSC 20/04 Q1016 NOSIG=
201512201030 METAR VIDP 201030Z 28008KT 2200 HZ NSC 20/04 Q1016 NOSIG=
201512201100 METAR VIDP 201100Z 28007KT 2000 HZ NSC 19/04 Q1016 NOSIG=
201512201130 METAR VIDP 201130Z 28006KT 2000 HZ NSC 18/05 Q1017 NOSIG=
201512201200 METAR VIDP 201200Z 28003KT 1800 R28/29/P2000 FU NSC 18/04 Q1017 NOSIG=
201512201230 METAR VIDP 201230Z 00000KT 1800 R28/29/P2000 FU NSC 17/04 Q1017 NOSIG=
201512201300 METAR VIDP 201300Z 00000KT 1800 R28/P2000 R29/P2000 FU NSC 16/04 Q1017 NOSIG=
201512201330 METAR VIDP 201330Z 00000KT 1700 R28/P2000 R29/P2000 FU NSC 15/05 Q1017 NOSIG=
201512201400 METAR VIDP 201400Z 00000KT 1800 R28/P2000 R29/P2000 FU NSC 14/05 Q1017 NOSIG=
201512201430 METAR VIDP 201430Z 00000KT 1600 R28/P2000 R29/1800 FU NSC 14/05 Q1018 BECMG 1500=
201512201500 METAR VIDP 201500Z 00000KT 1300 R28/P2000 R29/1800 FU NSC 14/05 Q1018 NOSIG=
201512201530 METAR VIDP 201530Z 27003KT 1000 R28/P2000 R29/P2000 FU NSC 12/05 Q1018 BECMG 0800=
201512201600 METAR VIDP 201600Z 27003KT 1000 R28/P2000 R29/P2000 FU NSC 12/05 Q1018 BECMG 0800=
201512201630 METAR VIDP 201630Z 00000KT 1000 R28/P2000 R29/P2000 FU NSC 12/05 Q1018 NOSIG=
201512201700 METAR VIDP 201700Z 00000KT 1000 R28/P2000 R29/P2000 FU NSC 11/05 Q1018 NOSIG=
201512201730 METAR VIDP 201730Z 00000KT 1000 R28/P2000 R29/P2000 FU NSC 11/05 Q1018 NOSIG=
201512201800 METAR VIDP 201800Z 00000KT 1000 R28/P2000 R29/P2000 FU NSC 10/05 Q1018 NOSIG=
201512201830 METAR VIDP 201830Z 00000KT 1000 R28/P2000 R29/P2000 FU NSC 10/05 Q1018 NOSIG=
201512201900 METAR VIDP 201900Z 00000KT 1000 R28/P2000 R29/P2000 FU NSC 09/04 Q1017 NOSIG=
201512201930 METAR VIDP 201930Z 00000KT 1000 R28/P2000 R29/P2000 BR NSC 09/05 Q1017 BECMG 0800=
201512202000 METAR VIDP 202000Z 00000KT 0800 R28/P2000 R29/P2000 MIFG NSC 08/05 Q1017 NOSIG=
201512202030 METAR VIDP 202030Z 00000KT 0800 R28/P2000 R29/P2000 MIFG NSC 08/05 Q1017 NOSIG=
201512202100 METAR VIDP 202100Z 00000KT 0700 R28/P2000 R29/P2000 MIFG NSC 08/05 Q1017 BECMG 0600=
201512202130 METAR VIDP 202130Z 00000KT 0600 R28/P2000 R29/P2000 MIFG NSC 08/05 Q1017 NOSIG=
201512202200 METAR VIDP 202200Z 00000KT 0600 R28/P2000 R29/P2000 MIFG NSC 08/05 Q1017 NOSIG=
201512202205 METAR VIDP NIL=
201512202230 METAR VIDP 202230Z 00000KT 0600 R28/P2000 R29/P2000 MIFG NSC 08/05 Q1017 NOSIG=
201512202300 METAR VIDP 202300Z 00000KT 0600 R28/P2000 R29/P2000 MIFG NSC 08/05 Q1016 NOSIG=
201512202330 METAR VIDP 202330Z 00000KT 0500 R28/P2000 R29/1700 FG NSC 08/05 Q1016 NOSIG=
201512210000 METAR VIDP 210000Z 24003KT 0500 R28/P2000 R29/1600 FG NSC 08/05 Q1017 NOSIG=
201512210030 METAR VIDP 210030Z 00000KT 0500 R28/P2000 R29/1300 FG NSC Q1017 BECMG 0350=
201512210100 METAR VIDP 210100Z 00000KT 0400 R28/P2000 R29/1300 FG NSC Q1017 BECMG 0350=
201512210130 METAR COR VIDP 210130Z 00000KT 0400 R28/P2000 R29/1500 FG NSC 07/05 Q1018 BECMG 0350=
201512210200 METAR VIDP 210200Z 00000KT 0400 R28/1600 R29/0900 FG NSC 08/05 Q1018 BECMG 0350=
201512210205 METAR VIDP NIL=
201512210230 METAR VIDP 210230Z 26003KT 0400 R28/1700 R29/0800 FG NSC 08/05 Q1018 NOSIG=
201512210300 METAR VIDP 210300Z 27004KT 0500 R28/1500 R29/1000 FG NSC 10/07 Q1019 NOSIG=
201512210330 METAR VIDP 210330Z 27004KT 0500 R28/1500 R29/1000 FG NSC 10/07 Q1019 NOSIG=
201512210400 METAR VIDP 210400Z 26004KT 0500 R28/1700 R29/1000 FG NSC 11/07 Q1020 BECMG 0600=
201512210430 METAR VIDP 210430Z 29004KT 0600 R28/1800 R29/1200 FG NSC 12/07 Q1020 BECMG 0600=
201512210500 METAR VIDP 210500Z 30004KT 0800 R28/2000 R29/2000 FG NSC 14/07 Q1020 NOSIG=
201512210530 METAR VIDP 210530Z 29004KT 1000 R28/2000 R29/2000 FG NSC 16/07 Q1020 NOSIG=
201512210600 METAR VIDP 210600Z 29004KT 1100 R28/2000 R29/2000 FG NSC 17/07 Q1019 NOSIG=
201512210605 METAR VIDP NIL=
201512210630 METAR VIDP 210630Z 30004KT 1200 R28/2000 R29/2000 FG NSC 18/07 Q1019 NOSIG=
201512210700 METAR VIDP 210700Z 32004KT 1200 R28/1600 R29/2000 FU NSC 19/07 Q1019 NOSIG=
201512210705 METAR VIDP NIL=
201512210730 METAR VIDP 210730Z 32004KT 1300 R28/1600 R29/2000 FU NSC 19/07 Q1018 BECMG VIS 1500=
201512210800 METAR VIDP 210800Z 30004KT 1500 R28/29/2000 HZ NSC 20/07 Q1017 NOSIG=
201512210830 METAR VIDP 210830Z 31004KT 1500 R28/29/2000 HZ NSC 20/07 Q1017 NOSIG=
201512210900 METAR VIDP 210900Z 30005KT 1800 R28/29/2000 HZ NSC 20/06 Q1017 NOSIG=
201512210905 METAR VIDP NIL=
201512210930 METAR VIDP 210930Z 30005KT 1800 R28/29/2000 HZ NSC 20/05 Q1017 NOSIG=
201512211000 METAR VIDP 211000Z 35005KT 1800 R28/29/2000 HZ NSC 19/04 Q1017 NOSIG=
201512211030 METAR VIDP 211030Z 36003KT 1800 R28/29/2000 HZ NSC 19/04 Q1017 NOSIG=
201512211100 METAR VIDP 211100Z 34003KT 1800 R28/29/2000 FU NSC 19/04 Q1017 NOSIG=
201512211105 METAR VIDP NIL=
201512211130 METAR VIDP 211130Z 34003KT 2100 R28/29/2000 FU NSC 18/04 Q1017 NOSIG=
201512211200 METAR VIDP 211200Z 33004KT 2200 R28/29/2000 FU NSC 17/04 Q1017 NOSIG=
201512211230 METAR VIDP 211230Z 11003KT 2100 R28/29/P2000 HZ NSC 16/05 Q1017 NOSIG=
201512211300 METAR VIDP 211300Z 00000KT 2000 R28/29/P2000 FU NSC 16/06 Q1018 NOSIG=
201512211330 METAR VIDP 211330Z 00000KT 1800 R28/29/P2000 FU NSC 15/06 Q1018 BECMG 1500=
201512211400 METAR VIDP 211400Z 00000KT 1600 R28/29/P2000 FU NSC 15/06 Q1018 BECMG 1500=
201512211430 METAR VIDP 211430Z 04003KT 1000 R28/29/P2000 FU NSC 12/06 Q1018 NOSIG=
201512211500 METAR VIDP 211500Z 04003KT 1000 R28/P2000 R29/P2000 FU NSC 12/06 Q1019 NOSIG=
201512211530 METAR VIDP 211530Z 04003KT 1000 R28/P2000 R29/P2000 FU NSC 12/06 Q1019 BECMG 0800=
201512211600 METAR VIDP 211600Z 00000KT 1000 R28/P2000 R29/P2000 FU NSC 12/06 Q1019 BECMG 0800=
201512211605 METAR VIDP NIL=
201512211630 METAR VIDP 211630Z 00000KT 1000 R28/P2000 R29/P2000 FU NSC 12/07 Q1019 BECMG 0800=
201512211700 METAR VIDP 211700Z 00000KT 0800 R28/P2000 R29/1800 MIFG NSC 11/07 Q1019 NOSIG=
201512211705 METAR VIDP NIL=
201512211730 METAR VIDP 211730Z 00000KT 0800 R28/P2000 R29/P2000 MIFG NSC 11/07 Q1019 NOSIG=
201512211800 METAR VIDP 211800Z 00000KT 0700 R28/P2000 R29/P2000 MIFG NSC 11/07 Q1019 NOSIG=
201512211830 METAR COR VIDP 211830Z 00000KT 0700 R28/P2000 R29/P2000 MIFG NSC 11/07 Q1019 NOSIG=
201512211900 METAR VIDP 211900Z 00000KT 0600 R28/P2000 R29/1900 MIFG NSC 10/07 Q1019 NOSIG=
201512211930 METAR VIDP 211930Z 00000KT 0600 R28/P2000 R29/1800 MIFG NSC 10/07 Q1019 NOSIG=
201512212000 METAR VIDP 212000Z 00000KT 0600 R28/P2000 R29/1800 MIFG NSC 09/07 Q1019 NOSIG=
201512212030 METAR VIDP 212030Z 00000KT 0600 R28/P2000 R29/1700 MIFG NSC 09/07 Q1019 NOSIG=
201512212100 METAR VIDP 212100Z 00000KT 0500 R28/P2000 R29/1700 MIFG NSC 09/07 Q1019 NOSIG=
201512212130 METAR VIDP 212130Z 00000KT 0500 R28/P2000 R29/1700 MIFG NSC 08/06 Q1019 NOSIG=
201512212200 METAR VIDP 212200Z 00000KT 0400 R28/P2000 R29/1700 FG NSC 08/06 Q1019 NOSIG=
201512212230 METAR VIDP 212230Z 00000KT 0400 R28/P2000 R29/1700 FG NSC 08/06 Q1019 NOSIG=
201512212300 METAR VIDP 212300Z 00000KT 0400 R28/P2000 R29/1700 FG NSC 07/05 Q1019 BECMG 0350=
201512212330 METAR VIDP 212330Z 00000KT 0300 R28/P2000 R29/1700 FG NSC 07/06 Q1019 NOSIG=
201512220000 METAR VIDP 220000Z 00000KT 0300 R28/P2000 R29/1400 FG NSC 07/06 Q1019 NOSIG=
201512220030 METAR VIDP 220030Z 00000KT 0300 R28/P2000 R29/1400 FG NSC 07/06 Q1019 NOSIG=
201512220100 METAR VIDP 220100Z 00000KT 0200 R28/P2000 R29/1400 FG NSC 07/06 Q1019 BECMG 0150=
201512220130 METAR VIDP 220130Z 00000KT 0200 R28/P2000 R29/1200 FG NSC 06/05 Q1020 BECMG 0150=
201512220200 METAR VIDP 220200Z 00000KT 0200 R28/P2000 R29/0900 FG NSC 06/05 Q1020 BECMG 0150=
201512220230 METAR VIDP 220230Z 00000KT 0300 R28/1500 R29/1000 FG FEW100 08/06 Q1020 BECMG 0350=
201512220300 METAR VIDP 220300Z 00000KT 0600 R28/1500 R29/1000 MIFG FEW100 09/07 Q1021 BECMG 0800=
201512220330 METAR VIDP 220330Z 00000KT 0800 R28/1600 R29/1000 MIFG FEW100 11/07 Q1021 NOSIG=
201512220400 METAR VIDP 220400Z 11003KT 0800 R28/P2000 R29/1100 FU FEW100 13/08 Q1022 NOSIG=
201512220430 METAR VIDP 220430Z 10003KT 0800 R28/P2000 R29/1100 FU FEW100 14/08 Q1022 NOSIG=
201512220500 METAR VIDP 220500Z 10003KT 0800 R28/P2000 R29/1300 FU FEW100 15/08 Q1022 NOSIG=
201512220530 METAR VIDP 220530Z 12003KT 1000 R28/P2000 R29/1300 FU FEW100 17/07 Q1022 NOSIG=
201512220600 METAR VIDP 220600Z 11003KT 1200 R28/P2000 R29/P2000 FU FEW100 18/07 Q1022 BECMG 1500=
201512220605 METAR VIDP NIL=
201512220630 METAR VIDP 220630Z 13004KT 1400 R28/P2000 R29/P2000 FU FEW100 19/06 Q1021 BECMG 1500=
201512220700 METAR VIDP 220700Z 12003KT 1500 R28/P2000 R29/P2000 FU FEW100 19/06 Q1021 NOSIG=
201512220730 METAR VIDP 220730Z 12005KT 1500 R28/P2000 R29/P2000 FU SCT100 20/06 Q1020 NOSIG=
201512220800 METAR VIDP 220800Z 19003KT 1500 R28/P2000 R29/P2000 FU SCT100 20/06 Q1020 NOSIG=
201512220805 METAR VIDP NIL=
201512220830 METAR VIDP 220830Z 15003KT 1500 R28/P2000 R29/P2000 FU SCT100 20/06 Q1020 NOSIG=
201512220900 METAR VIDP 220900Z 16004KT 1200 R28/P2000 R29/P2000 FU SCT100 20/06 Q1019 NOSIG=
201512220930 METAR VIDP 220930Z 20004KT 1200 R28/P2000 R29/P2000 FU SCT100 20/06 Q1019 NOSIG=
201512221000 METAR VIDP 221000Z 15005KT 1200 R28/P2000 R29/P2000 FU SCT100 19/04 Q1019 BECMG 1500=
201512221030 METAR VIDP 221030Z 14004KT 1500 R28/P2000 R29/P2000 FU SCT100 19/05 Q1019 NOSIG=
201512221100 METAR VIDP 221100Z 18003KT 1500 R28/P2000 R29/P2000 FU SCT100 19/05 Q1019 NOSIG=
201512221105 METAR VIDP NIL=
201512221130 METAR VIDP 221130Z 00000KT 1200 R28/P2000 R29/P2000 FU SCT100 17/05 Q1019 NOSIG=
201512221200 METAR VIDP 221200Z 00000KT 1200 R28/P2000 R29/P2000 FU SCT100 16/06 Q1019 NOSIG=
201512221205 METAR VIDP NIL=
201512221230 METAR VIDP 221230Z 00000KT 1000 R/28/P2000 R29/P2000 FU SCT100 14/06 Q1020 NOSIG=
201512221300 METAR VIDP 221300Z 00000KT 0900 R/28/P2000 R29/P2000 FU SCT100 14/06 Q1020 BECMG VIS 0800=
201512221330 METAR VIDP NIL=
201512221405 METAR VIDP NIL=
201512221430 METAR VIDP 221430Z 00000KT 0600 R/28/P2000 R29/P2000 FU SCT100 12/06 Q1020 NOSIG=
201512221500 METAR VIDP 221500Z 00000KT 0600 R28/P2000 R29/1700 FU FEW100 13/08 Q1021 NOSIG=
201512221505 METAR VIDP NIL=
201512221530 METAR VIDP 221530Z 00000KT 0600 R/28/P2000 R29/1800 FU SCT100 13/08 Q1021 NOSIG=
201512221600 METAR VIDP 221600Z 00000KT 0600 R28/P2000 R29/1700 BR NSC 13/09 Q1021 NOSIG=
201512221630 METAR VIDP 221630Z 00000KT 0400 R28/P2000 R29/1600 FG NSC 13/08 Q1021 NOSIG=
201512221700 METAR VIDP 221700Z 00000KT 0400 R28/P2000 R29/1400 FG NSC 13/08 Q1021 NOSIG=
201512221705 METAR VIDP NIL=
201512221730 METAR VIDP 221730Z 00000KT 0400 R28/P2000 R29/1500 FG NSC 10/08 Q1021 NOSIG=
201512221800 METAR VIDP 221800Z 00000KT 0400 R28/P2000 R29/1400 FG NSC 09/07 Q1021 NOSIG=
201512221830 METAR VIDP 221830Z 00000KT 0400 R28/P2000 R29/1400 FG NSC 09/07 Q1021 NOSIG=
201512221900 METAR VIDP 221900Z 00000KT 0400 R28/P2000 R29/1500 FG NSC 09/07 Q1021 NOSIG=
201512221905 METAR VIDP NIL=
201512221930 METAR VIDP 221930Z 00000KT 0400 R28/P2000 R29/1400 FG NSC 09/07 Q1021 NOSIG=
201512222000 METAR VIDP 222000Z 00000KT 0400 R28/P2000 R29/1200 FG NSC 09/07 Q1021 NOSIG=
201512222030 METAR VIDP 222030Z 00000KT 0400 R28/P2000 R29/1200 FG NSC 09/07 Q1021 NOSIG=
201512222100 METAR VIDP 222100Z 00000KT 0400 R28/P2000 R29/0800 FG NSC 09/07 Q1020 NOSIG=
201512222130 METAR VIDP 222130Z 25004KT 0400 R28/1600 R29/0800 FG NSC 09/07 Q1020 NOSIG=
201512222200 METAR VIDP 222200Z 22003KT 0300 R28/1600 R29/0700 FG NSC 09/08 Q1020 NOSIG=
201512222205 METAR VIDP NIL=
201512222230 METAR VIDP 222230Z 000000KT 0200 R28/1500 R29/1100 FG NSC 09/08 Q1020 NOSIG=
201512222300 METAR VIDP 222300Z 000000KT 0200 R28/1400 R29/0800 FG NSC 09/08 Q1020 NOSIG=
201512222305 METAR VIDP NIL=
201512222330 METAR VIDP 222330Z 000000KT 0200 R28/1000 R29/0500 FG NSC 09/07 Q1020 BECMG 0150=
201512230000 METAR VIDP 230000Z 00000KT 0100 R28/0800 R29/0500 FG NSC 09/07 Q1020 NOSIG=
201512230005 METAR VIDP NIL=
201512230030 METAR VIDP 230030Z 24003KT 0100 R28/0700 R29/0500 FG NSC 08/07 Q1020 NOSIG=
201512230100 METAR VIDP 230100Z 24003KT 0100 R28/1000 R29/0500 FG NSC 08/07 Q1020 NOSIG=
201512230105 METAR VIDP NIL=
201512230130 METAR VIDP 230130Z 24002KT 0100 R28/1100 R29/0500 FG NSC 09/08 Q1020 NOSIG=
201512230200 METAR VIDP 230200Z 00000KT 0100 R28/0700 R29/0500 FG NSC 08/07 Q1020 NOSIG=
201512230230 METAR VIDP 230230Z 00000KT 0100 R28/0700 R29/0500 FG NSC 08/07 Q1020 NOSIG=
201512230300 METAR VIDP 230300Z 27004KT 0250 R28/0650 R29/0700 FG NSC 09/08 Q1021 BECMG VIS 0350=
201512230305 METAR VIDP NIL=
201512230330 METAR VIDP 230330Z 25004KT 0300 R28/0650 R29/0650 FG NSC 10/08 Q1021 BECMG VIS 0350=
201512230400 METAR VIDP 230400Z 26004KT 0350 R28/0800 R29/0650 FG NSC 11/09 Q1022 NOSIG=
201512230405 METAR VIDP NIL=
201512230430 METAR VIDP 230430Z 27004KT 0400 R28/0800 R29/0700 FG NSC 12/09 Q1022 NOSIG=
201512230500 METAR VIDP 230500Z 25004KT 0400 R28/1100 R29/0800 FG NSC 13/09 Q1022 NOSIG=
201512230530 METAR VIDP 230530Z 27005KT 0600 R28/1300 R29/1100 FG NSC 14/07 Q1022 BECMG VIS 0800=
201512230600 METAR VIDP 230600Z 27005KT 0600 R28/1300 R29/1100 FG NSC 14/07 Q1022 BECMG VIS 0800=
201512230605 METAR VIDP NIL=
201512230630 METAR VIDP 230630Z 25004KT 0800 R28/1400 R29/1100 FU NSC 15/08 Q1021 NOSIG=
201512230700 METAR VIDP 230700Z 27005KT 0900 R28/1400 R29/1200 FU NSC 16/08 Q1021 NOSIG=
201512230705 METAR VIDP NIL=
201512230730 METAR VIDP 230730Z 32005KT 1000 R28/1300 R29/1200 FU NSC 17/08 Q1020 NOSIG=
201512230800 METAR VIDP 230800Z 29004KT 1000 R28/1300 R29/1200 FU NSC 17/09 Q1020 NOSIG=
201512230830 METAR VIDP 230830Z 31005KT 1000 R28/1200 R29/1200 FU NSC 18/08 Q1020 NOSIG=
201512230900 METAR VIDP 230900Z 30005KT 0900 R28/1100 R29/1100 FU NSC 18/08 Q1020 NOSIG=
201512230930 METAR VIDP 230930Z 32006KT 1000 R28/1100 R29/1200 FU NSC 18/08 Q1019 NOSIG=
201512231000 METAR VIDP 231000Z 31006KT 1000 R28/1200 R29/1200 FU NSC 18/08 Q1019 NOSIG=
201512231030 METAR VIDP 231030Z 31006KT 1400 R28/1500 R29/1400 FU NSC 18/08 Q1019 TEMPO 1500=
201512231100 METAR VIDP 231100Z 31006KT 1400 R28/1500 R29/1500 FU FEW100 17/08 Q1019 TEMPO 1500=
201512231105 METAR VIDP NIL=
201512231130 METAR VIDP 231130Z 30004KT 1200 R28/1400 R29/1500 FU FEW100 16/09 Q1019 NOSIG=
201512231200 METAR VIDP 231200Z 29005KT 1000 R28/1500 R29/1500 FU FEW100 16/09 Q1019 TEMPO 0800=
201512231230 METAR VIDP 231230Z 29004KT 0800 R28/29/P2000 FU FEW100 15/10 Q1019 BECMG 0600=
201512231300 METAR VIDP 231300Z 29003KT 0600 R28/29/P2000 MIFG FEW100 14/10 Q1019 NOSIG=
201512231330 METAR VIDP 231330Z 29003KT 0600 R28/29/P2000 MIFG FEW100 14/10 Q1019 NOSIG=
201512231400 METAR VIDP 231400Z 27003KT 0600 R28/29/P2000 MIFG FEW100 13/10 Q1019 NOSIG=
201512231430 METAR VIDP 231430Z 25003KT 0500 R28/P2000 R29/1800 MIFG FEW100 13/10 Q1020 NOSIG=
201512231500 METAR VIDP 231500Z 27003KT 0500 R28/P2000 R29/1500 MIFG FEW100 12/10 Q1020 NOSIG=
201512231530 METAR VIDP 231530Z 26003KT 0400 R28/P2000 R29/1800 FG FEW100 12/10 Q1020 NOSIG=
201512231600 METAR VIDP 231600Z 27003KT 0400 R28/P2000 R29/1600 FG FEW100 12/10 Q1020 BECMG 0350=
201512231630 METAR VIDP 231630Z 27004KT 0300 R28/1900 R29/1600 FG FEW100 11/10 Q1020 NOSIG=
201512231700 METAR VIDP 231700Z 27003KT 0300 R28/1900 R29/1600 FG FEW100 11/10 Q1020 NOSIG=
201512231730 METAR VIDP 231730Z 31005KT 0300 R28/P2000 R29/1300 FG FEW100 11/10 Q1020 NOSIG=
201512231800 METAR VIDP 231800Z 31004KT 0300 R28/P2000 R29/1600 FG FEW100 11/10 Q1021 NOSIG=
201512231830 METAR VIDP 231830Z 33006KT 0300 R28/P2000 R29/P2000 FG FEW100 12/08 Q1020 BECMG 0350=
201512231900 METAR VIDP 231900Z 32006KT 0700 R28/P2000 R29/P2000 MIFG FEW100 12/08 Q1020 BECMG 0800=
201512231930 METAR VIDP 231930Z 33005KT 0800 R28/P2000 R29/P2000 MIFG FEW100 11/08 Q1020 NOSIG=
201512232000 METAR VIDP 232000Z 31005KT 0800 R28/P2000 R29/P2000 MIFG FEW100 11/08 Q1020 NOSIG=
201512232030 METAR VIDP 232030Z 30004KT 0700 R28/P2000 R29/1800 MIFG FEW100 10/08 Q1020 BECMG 0600=
201512232100 METAR VIDP 232100Z 29003KT 0600 R28/P2000 R29/P2000 MIFG FEW100 09/07 Q1019 NOSIG=
201512232130 METAR VIDP 232130Z 25003KT 0500 R28/P2000 R29/1800 MIFG FEW100 09/07 Q1019 NOSIG=
201512232200 METAR VIDP 232200Z 00000KT 0400 R28/2000 R29/1500 FG FEW100 08/07 Q1019 NOSIG=
201512232205 METAR VIDP NIL=
201512232230 METAR VIDP 232230Z 25003KT 0400 R28/2000 R29/1500 FG FEW100 08/07 Q1019 NOSIG=
201512232300 METAR VIDP 232300Z 26004KT 0400 R28/2000 R29/1300 FG FEW100 08/07 Q1019 NOSIG=
201512232330 METAR VIDP 232330Z 26004KT 0250 R28/2000 R29/0950 FG FEW100 08/07 Q1019 NOSIG=
201512240000 METAR VIDP 240000Z 25004KT 0200 R28/1100 R29/0800 FG FEW100 07/07 Q1019 NOSIG=
201512240005 METAR VIDP NIL=
201512240030 METAR VIDP 240030Z 24004KT 0200 R28/0900 R29/0800 FG FEW100 07/07 Q1020 NOSIG=
201512240100 METAR VIDP 240100Z 25004KT 0200 R28/0900 R29/0850 FG FEW100 07/07 Q1020 NOSIG=
201512240105 METAR VIDP NIL=
201512240130 METAR VIDP 240130Z 24004KT 0200 R28/0700 R29/0600 FG FEW100 06/06 Q1021 BECMG 0150=
201512240200 METAR VIDP 240200Z 24005KT 0150 R28/0700 R29/0600 FG FEW100 06/06 Q1021 NOSIG=
201512240230 METAR VIDP 240230Z 25005KT 0200 R28/0800 R29/0600 FG FEW100 07/06 Q1021 NOSIG=
201512240300 METAR VIDP 240300Z 25005KT 0200 R28/0700 R29/0600 FG FEW100 07/06 Q1021 NOSIG=
201512240305 METAR VIDP NIL=
201512240330 METAR VIDP 240330Z 26005KT 0300 R28/0900 R29/0900 FG NSC 09/07 Q1022 BECMG 0350=
201512240400 METAR VIDP 240400Z 27006KT 0400 R28/1200 R29/1000 FG FEW100 09/07 Q1022 BECMG 0600=
201512240405 METAR VIDP NIL=
201512240430 METAR VIDP 240430Z 27006KT 0600 R28/1400 R29/1200 MIFG FEW100 10/07 Q1022 BECMG 0800=
201512240500 METAR VIDP 240500Z 26007KT 0800 R28/1300 R29/1200 MIFG FEW100 11/07 Q1022 NOSIG=
201512240530 METAR VIDP 240530Z 27006KT 0900 R28/1300 R29/1300 MIFG FEW100 11/07 Q1022 NOSIG=
201512240600 METAR VIDP 240600Z 28007KT 0900 R28/1400 R29/1400 FU FEW100 14/07 Q1022 NOSIG=
201512240630 METAR VIDP 240630Z 27007KT 1000 R28/1000 R29/1600 FU FEW100 15/07 Q1022 NOSIG=
201512240700 METAR COR VIDP 240700Z 29009KT 1000 R28/1000 R29/P2000 FU NSC 16/06 Q1021 BECMG 1500=
201512240705 METAR VIDP NIL=
201512240730 METAR VIDP 240730Z 29010KT 1500 R28/1600 R29/P2000 FU NSC 17/05 Q1021 NOSIG=
201512240800 METAR VIDP 240800Z 29011KT 2100 FU NSC 18/05 Q1021 NOSIG=
201512240805 METAR VIDP NIL=
201512240830 METAR VIDP 240830Z 29009KT 2300 FU NSC 18/05 Q1021 NOSIG=
201512240900 METAR VIDP 240900Z 28011KT 2800 HZ NSC 18/03 Q1020 BECMG VIS 3000=
201512240905 METAR VIDP NIL=
201512240930 METAR VIDP 240930Z 30011KT 3500 HZ NSC 18/01 Q1020 NOSIG=
201512241000 METAR VIDP 241000Z 31011KT 3500 HZ NSC 19/01 Q1020 NOSIG=
201512241005 METAR VIDP NIL=
201512241030 METAR VIDP 241030Z 31011KT 3500 HZ NSC 18/01 Q1020 NOSIG=
201512241100 METAR VIDP 241100Z 32010KT 3500 HZ NSC 18/01 Q1020 NOSIG=
201512241130 METAR VIDP 241130Z 32010KT 3500 HZ NSC 18/01 Q1020 NOSIG=
201512241200 METAR VIDP 241200Z 28006KT 3200 HZ NSC 16/02 Q1020 NOSIG=
201512241205 METAR VIDP NIL=
201512241230 METAR VIDP 241230Z 28006KT 3200 HZ NSC 15/02 Q1020 NOSIG=
201512241300 METAR VIDP 241300Z 29006KT 3200 HZ NSC 14/02 Q1020 BECMG VIS 3000=
201512241330 METAR VIDP 241330Z 27005KT 2800 HZ NSC 14/02 Q1020 NOSIG=
201512241400 METAR VIDP 241400Z VRB02KT 2500 FU NSC 12/02 Q1021 NOSIG=
201512241430 METAR VIDP 241430Z VRB02KT 2500 FU NSC 12/02 Q1021 NOSIG=
201512241500 METAR VIDP 241500Z VRB02KT 2500 FU NSC 12/02 Q1021 NOSIG=
201512241505 METAR VIDP NIL=
201512241530 METAR VIDP 241530Z 29004KT 2500 FU NSC 12/02 Q1021 NOSIG=
201512241600 METAR VIDP 241600Z 30005KT 2500 HZ NSC 12/02 Q1021 NOSIG=
201512241605 METAR VIDP NIL=
201512241630 METAR VIDP 241630Z 28004KT 2500 HZ NSC 11/03 Q1022 NOSIG=
201512241700 METAR VIDP 241700Z 27004KT 2500 HZ NSC 10/03 Q1022 NOSIG=
201512241730 METAR VIDP 241730Z 27003KT 2500 HZ NSC 09/03 Q1022 NOSIG=
201512241800 METAR VIDP 241800Z 27003KT 2500 HZ NSC 09/03 Q1022 NOSIG=
201512241830 METAR VIDP 241830Z 23003KT 2500 HZ NSC 09/03 Q1021 NOSIG=
201512241900 METAR VIDP 241900Z 23003KT 1800 R/28/29/P2000 FU NSC 08/03 Q1021 BECMG 1500=
201512241930 METAR VIDP 241930Z 25003KT 1200 R/28/29/P2000 BR NSC 07/03 Q1021 NOSIG=
201512242000 METAR VIDP 242000Z 25003KT 0900 R/28/29/P2000 MIFG NSC 07/03 Q1021 BECMG 0800=
201512242030 METAR VIDP 242030Z 25003KT 0800 R/28/29/P2000 MIFG NSC 06/03 Q1021 NOSIG=
201512242100 METAR VIDP 242100Z 26004KT 0800 R/28/29/P2000 MIFG NSC 06/03 Q1021 NOSIG=
201512242130 METAR VIDP 242130Z 26004KT 0800 R/28/29/P2000 MIFG NSC 06/03 Q1021 NOSIG=
201512242200 METAR VIDP 242200Z 27003KT 0800 R/28/29/P2000 MIFG NSC 06/03 Q1021 NOSIG=
201512242205 METAR VIDP NIL=
201512242230 METAR VIDP 242230Z 27003KT 0800 R/28/29/P2000 MIFG NSC 06/03 Q1021 NOSIG=
201512242300 METAR VIDP 242300Z 23003KT 0800 R/28/29/P2000 MIFG NSC 06/03 Q1020 NOSIG=
201512242330 METAR VIDP 242330Z 24004KT 0800 R/28/29/P2000 MIFG NSC 06/03 Q1020 NOSIG=
201512250000 METAR VIDP 250000Z 25003KT 0700 R/28/29/P2000 MIFG NSC 05/03 Q1020 BECMG VIS 0700=
201512250005 METAR VIDP NIL=
201512250030 METAR VIDP 250030Z 25003KT 0600 R/28/29/P1600 MIFG NSC 05/03 Q1020 NOSIG=
201512250100 METAR VIDP 250100Z 25005KT 0500 R28/P2000 R29/1600 FG NSC 05/03 Q1021 NOSIG=
201512250105 METAR VIDP NIL=
201512250130 METAR VIDP 250130Z 25004KT 0500 R28/P2000 R29/1500 FG NSC 04/03 Q1022 NOSIG=
201512250200 METAR COR VIDP 250200Z 26005KT 0700 R28/P2000 R29/1500 MIFG SCT100 05/03 Q1022 BECMG VIS 0800=
201512250205 METAR VIDP NIL=
201512250230 METAR VIDP 250230Z 27006KT 1200 R28/P2000 R29/P2000 BR FEW040 06/03 Q1022 BECMG VIS 1500=
201512250300 METAR VIDP 250300Z 27007KT 1500 R28/P2000 R29/P2000 BR SCT100 07/03 Q1023 NOSIG=
201512250330 METAR VIDP 250330Z 27006KT 1700 R28/P2000 R29/P2000 BR SCT100 07/03 Q1023 NOSIG=
201512250400 METAR VIDP 250400Z 26006KT 2100 BR NSC 10/04 Q1023 NOSIG=
201512250405 METAR VIDP NIL=
201512250430 METAR VIDP 250430Z 27007KT 2100 FU NSC 11/04 Q1023 NOSIG=
201512250500 METAR VIDP 250500Z 27007KT 2500 FU NSC 12/04 Q1023 NOSIG=
201512250505 METAR VIDP NIL=
201512250530 METAR VIDP 250530Z 26007KT 2500 FU NSC 13/04 Q1024 NOSIG=
201512250600 METAR VIDP 250600Z 28009KT 2500 FU NSC 16/03 Q1023 NOSIG=
201512250605 METAR VIDP NIL=
201512250630 METAR VIDP 250630Z 30009KT 2500 FU NSC 16/03 Q1023 NOSIG=
201512250700 METAR VIDP 250700Z 31008KT 2800 FU NSC 17/03 Q1022 NOSIG=
201512250705 METAR VIDP NIL=
201512250730 METAR VIDP 250730Z 29009KT 3000 FU NSC 18/02 Q1022 NOSIG=
201512250800 METAR VIDP 250800Z 30008KT 3000 FU NSC 18/02 Q1022 NOSIG=
201512250830 METAR VIDP 250830Z 30008KT 3000 FU NSC 18/02 Q1022 NOSIG=
201512250900 METAR VIDP 250900Z 30009KT 3500 FU NSC 19/02 Q1021 NOSIG=
201512250930 METAR VIDP 250930Z 31009KT 4000 HZ NSC 19/02 Q1021 NOSIG=
201512251000 METAR VIDP 251000Z 32008KT 4000 HZ NSC 19/02 Q1021 NOSIG=
201512251030 METAR VIDP 251030Z 32008KT 4000 HZ NSC 18/02 Q1020 NOSIG=
201512251100 METAR VIDP 251100Z 32008KT 4000 HZ NSC 18/02 Q1020 NOSIG=
201512251130 METAR VIDP 251130Z 31006KT 4000 HZ NSC 17/02 Q1021 NOSIG=
201512251200 METAR VIDP 251200Z 31006KT 3500 HZ NSC 16/02 Q1021 BECMG 3000=
201512251230 METAR VIDP 251230Z 31005KT 3200 HZ NSC 15/02 Q1021 BECMG 3000=
201512251300 METAR VIDP 251300Z 27003KT 2800 HZ NSC 14/03 Q1021 NOSIG=
201512251330 METAR VIDP 251330Z 26003KT 2500 HZ NSC 13/03 Q1021 NOSIG=
201512251400 METAR VIDP 251400Z 27004KT 2000 FU NSC 13/04 Q1022 NOSIG=
201512251430 METAR VIDP 251430Z 29003KT 2000 HZ NSC 12/04 Q1022 NOSIG=
201512251500 METAR VIDP 251500Z 27004KT 2000 R28/29/P2000 FU NSC 11/04 Q1022 NOSIG=
201512251530 METAR VIDP 251530Z 27004KT 2000 R28/29/P2000 FU NSC 11/04 Q1022 NOSIG=
201512251600 METAR VIDP 251600Z 27005KT 1800 R28/P2000 R29/P2000 FU NSC 11/05 Q1022 BECMG 1500=
201512251630 METAR VIDP 251630Z 27003KT 1500 R28/P2000 R29/P2000 FU NSC 11/05 Q1022 NOSIG=
201512251700 METAR VIDP 251700Z 27003KT 1500 R28/P2000 R29/P2000 FU NSC 10/05 Q1022 NOSIG=
201512251730 METAR VIDP 251730Z 28003KT 1500 R28/P2000 R29/P2000 FU NSC 10/05 Q1022 NOSIG=
201512251800 METAR VIDP 251800Z 23003KT 1200 R28/P2000 R29/P2000 FU NSC 09/05 Q1022 NOSIG=
201512251805 METAR VIDP NIL=
201512251830 METAR COR VIDP 251830Z 26004KT 0900 R28/P2000 R29/P2000 FU NSC 09/04 Q1021 BECMG 0800=
201512251900 METAR VIDP 251900Z 25003KT 0500 R28/P2000 R29/P2000 FU NSC 09/04 Q1021 NOSIG=
201512251930 METAR VIDP 251930Z 26003KT 0500 R28/P2000 R29/1800 MIFG NSC 08/04 Q1021 BECMG 0350=
201512252000 METAR VIDP 252000Z 25003KT 0400 R28/1700 R29/P2000 FG NSC 08/04 Q1020 BECMG 0350=
201512252030 METAR VIDP 252030Z 26003KT 0400 R28/1700 R29/P2000 FG NSC 08/04 Q1020 BECMG 0350=
201512252100 METAR VIDP 252100Z 25003KT 0400 R28/1700 R29/P2000 FG NSC 08/04 Q1020 BECMG 0350=
201512252130 METAR VIDP 252130Z 25003KT 0400 R28/1700 R29/P2000 FG NSC 07/04 Q1020 NOSIG=
201512252200 METAR VIDP 252200Z 25004KT 0400 R28/1700 R29/P2000 FG NSC 07/04 Q1020 NOSIG=
201512252205 METAR VIDP NIL=
201512252230 METAR VIDP 252230Z 25004KT 0400 R28/1700 R29/P2000 FG NSC 07/04 Q1020 NOSIG=
201512252300 METAR VIDP 252300Z 24004KT 0500 R28/P2000 R29/P2000 FG NSC 06/04 Q1020 NOSIG=
201512252330 METAR VIDP 252330Z 24003KT 0500 R28/P2000 R29/P2000 FG NSC 07/04 Q1020 NOSIG=
201512260000 METAR VIDP 260000Z 24004KT 0500 R28/1800 R29/1900 FG NSC 06/04 Q1020 NOSIG=
201512260030 METAR VIDP 260030Z 24003KT 0500 R28/1600 R29/1800 FG NSC 06/04 Q1020 NOSIG=
201512260100 METAR VIDP 260100Z 24003KT 0500 R28/1600 R29/1700 FG NSC 06/04 Q1020 NOSIG=
201512260130 METAR VIDP 260130Z 26003KT 0400 R28/1700 R29/1400 FG NSC 06/03 Q1020 NOSIG=
201512260200 METAR VIDP 260200Z 27003KT 0400 R28/1300 R29/1000 FG NSC 06/03 Q1020 NOSIG=
201512260205 METAR VIDP NIL=
201512260230 METAR VIDP 260230Z 26004KT 0500 R28/1300 R29/1400 FG NSC 06/03 Q1021 BECMG 0800=
201512260300 METAR VIDP 260300Z 27005KT 0800 R28/1500 R29/1700 MIFG NSC 08/04 Q1021 NOSIG=
201512260330 METAR VIDP 260330Z 27005KT 1000 R28/1600 R29/2000 FU NSC 09/04 Q1021 NOSIG=
201512260400 METAR VIDP 260400Z 27007KT 1400 R28/1800 R29/P2000 FU NSC 11/03 Q1022 BECMG 1500=
201512260430 METAR VIDP 260430Z 28007KT 1500 R28/1600 R29/P2000 FU NSC 12/03 Q1022 NOSIG=
201512260500 METAR VIDP 260500Z 28006KT 1500 R28/P2000 R29/P2000 FU NSC 14/04 Q1022 NOSIG=
201512260530 METAR VIDP 260530Z 29009KT 1600 R28/P2000 R29/P2000 FU NSC 15/04 Q1022 NOSIG=
201512260600 METAR VIDP 260600Z 30007KT 1800 R28/P2000 R29/P2000 FU NSC 16/04 Q1022 NOSIG=
201512260630 METAR VIDP 260630Z 31007KT 1900 R28/P2000 R29/P2000 FU NSC 16/03 Q1021 NOSIG=
201512260700 METAR VIDP 260700Z 29009KT 2000 R28/P2000 R29/P2000 FU NSC 16/03 Q1020 NOSIG=
201512260730 METAR VIDP 260730Z 30009KT 2000 FU NSC 18/03 Q1020 NOSIG=
201512260800 METAR VIDP 260800Z 31010KT 2000 HZ NSC 19/02 Q1019 NOSIG=
201512260830 METAR VIDP 260830Z 30010KT 2500 HZ NSC 20/02 Q1018 NOSIG=
201512260900 METAR VIDP 260900Z 30008KT 2500 HZ NSC 21/02 Q1018 NOSIG=
201512260930 METAR VIDP 260930Z 28008KT 2500 HZ NSC 21/02 Q1018 NOSIG=
201512261000 METAR VIDP 261000Z 28008KT 2500 HZ NSC 21/02 Q1018 NOSIG=
201512261030 METAR VIDP 261030Z 28010KT 2500 HZ FEW100 21/02 Q1018 NOSIG=
201512261100 METAR VIDP 261100Z 29010KT 2500 HZ FEW100 20/02 Q1019 NOSIG=
201512261130 METAR VIDP 261130Z 29009KT 2500 HZ FEW100 20/02 Q1019 NOSIG=
201512261200 METAR VIDP 261200Z 28005KT 2500 HZ FEW100 17/03 Q1019 NOSIG=
201512261205 METAR VIDP NIL=
201512261230 METAR VIDP 261230Z 28005KT 2500 HZ NSC 17/03 Q1019 NOSIG=
201512261300 METAR VIDP 261300Z 28005KT 2100 HZ NSC 16/03 Q1019 NOSIG=
201512261330 METAR VIDP 261330Z 28003KT 2100 HZ NSC 16/03 Q1020 NOSIG=
201512261400 METAR COR VIDP 261400Z 28003KT 1800 R28/P2000 R29/P2000 FU NSC 15/03 Q1020 NOSIG=
201512261430 METAR VIDP 261430Z 29004KT 1800 R28/P2000 R29/P2000 FU NSC 15/04 Q1020 NOSIG=
201512261500 METAR VIDP 261500Z 28003KT 1800 R28/P2000 R29/P2000 FU NSC 13/04 Q1021 NOSIG=
201512261530 METAR VIDP 261530Z 00000KT 1800 R28/P2000 R29/P2000 FU NSC 13/04 Q1021 NOSIG=
201512261600 METAR COR VIDP 261600Z 00000KT 1800 R28/P2000 R29/P2000 FU NSC 13/05 Q1021 NOSIG=
201512261630 METAR VIDP 261630Z 00000KT 1600 R28/P2000 R29/P2000 FU NSC 13/05 Q1021 NOSIG=
201512261700 METAR VIDP 261700Z 00000KT 1500 R28/P2000 R29/P2000 FU NSC 13/05 Q1021 NOSIG=
201512261730 METAR VIDP 261730Z 00000KT 1500 R28/P2000 R29/P2000 FU NSC 13/05 Q1021 NOSIG=
201512261800 METAR VIDP 261800Z 00000KT 1500 R28/P2000 R29/P2000 FU NSC 13/05 Q1021 NOSIG=
201512261830 METAR VIDP 261830Z 00000KT 1200 R28/29/P2000 FU NSC 13/05 Q1021 NOSIG=
201512261900 METAR VIDP 261900Z 00000KT 1200 R28/29/P2000 FU NSC 12/05 Q1021 NOSIG=
201512261930 METAR VIDP 261930Z 00000KT 1200 R28/29/P2000 FU NSC 12/05 Q1021 NOSIG=
201512262000 METAR VIDP 262000Z 00000KT 1200 R28/29/P2000 FU NSC 12/05 Q1021 NOSIG=
201512262030 METAR VIDP 262030Z 00000KT 1200 R28/29/P2000 FU NSC 12/05 Q1021 NOSIG=
201512262100 METAR VIDP 262100Z 24003KT 1200 R28/29/P2000 FU NSC 11/05 Q1020 NOSIG=
201512262130 METAR VIDP 262130Z 00000KT 1100 R28/29/P2000 FU NSC 10/05 Q1020 NOSIG=
201512262200 METAR VIDP 262200Z 24003KT 0900 R28/P2000 R29/P2000 MIFG NSC 09/05 Q1020 BECMG VIS 0800=
201512262230 METAR VIDP NIL=
201512262300 METAR VIDP 262300Z 24002KT 0900 R28/29/P2000 MIFG NSC 09/05 Q1020 NOSIG=
201512262330 METAR VIDP 262330Z 27002KT 0900 R28/P2000 R29/P2000 MIFG NSC 08/05 Q1020 BECMG VIS 0800=
201512270000 METAR VIDP 270000Z 25002KT 0900 R28/P2000 R29/P2000 MIFG NSC 08/04 Q1020 BECMG VIS 0800=
201512270030 METAR VIDP 270030Z 25003KT 0800 R28/P2000 R29/P2000 MIFG NSC 08/04 Q1020 NOSIG=
201512270100 METAR VIDP 270100Z 26004KT 1000 R28/P2000 R29/P2000 MIFG NSC 08/05 Q1020 NOSIG=
201512270105 METAR VIDP NIL=
201512270130 METAR VIDP 270130Z 26004KT 1000 R28/P2000 R29/P2000 MIFG NSC 08/04 Q1020 NOSIG=
201512270200 METAR VIDP 270200Z 26003KT 1000 R28/1700 R29/1300 MIFG SCT040 08/04 Q1020 NOSIG=
201512270205 METAR VIDP NIL=
201512270230 METAR VIDP 270230Z 00000KT 1000 R28/1700 R29/1300 MIFG SCT040 08/04 Q1021 NOSIG=
201512270300 METAR VIDP 270300Z 27005KT 0900 R28/1600 R29/1300 MIFG FEW030 09/06 Q1022 TEMPO 0800=
201512270330 METAR VIDP 270330Z 27005KT 0800 R28/1200 R29/1300 FU FEW030 11/05 Q1022 NOSIG=
201512270400 METAR VIDP 270400Z 26005KT 0800 R28/1200 R29/1300 FU FEW030 12/05 Q1022 NOSIG=
201512270405 METAR VIDP NIL=
201512270430 METAR VIDP 270430Z 27005KT 1000 R28/1500 R29/1900 FU FEW030 13/05 Q1023 NOSIG=
201512270500 METAR VIDP 270500Z 27004KT 1000 R28/1500 R29/1900 FU FEW030 15/05 Q1023 NOSIG=
201512270505 METAR VIDP NIL=
201512270530 METAR VIDP 270530Z 27005KT 1300 R28/2000 R29/2000 FU SCT100 16/06 Q1022 NOSIG=
201512270600 METAR VIDP 270600Z 29007KT 1300 R28/1800 R29/2000 FU SCT100 17/06 Q1022 BECMG VIS 1500=
201512270605 METAR VIDP NIL=
201512270630 METAR VIDP 270630Z 29006KT 1500 R28/1500 R29/2000 FU SCT100 19/06 Q1021 NOSIG=
201512270700 METAR VIDP 270700Z 29007KT 1500 R28/1500 R29/2000 FU SCT100 20/06 Q1021 NOSIG=
201512270705 METAR VIDP NIL=
201512270730 METAR VIDP 270730Z 31010KT 1700 R28/1700 R29/P2000 HZ SCT100 20/05 Q1020 NOSIG=
201512270800 METAR VIDP 270800Z 30010KT 1700 R28/1700 R29/P2000 HZ SCT100 21/05 Q1020 NOSIG=
201512270830 METAR VIDP 270830Z 29009KT 1600 R28/1700 R29/P2000 HZ SCT100 21/05 Q1019 NOSIG=
201512270900 METAR VIDP 270900Z 31010KT 1600 R28/1600 R29/P2000 FU SCT100 21/06 Q1019 NOSIG=
201512270930 METAR VIDP 270930Z 29011KT 2200 HZ SCT100 22/05 Q1019 NOSIG=
201512271000 METAR VIDP 271000Z 30009KT 2200 HZ SCT100 21/05 Q1019 NOSIG=
201512271030 METAR VIDP 271030Z 29009KT 2500 HZ SCT100 21/05 Q1019 NOSIG=
201512271100 METAR VIDP 271100Z 28007KT 2500 HZ SCT100 20/05 Q1019 NOSIG=
201512271105 METAR VIDP NIL=
201512271130 METAR VIDP 271130Z 28007KT 2500 HZ SCT100 19/06 Q1019 NOSIG=
201512271200 METAR VIDP 271200Z 27006KT 2200 HZ SCT100 18/07 Q1019 NOSIG=
201512271230 METAR VIDP 271230Z 26005KT 1800 R28/29/P2000 HZ SCT100 17/08 Q1019 BECMG 1500=
201512271300 METAR VIDP 271300Z 26004KT 1400 R28/P2000 R29/P2000 FU SCT100 16/07 Q1019 NOSIG=
201512271305 METAR VIDP NIL=
201512271330 METAR VIDP 271330Z 26005KT 1300 R28/P2000 R29/P2000 FU SCT100 16/08 Q1020 NOSIG=
201512271400 METAR VIDP 271400Z 26004KT 1200 R28/P2000 R29/P2000 FU SCT100 15/08 Q1020 NOSIG=
201512271430 METAR VIDP 271430Z 27004KT 1100 R28/P2000 R29/P2000 FU SCT100 15/07 Q1020 NOSIG=
201512271500 METAR VIDP 271500Z 27004KT 1000 R28/P2000 R29/P2000 FU SCT100 15/07 Q1020 NOSIG=
201512271530 METAR VIDP 271530Z 27005KT 1000 R28/P2000 R29/P2000 FU SCT100 14/07 Q1021 NOSIG=
201512271600 METAR VIDP 271600Z 26004KT 1000 R28/P2000 R29/P2000 FU SCT100 14/07 Q1021 NOSIG=
201512271630 METAR VIDP 271630Z 26005KT 1000 R28/P2000 R29/P2000 FU SCT100 14/07 Q1021 NOSIG=
201512271700 METAR VIDP 271700Z 27005KT 1000 R28/P2000 R29/P2000 FU SCT100 13/06 Q1021 NOSIG=
201512271730 METAR VIDP 271730Z 27004KT 1000 R28/P2000 R29/P2000 FU SCT100 13/06 Q1021 NOSIG=
201512271800 METAR VIDP 271800Z 27005KT 1000 R28/P2000 R29/P2000 FU SCT100 13/06 Q1020 BECMG 0800=
201512271805 METAR VIDP NIL=
201512271830 METAR VIDP 271830Z 26005KT 0800 R28/P2000 R29/P2000 FU SCT100 13/07 Q1020 NOSIG=
201512271900 METAR VIDP 271900Z 26004KT 0800 R28/P2000 R29/P2000 FU SCT100 12/07 Q1020 NOSIG=
201512271930 METAR VIDP 271930Z 26004KT 0800 R28/P2000 R29/P2000 FU SCT100 12/07 Q1020 NOSIG=
201512272000 METAR VIDP 272000Z 26004KT 0700 R28/P2000 R29/P2000 FU SCT100 12/07 Q1020 BECMG 0600=
201512272030 METAR VIDP 272030Z 26004KT 0700 R28/P2000 R29/P2000 FU SCT100 12/07 Q1020 BECMG 0600=
201512272100 METAR VIDP 272100Z 27005KT 0700 R28/P2000 R29/P2000 FU SCT100 12/07 Q1020 BECMG 0600=
201512272130 METAR VIDP 272130Z 29005KT 0600 R28/P2000 R29/P2000 FU SCT100 12/07 Q1020 NOSIG=
201512272200 METAR VIDP 272200Z 28005KT 0600 R28/P2000 R29/P2000 FU SCT100 12/07 Q1020 NOSIG=
201512272205 METAR VIDP NIL=
201512272230 METAR VIDP 272230Z 30005KT 0600 R/28/29/2000 FU SCT100 12/07 Q1020 NOSIG=
201512272300 METAR VIDP 272300Z 25004KT 0600 R28/2000 R29/2000 FU SCT100 12/07 Q1020 NOSIG=
201512272330 METAR VIDP 272330Z 25004KT 0600 R28/2000 R29/2000 FU SCT100 12/07 Q1020 NOSIG=
201512280000 METAR VIDP 280000Z 24005KT 0600 R/28/29/2000 MIFG SCT100 11/08 Q1020 NOSIG=
201512280005 METAR VIDP NIL=
201512280030 METAR VIDP 280030Z 27003KT 0600 R28/2000 R29/2000 MIFG SCT100 10/08 Q1021 NOSIG=
201512280100 METAR VIDP 280100Z 26004KT 0600 R28/2000 R29/2000 MIFG SCT100 10/08 Q1021 NOSIG=
201512280130 METAR VIDP 280130Z 27004KT 0600 R28/2000 R29/2000 MIFG SCT100 09/08 Q1021 NOSIG=
201512280200 METAR VIDP 280200Z 27005KT 0600 R28/2000 R29/1400 MIFG SCT100 09/08 Q1021 NOSIG=
201512280230 METAR VIDP 280230Z 26005KT 0600 R28/2000 R29/1500 MIFG SCT100 10/07 Q1022 NOSIG=
201512280300 METAR VIDP 280300Z 26006KT 0700 R28/2000 R29/1700 MIFG SCT100 10/08 Q1022 BECMG 0800=
201512280330 METAR VIDP 280330Z 26007KT 1000 R28/P2000 R29/P2000 BR FEW100 12/08 Q1022 NOSIG=
201512280400 METAR VIDP 280400Z 27009KT 1400 R28/P2000 R29/P2000 FU FEW100 14/08 Q1023 BECMG 1500=
201512280430 METAR VIDP 280430Z 28008KT 1500 R28/P2000 R29/P2000 FU SCT100 16/08 Q1023 NOSIG=
201512280500 METAR VIDP 280500Z 29007KT 1500 R28/2000 R29/2000 FU SCT100 18/07 Q1023 NOSIG=
201512280530 METAR VIDP 280530Z 30008KT 1500 R28/1800 R29/2000 FU SCT100 19/07 Q1023 NOSIG=
201512280600 METAR VIDP 280600Z 30009KT 1500 R28/1600 R29/2000 FU SCT100 20/07 Q1023 NOSIG=
201512280630 METAR VIDP 280630Z 30010KT 1500 R28/1800 R29/2000 FU SCT100 20/06 Q1023 NOSIG=
201512280700 METAR VIDP 280700Z 29008KT 1800 R28/29/P2000 FU FEW100 22/06 Q1022 NOSIG=
201512280705 METAR VIDP NIL=
201512280730 METAR VIDP 280730Z 30008KT 2000 FU FEW100 22/06 Q1021 NOSIG=
201512280800 METAR VIDP 280800Z 30008KT 2000 FU FEW100 23/06 Q1021 NOSIG=
201512280830 METAR VIDP 280830Z 31011KT 2100 FU FEW100 24/05 Q1021 NOSIG=
201512280900 METAR VIDP 280900Z 31011KT 2100 HZ FEW100 24/04 Q1020 NOSIG=
201512280905 METAR VIDP NIL=
201512280930 METAR VIDP 280930Z 32011KT 2100 HZ FEW100 24/05 Q1020 NOSIG=
201512281000 METAR VIDP 281000Z 32011KT 2100 HZ FEW100 24/05 Q1020 NOSIG=
201512281005 METAR VIDP NIL=
201512281030 METAR VIDP 281030Z 32010KT 2100 HZ FEW100 23/04 Q1020 NOSIG=
201512281100 METAR VIDP 281100Z 31010KT 2100 HZ FEW100 23/04 Q1020 NOSIG=
201512281105 METAR VIDP NIL=
201512281130 METAR VIDP 281130Z 310108KT 2400 HZ FEW100 22/06 Q1020 NOSIG=
201512281200 METAR VIDP 281200Z 31007KT 2400 HZ FEW100 21/06 Q1020 NOSIG=
201512281205 METAR VIDP NIL=
201512281230 METAR VIDP 281230Z 31007KT 2400 HZ FEW100 21/06 Q1020 NOSIG=
201512281300 METAR VIDP 281300Z 26005KT 2100 FU FEW100 18/08 Q1020 NOSIG=
201512281305 METAR VIDP NIL=
201512281330 METAR VIDP 281330Z 25004KT 2100 FU FEW100 17/08 Q1020 NOSIG=
201512281400 METAR COR VIDP 281400Z 26005KT 1800 R28/29/P2000 FU FEW100 17/08 Q1021 NOSIG=
201512281430 METAR VIDP 281430Z 27006KT 1800 R28/P2000 R28/P2000 R29/P2000 FU FEW100 17/08 Q1021 BECMG VIS 1500=
201512281500 METAR VIDP 281500Z 27006KT 1300 R28/P2000 R28/P2000 R29/P2000 FU FEW100 16/08 Q1021 NOSIG=
201512281505 METAR VIDP NIL=
201512281530 METAR VIDP 281530Z 27005KT 1300 R28/P2000 R29/P2000 FU FEW100 16/08 Q1021 NOSIG=
201512281600 METAR VIDP 281600Z 27005KT 1300 R28/P2000 R29/P2000 FU FEW100 16/08 Q1021 NOSIG=
201512281630 METAR VIDP 281630Z 26005KT 1200 R28/P2000 R29/P2000 FU FEW100 15/08 Q1021 NOSIG=
201512281700 METAR VIDP 281700Z 25006KT 1200 R28/P2000 R29/P2000 FU FEW100 14/08 Q1021 NOSIG=
201512281705 METAR VIDP NIL=
201512281730 METAR VIDP 281730Z 27006KT 1200 R28/P2000 R29/P2000 FU FEW100 14/08 Q1021 NOSIG=
201512281800 METAR VIDP 281800Z 25004KT 1200 R28/P2000 R29/P2000 FU FEW100 14/08 Q1021 NOSIG=
201512281805 METAR VIDP NIL=
201512281830 METAR VIDP 281830Z 25004KT 1200 R/28/29/P2000 FU FEW100 14/08 Q1020 NOSIG=
201512281900 METAR VIDP 281900Z 26004KT 1000 R/28/29/P2000 FU FEW100 13/07 Q1020 NOSIG=
201512281930 METAR VIDP 281930Z 26003KT 1000 R/28/29/P2000 FU FEW100 13/07 Q1020 NOSIG=
201512282000 METAR VIDP 282000Z 25004KT 0900 R/28/29/P2000 MIFG FEW100 12/08 Q1020 BECMG 0800=
201512282030 METAR VIDP 282030Z 25004KT 0800 R/28/29/P2000 MIFG FEW100 12/08 Q1020 NOSIG=
201512282100 METAR VIDP 282100Z 24004KT 0700 R/28/29/P2000 MIFG FEW100 12/08 Q1020 BECMG 0600=
201512282130 METAR VIDP 282130Z 24004KT 0600 R/28/29/P2000 MIFG FEW100 11/08 Q1020 NOSIG=
201512282200 METAR VIDP 282200Z 28003KT 0600 R28/2000 R29/2000 MIFG FEW100 11/08 Q1020 NOSIG=
201512282205 METAR VIDP NIL=
201512282230 METAR VIDP 282230Z 27003KT 0600 R28/2000 R29/2000 MIFG FEW100 11/08 Q1019 NOSIG=
201512282300 METAR VIDP 282300Z 27004KT 0700 R28/2000 R29/2000 MIFG FEW100 09/06 Q1019 NOSIG=
201512282330 METAR VIDP 282330Z 26004KT 0700 R28/2000 R29/2000 MIFG FEW100 09/06 Q1019 NOSIG=
201512290000 METAR VIDP 290000Z 26003KT 0700 R28/2000 R29/2000 MIFG FEW100 09/06 Q1019 NOSIG=
201512290030 METAR VIDP 290030Z 27004KT 0700 R28/2000 R29/2000 MIFG FEW100 09/06 Q1019 NOSIG=
201512290100 METAR VIDP 290100Z 26004KT 0700 R28/2000 R29/2000 MIFG FEW100 10/07 Q1019 NOSIG=
201512290110 METAR VIDP 290110Z 26004KT 0700 R28/2000 R29/2000 MIFG FEW100 10/07 Q1019 NOSIG=
201512290130 METAR VIDP 290130Z 26004KT 0700 R28/2000 R29/2000 MIFG FEW100 10/07 Q1019 NOSIG=
201512290200 METAR VIDP 290200Z 24004KT 0700 R28/2000 R29/2000 MIFG FEW100 10/07 Q1020 NOSIG=
201512290230 METAR VIDP NIL=
201512290300 METAR VIDP 290300Z 26004KT 0800 R28/P2000 R29/1100 MIFG FEW100 10/07 Q1020 NOSIG=
201512290330 METAR VIDP 290330Z 27004KT 1000 R28/1400 R29/1400 FU FEW100 12/07 Q1020 NOSIG=
201512290400 METAR VIDP 290400Z 27006KT 1100 R28/1500 R29/1600 FU FEW100 13/07 Q1020 NOSIG=
201512290430 METAR VIDP 290430Z 27007KT 1100 R28/1800 R29/1100 FU FEW100 16/08 Q1021 NOSIG=
201512290500 METAR VIDP 290500Z 28009KT 1100 R28/1200 R29/P2000 FU SCT100 17/08 Q1021 NOSIG=
201512290530 METAR VIDP 290530Z 28010KT 1100 R28/1200 R29/1300 FU SCT100 18/08 Q1020 NOSIG=
201512290600 METAR VIDP 290600Z 28011KT 1100 R28/1100 R29/P2000 FU SCT100 19/08 Q1020 BECMG VIS 1500=
201512290630 METAR VIDP 290630Z 28012KT 1100 R28/1100 R29/P2000 FU SCT100 20/08 Q1020 BECMG 1500=
201512290700 METAR VIDP 290700Z 28005G15KT 1500 R29/P2000 FU SCT100 22/08 Q1019 NOSIG=
201512290705 METAR VIDP NIL=
201512290730 METAR VIDP 290730Z 28005G15KT 2000 R28/29/P2000 HZ FEW100 22/08 Q1018 NOSIG=
201512290800 METAR VIDP 290800Z 29005G15KT 2000 R/28/29/P2000 HZ FEW100 23/08 Q1018 NOSIG=
201512290805 METAR VIDP NIL=
201512290830 METAR VIDP 290830Z 29006G18KT 2200 HZ FEW100 23/08 Q1017 NOSIG=
201512290900 METAR VIDP 290900Z 29006G18KT 2200 HZ FEW100 23/08 Q1017 NOSIG=
201512290905 METAR VIDP NIL=
201512290930 METAR VIDP 290930Z 29008G18KT 2200 HZ FEW100 23/08 Q1017 NOSIG=
201512291000 METAR VIDP 291000Z 29008G18KT 2500 HZ FEW100 23/07 Q1017 NOSIG=
201512291030 METAR VIDP 291030Z 29011KT 2500 HZ FEW100 22/08 Q1017 NOSIG=
201512291100 METAR VIDP 291100Z 29009KT 2500 HZ FEW100 22/08 Q1016 NOSIG=
201512291130 METAR VIDP 291130Z 29009KT 2500 HZ FEW100 22/07 Q1016 NOSIG=
201512291200 METAR VIDP 291200Z 28009KT 2500 HZ FEW100 22/08 Q1017 NOSIG=
201512291230 METAR VIDP 291230Z 29008KT 2500 HZ FEW100 20/08 Q1017 NOSIG=
201512291300 METAR VIDP 291300Z 27005KT 2500 HZ FEW100 19/08 Q1017 NOSIG=
201512291305 METAR VIDP NIL=
201512291330 METAR VIDP 291330Z 27006KT 2500 HZ FEW100 19/08 Q1017 NOSIG=
201512291400 METAR VIDP 291400Z 27006KT 2500 HZ FEW100 18/08 Q1017 NOSIG=
201512291430 METAR VIDP 291430Z 27005KT 1600 HZ FEW100 17/08 Q1018 BECMG 1500=
201512291500 METAR VIDP 291500Z 27005KT 1600 R28/29/P2000 HZ FEW100 17/08 Q1018 BECMG 1500=
201512291505 METAR VIDP NIL=
201512291530 METAR VIDP 291530Z 27005KT 1400 R28/29/P2000 FU FEW100 17/09 Q1018 NOSIG=
201512291600 METAR VIDP 291600Z 27003KT 1300 R28/P2000 R29/P2000 FU FEW100 16/09 Q1018 NOSIG=
201512291630 METAR VIDP 291630Z 25003KT 1300 R28/29/P2000 FU FEW100 16/09 Q1018 NOSIG=
201512291700 METAR VIDP 291700Z 26003KT 1300 R28/P2000 R29/P2000 FU FEW100 15/09 Q1018 NOSIG=
201512291730 METAR VIDP 291730Z 00000KT 0900 R28/P2000 R29/P2000 FU FEW100 14/09 Q1018 BECMG 0800=
201512291800 METAR VIDP 291800Z 00000KT 0700 R28/P2000 R29/P2000 FU FEW100 14/09 Q1018 BECMG 0600=
201512291830 METAR VIDP 291830Z 25003KT 0600 R28/P2000 R29/P2000 MIFG FEW100 13/09 Q1018 NOSIG=
201512291900 METAR VIDP 291900Z 24003KT 0600 R28/P2000 R29/P2000 MIFG FEW100 13/09 Q1018 NOSIG=
201512291930 METAR VIDP 291930Z 00000KT 0500 R28/P2000 R29/P2000 MIFG FEW100 13/09 Q1018 NOSIG=
201512292000 METAR VIDP 292000Z 00000KT 0500 R28/P2000 R29/1800 MIFG FEW100 12/09 Q1017 NOSIG=
201512292030 METAR VIDP 292030Z 00000KT 0400 R28/P2000 R29/1700 MIFG FEW100 12/09 Q1017 NOSIG=
201512292100 METAR VIDP 292100Z 22003KT 0400 R28/P2000 R29/P2000 MIFG FEW100 12/09 Q1017 NOSIG=
201512292130 METAR VIDP 292130Z 22003KT 0500 R28/P2000 R29/P2000 MIFG FEW100 12/09 Q1017 NOSIG=
201512292200 METAR VIDP 292200Z 22003KT 0500 R28/P2000 R29/P2000 MIFG FEW100 11/09 Q1017 NOSIG=
201512292205 METAR VIDP NIL=
201512292230 METAR VIDP 292230Z 24003KT 0500 R28/P2000 R29/P2000 MIFG FEW100 11/09 Q1017 NOSIG=
201512292300 METAR VIDP 292300Z 24003KT 0500 R28/P2000 R29/P2000 MIFG FEW100 11/09 Q1017 NOSIG=
201512292305 METAR VIDP NIL=
201512292330 METAR VIDP 292330Z 25003KT 0500 R28/P2000 R29/P1900 MIFG FEW100 11/09 Q1017 NOSIG=
201512300000 METAR VIDP 300000Z 21002KT 0500 R28/P2000 R29/P1500 MIFG FEW100 11/09 Q1017 NOSIG=
201512300005 METAR VIDP NIL=
201512300030 METAR VIDP 300030Z 00000KT 0500 R28/P2000 R29/P1500 MIFG FEW100 10/09 Q1017 NOSIG=
201512300100 METAR VIDP 300100Z 00000KT 0500 R28/29/P2000 MIFG FEW100 10/08 Q1018 NOSIG=
201512300130 METAR COR VIDP 300130Z 230003KT 0500 R28/29/P2000 MIFG FEW100 10/08 Q1018 NOSIG=
201512300200 METAR VIDP 300200Z 00000KT 0500 R28/P2000 R29/P1600 MIFG FEW100 09/07 Q1018 NOSIG=
201512300230 METAR VIDP 300230Z 00000KT 0500 R28/P2000 R29/P2000 MIFG FEW100 09/07 Q1018 NOSIG=
201512300300 METAR VIDP 300300Z 00000KT 1100 R28/P2000 R29/P2000 FU FEW100 12/08 Q1019 BECMG 1500=
201512300305 METAR VIDP NIL=
201512300330 METAR VIDP 300330Z 00000KT 1500 R28/P2000 R29/2000 FU FEW100 14/08 Q1019 NOSIG=
201512300400 METAR VIDP 300400Z 27004KT 1200 R28/P2000 R29/2000 FU FEW100 15/08 Q1020 NOSIG=
201512300430 METAR VIDP 300430Z 28004KT 1100 R/28/2000 R/29/2000 FU FEW100 17/08 Q1020 NOSIG=
201512300500 METAR VIDP 300500Z 30004KT 1100 R/28/2000 R/29/2000 FU FEW100 18/08 Q1020 NOSIG=
201512300530 METAR VIDP 300530Z 28004KT 1100 R/28/2000 R/29/2000 FU FEW100 19/08 Q1020 NOSIG=
201512300600 METAR VIDP 300600Z 28004KT 1300 R/28/2000 R/29/2000 FU FEW100 21/07 Q1020 NOSIG=
201512300605 METAR VIDP NIL=
201512300630 METAR VIDP 300630Z 31005KT 1300 R/28/2000 R/29/2000 FU FEW100 21/07 Q1019 BECMG 1500=
201512300700 METAR VIDP 300700Z 32005KT 1400 R/28/2000 R/29/2000 FU FEW100 22/07 Q1019 BECMG 1500=
201512300730 METAR VIDP 300730Z 33005KT 1500 R29/28/P2000 FU FEW100 23/07 Q1018 NOSIG=
201512300800 METAR VIDP 300800Z 32005KT 1500 R28/P2000 R/29/P2000 FU FEW100 23/07 Q1018 NOSIG=
201512300830 METAR VIDP 300830Z 30005KT 1700 R/28/29/P2000 FU FEW100 24/07 Q1017 NOSIG=
201512300905 METAR VIDP NIL=
201512300930 METAR VIDP 300930Z 32006KT 1800 R/28/29/P2000 FU NSC 25/06 Q1016 NOSIG=
201512301000 METAR VIDP 301000Z 32005KT 1800 R/28/29/P2000 FU NSC 25/06 Q1016 NOSIG=
201512301030 METAR VIDP 301030Z 30004KT 2000 FU NSC 24/06 Q1016 NOSIG=
201512301100 METAR VIDP 301100Z 33005KT 2000 FU NSC 23/06 Q1016 NOSIG=
201512301130 METAR VIDP 301130Z 33005KT 2100 HZ NSC 23/06 Q1016 NOSIG=
201512301200 METAR VIDP 301200Z 32005KT 2100 HZ NSC 23/06 Q1016 NOSIG=
201512301205 METAR VIDP NIL=
201512301230 METAR VIDP 301230Z 35005KT 2100 HZ NSC 23/06 Q1016 NOSIG=
201512301300 METAR VIDP 301300Z 00000KT 1800 R28/P2000 R29/P2000 FU NSC 19/08 Q1017 NOSIG=
201512301330 METAR VIDP 301330Z 00000KT 1800 R28/P2000 R29/P2000 FU NSC 17/08 Q1017 NOSIG=
201512301400 METAR VIDP 301400Z 00000KT 1800 R28/P2000 R29/P2000 FU NSC 17/08 Q1017 NOSIG=
201512301405 METAR VIDP NIL=
201512301430 METAR VIDP 301430Z 00000KT 1600 R28/P2000 R29/P2000 FU NSC 16/09 Q1017 BECMG 1500=
201512301500 METAR VIDP 301500Z 00000KT 1200 R28/P2000 R29/P2000 FU NSC 15/08 Q1018 NOSIG=
201512301505 METAR VIDP NIL=
201512301530 METAR VIDP 301530Z 00000KT 1000 R28/P2000 R29/P2000 FU NSC 14/08 Q1018 NOSIG=
201512301600 METAR VIDP 301600Z 00000KT 1000 R28/P2000 R29/P2000 FU NSC 14/08 Q1018 NOSIG=
201512301630 METAR VIDP 301630Z 00000KT 1000 R28/29/P2000 BR NSC 14/10 Q1018 NOSIG=
201512301700 METAR VIDP 301700Z 00000KT 1000 R28/29/P2000 BR NSC 14/10 Q1018 NOSIG=
201512301705 METAR VIDP NIL=
201512301730 METAR VIDP 301730Z 00000KT 0900 R28/P2000 R/29/P2000 MIFG NSC 14/10 Q1018 NOSIG=
201512301800 METAR VIDP 301800Z 00000KT 0700 R28/P2000 R/29/P2000 MIFG NSC 13/10 Q1018 BECMG 0600=
201512301830 METAR VIDP 301830Z 00000KT 0600 R28/P2000 R/29/P2000 MIFG NSC 12/10 Q1018 NOSIG=
201512301900 METAR VIDP 301900Z 00000KT 0600 R28/P2000 R/29/P2000 MIFG NSC 12/10 Q1018 NOSIG=
201512301930 METAR VIDP 301930Z 00000KT 0600 R28/P2000 R/29/P2000 MIFG NSC 12/10 Q1018 NOSIG=
201512302000 METAR VIDP 302000Z 00000KT 0600 R28/P2000 R/29/P2000 MIFG NSC 11/10 Q1019 NOSIG=
201512302030 METAR VIDP 302030Z 00000KT 0600 R28/P2000 R/29/P2000 MIFG NSC 11/10 Q1019 NOSIG=
201512302100 METAR VIDP 302100Z 00000KT 0600 R28/P2000 R/29/P2000 MIFG NSC 11/10 Q1019 NOSIG=
201512302130 METAR VIDP 302130Z 00000KT 0500 R28/P2000 R/29/P2000 FG NSC 11/10 Q1019 NOSIG=
201512302200 METAR VIDP 302200Z 00000KT 0500 R28/2000 R29/1900 FG NSC 10/08 Q1019 NOSIG=
201512302205 METAR VIDP NIL=
201512302230 METAR VIDP 302230Z 00000KT 0500 R28/2000 R29/1800 FG NSC 10/08 Q1019 NOSIG=
201512302300 METAR VIDP 302300Z 00000KT 0500 R28/P2000 R/29/1800 FG NSC 10/08 Q1019 NOSIG=
201512302330 METAR VIDP 302330Z 00000KT 0500 R28/P2000 R29/1200 FG NSC 09/07 Q1019 NOSIG=
