##########################################################
# Query made at 12/13/2025 04:34:21 UTC
# Time interval: from 12/10/2016 00:00  to 12/30/2016 23:59  UTC
##########################################################

##########################################################
# VIDP, New Delhi / Palam (India)
# WMO index: 42181. WIGOS ID: 0-20000-0-42181
# Latitude 28-34-00N. Longitude 077-07-00E. Altitude 225 m.
##########################################################

###################################
#  METAR/SPECI from VIDP
###################################
201612100000 METAR VIDP 100000Z 09005KT 0300 R28/0800 R29/1400 FG NSC 13/12 Q1013 NOSIG=
201612100030 METAR VIDP 100030Z 10005KT 0250 R28/0800 R29/1400 FG NSC 13/12 Q1014 NOSIG=
201612100100 METAR VIDP 100100Z 11006KT 0200 R28/0950 R29/0800 FG NSC 12/12 Q1014 NOSIG=
201612100130 METAR VIDP 100130Z 10005KT 0200 R28/0600 R29/0600 FG NSC 12/12 Q1014 BECMG 0150 FG=
201612100200 METAR VIDP 100200Z 10005KT 0200 R28/0400 R29/0500 FG NSC 12/12 Q1014 BECMG 0150 FG=
201612100205 METAR VIDP NIL=
201612100230 METAR VIDP 100230Z 11006KT 0200 R28/0500 R29/0600 FG NSC 13/13 Q1015 NOSIG=
201612100300 METAR VIDP 100300Z 11006KT 0250 R28/0500 R29/0800 FG NSC 13/13 Q1015 BECMG 0350=
201612100330 METAR VIDP 100330Z 11006KT 0400 R28/1000 R29/0900 MIFG NSC 13/12 Q1016 BECMG 0600 MIFG=
201612100400 METAR VIDP 100400Z 11006KT 0400 R28/0900 R29/1000 FG NSC 14/13 Q1016 BECMG 0600 MIFG=
201612100430 METAR VIDP 100430Z 11006KT 0500 R28/1000 R29/1000 FG NSC 14/13 Q1016 BECMG 0600 MIFG=
201612100500 METAR VIDP 100500Z 11007KT 0600 R28/1200 R29/1000 FG NSC 15/12 Q1016 BECMG 0800 MIFG=
201612100505 METAR VIDP NIL=
201612100530 METAR VIDP 100530Z 12007KT 0800 R28/1200 R29/1100 FG NSC 15/12 Q1016 NOSIG=
201612100600 METAR VIDP 100600Z 11007KT 0800 R28/1300 R29/1400 MIFG NSC 16/12 Q1016 NOSIG=
201612100630 METAR VIDP 100630Z 11004KT 1000 R28/1400 R29/1800 FU NSC 18/12 Q1015 NOSIG=
201612100700 METAR VIDP 100700Z 11006KT 1000 R28/1500 R29/1600 FU NSC 19/12 Q1015 NOSIG=
201612100730 METAR VIDP 100730Z 11006KT 1200 R28/1600 R29/1500 FU NSC 20/12 Q1014 NOSIG=
201612100800 METAR VIDP 100800Z 11006KT 1200 R28/2000 R29/1500 FU NSC 21/12 Q1014 NOSIG=
201612100830 METAR VIDP 100830Z 12005KT 1200 R28/1500 R29/1500 FU NSC 22/14 Q1013 NOSIG=
201612100900 METAR VIDP 100900Z 13005KT 1200 R28/2000 R29/1400 FU NSC 23/14 Q1013 NOSIG=
201612100905 METAR VIDP NIL=
201612100930 METAR VIDP 100930Z 12005KT 1400 R28/2000 R29/1600 FU NSC 23/13 Q1012 BECMG 1500 FU=
201612101000 METAR VIDP 101000Z 11005KT 1500 R28/2000 R29/1600 FU NSC 23/13 Q1012 NOSIG=
201612101005 METAR VIDP NIL=
201612101030 METAR VIDP 101030Z 14006KT 1500 R28/2000 R29/1700 FU NSC 23/13 Q1012 NOSIG=
201612101100 METAR VIDP 101100Z 13005KT 1500 R28/2000 R29/1800 FU NSC 22/13 Q1012 NOSIG=
201612101105 METAR VIDP NIL=
201612101130 METAR VIDP 101130Z 14006KT 1500 R28/2000 R29/1900 FU NSC 21/14 Q1012 NOSIG=
201612101200 METAR VIDP 101200Z 13005KT 1500 R28/2000 R29/1900 FU NSC 20/14 Q1012 NOSIG=
201612101205 METAR VIDP NIL=
201612101230 METAR VIDP 101230Z 13005KT 1500 R28/2000 R29/1900 FU NSC 19/14 Q1012 NOSIG=
201612101300 METAR VIDP 101300Z 13005KT 1500 R28/P2000 R29/P2000 BR NSC 17/13 Q1013 NOSIG=
201612101305 METAR VIDP NIL=
201612101330 METAR VIDP 101330Z 11005KT 1500 R28/P2000 R29/P2000 BR NSC 17/13 Q1013 NOSIG=
201612101400 METAR VIDP 101400Z 13005KT 1200 R28/P2000 R29/P2000 BR NSC 16/13 Q1013 NOSIG=
201612101430 METAR VIDP 101430Z 12004KT 1200 R28/P2000 R29/P2000 BR NSC 16/14 Q1013 NOSIG=
201612101500 METAR VIDP 101500Z 15005KT 1100 R28/P2000 R29/P2000 BR NSC 16/14 Q1013 NOSIG=
201612101530 METAR VIDP 101530Z 16004KT 1000 R28/P2000 R29/P2000 BR NSC 16/14 Q1014 NOSIG=
201612101600 METAR VIDP 101600Z 16004KT 1000 R28/P2000 R29/P2000 BR NSC 16/15 Q1014 NOSIG=
201612101605 METAR VIDP NIL=
201612101630 METAR VIDP 101630Z 15004KT 1000 R28/P2000 R29/P2000 BR NSC 16/15 Q1014 NOSIG=
201612101700 METAR VIDP 101700Z 17004KT 1000 R28/P2000 R29/P2000 BR NSC 16/15 Q1014 NOSIG=
201612101705 METAR VIDP NIL=
201612101730 METAR VIDP 101730Z 17004KT 1000 R28/P2000 R29/P2000 BR NSC 16/15 Q1014 NOSIG=
201612101800 METAR VIDP 101800Z 14004KT 1000 R28/P2000 R29/P2000 BR NSC 16/15 Q1014 NOSIG=
201612101805 METAR VIDP NIL=
201612101830 METAR VIDP 101830Z 14004KT 1000 R28/P2000 R29/P2000 BR NSC 16/15 Q1014 NOSIG=
201612101900 METAR VIDP 101900Z 11004KT 1000 R28/P2000 R29/P2000 BR NSC 16/15 Q1013 NOSIG=
201612101930 METAR VIDP 101930Z 10004KT 1000 R28/P2000 R29/P2000 BR NSC 16/15 Q1013 NOSIG=
201612102000 METAR VIDP 102000Z 11005KT 1000 R28/P2000 R29/P2000 BR NSC 15/14 Q1013 NOSIG=
201612102030 METAR VIDP 102030Z 11004KT 1000 R28/P2000 R29/P2000 BR NSC 15/14 Q1013 NOSIG=
201612102100 METAR VIDP 102100Z 08004KT 1000 R28/P2000 R29/P2000 BR NSC 15/14 Q1013 NOSIG=
201612102130 METAR VIDP 102130Z 09004KT 1000 R28/P2000 R29/1900 BR NSC 15/14 Q1013 NOSIG=
201612102200 METAR VIDP 102200Z 10006KT 1000 R28/P2000 R29/1900 BR NSC 15/14 Q1013 NOSIG=
201612102230 METAR VIDP 102230Z 09004KT 1000 R28/P2000 R29/1900 BR NSC 14/13 Q1013 NOSIG=
201612102300 METAR VIDP 102300Z 10004KT 0400 R28/0500 R29/0500 FG NSC 14/13 Q1013 BECMG VIS 0350=
201612102305 METAR VIDP NIL=
201612102330 METAR VIDP 102330Z 08004KT 0200 R28/0500 R29/0600 FG VV/// 13/13 Q1013 BECMG VIS 0150 FG=
201612110000 METAR VIDP 110000Z 12004KT 0100 R28/0250 R29/0300 FG VV/// 13/13 Q1013 NOSIG=
201612110005 METAR VIDP NIL=
201612110030 METAR VIDP 110030Z 09005KT 0000 R28/0250 R29/0300 FG VV/// 13/13 Q1014 NOSIG=
201612110100 METAR VIDP 110100Z 12005KT 0000 R28/0300 R29/0350 FG VV/// 13/13 Q1014 NOSIG=
201612110105 METAR VIDP NIL=
201612110130 METAR VIDP 110130Z 10005KT 0000 R28/0300 R29/0400 FG VV/// 12/12 Q1014 NOSIG=
201612110200 METAR VIDP 110200Z 09006KT 0000 R28/0350 R29/0250 FG VV/// 13/13 Q1015 NOSIG=
201612110205 METAR VIDP NIL=
201612110230 METAR VIDP 110230Z 12004KT 0000 R28/0350 R29/0250 FG VV/// 13/13 Q1015 NOSIG=
201612110300 METAR VIDP 110300Z 12004KT 0050 R28/0450 R29/0300 FG VV/// 13/13 Q1015 NOSIG=
201612110305 METAR VIDP NIL=
201612110330 METAR VIDP 110330Z 12006KT 0050 R28/0600 R29/0600 FG VV/// 14/13 Q1015 NOSIG=
201612110400 METAR VIDP 110400Z 12005KT 0300 R28/0900 R29/0800 FG VV/// 14/13 Q1016 BECMG 0350=
201612110430 METAR VIDP 110430Z 14005KT 0700 R28/1400 R29/1400 MIFG NSC 15/13 Q1016 BECMG 0800=
201612110500 METAR VIDP 110500Z 17005KT 0800 R28/1400 R29/1500 MIFG NSC 17/14 Q1016 NOSIG=
201612110530 METAR VIDP 110530Z 16004KT 1000 R28/1600 R29/2000 BR NSC 19/15 Q1015 NOSIG=
201612110600 METAR VIDP 110600Z 24004KT 1200 R28/1400 R29/2000 FU NSC 21/15 Q1015 NOSIG=
201612110630 METAR VIDP 110630Z 25005KT 1200 R28/1300 R29/2000 FU NSC 23/14 Q1014 NOSIG=
201612110700 METAR VIDP 110700Z 27005KT 1300 R28/1400 R29/P2000 FU NSC 24/14 Q1014 NOSIG=
201612110730 METAR VIDP 110730Z 28005KT 1400 R28/1400 R29/2000 FU NSC 25/15 Q1013 BECMG 1500=
201612110800 METAR VIDP 110800Z 30005KT 1400 R28/1400 R29/P2000 FU NSC 25/14 Q1013 BECMG 1500=
201612110830 METAR VIDP 110830Z 31006KT 1500 R28/1500 R29/P2000 FU NSC 25/15 Q1013 NOSIG=
201612110900 METAR VIDP 110900Z 30006KT 2200 HZ NSC 26/14 Q1012 BECMG 3000=
201612110930 METAR VIDP 110930Z 30007KT 2800 HZ NSC 26/13 Q1012 BECMG 3000=
201612111000 METAR VIDP 111000Z 32007KT 3000 HZ NSC 27/14 Q1012 NOSIG=
201612111030 METAR VIDP 111030Z 31007KT 3000 HZ NSC 26/14 Q1012 NOSIG=
201612111100 METAR VIDP 111100Z 27005KT 3000 HZ NSC 25/14 Q1012 NOSIG=
201612111130 METAR VIDP 111130Z 26004KT 2500 HZ NSC 25/15 Q1012 NOSIG=
201612111200 METAR VIDP 111200Z 27004KT 2200 HZ NSC 23/15 Q1012 NOSIG=
201612111230 METAR VIDP 111230Z 28004KT 2000 FU NSC 22/15 Q1012 NOSIG=
201612111300 METAR VIDP 111300Z 00000KT 1600 R28/P2000 R29/P2000 FU NSC 21/15 Q1012 BECMG 1500 FU=
201612111330 METAR VIDP 111330Z 00000KT 1500 R28/P2000 R29/P2000 FU NSC 20/15 Q1013 NOSIG=
201612111400 METAR VIDP 111400Z 00000KT 1500 R28/P2000 R29/P2000 FU NSC 20/15 Q1013 NOSIG=
201612111430 METAR VIDP 111430Z VRB02KT 1500 R28/P2000 R29/P2000 BR NSC 19/16 Q1013 NOSIG=
201612111500 METAR VIDP 111500Z 32003KT 1400 R28/P2000 R29/P2000 BR NSC 19/15 Q1013 NOSIG=
201612111530 METAR VIDP 111530Z 33003KT 1300 R28/P2000 R29/P2000 BR NSC 19/15 Q1013 NOSIG=
201612111600 METAR VIDP 111600Z 00000KT 1300 R28/P2000 R29/P2000 BR NSC 18/15 Q1013 NOSIG=
201612111605 METAR VIDP NIL=
201612111630 METAR VIDP 111630Z 00000KT 1000 R28/P2000 R29/P2000 BR NSC 18/14 Q1014 NOSIG=
201612111700 METAR VIDP 111700Z 00000KT 1000 R28/P2000 R29/P2000 BR NSC 18/14 Q1014 NOSIG=
201612111705 METAR VIDP NIL=
201612111730 METAR VIDP 111730Z 00000KT 1000 R28/P2000 R29/P2000 BR NSC 17/14 Q1014 NOSIG=
201612111800 METAR VIDP 111800Z 00000KT 1000 R28/P2000 R29/P2000 BR NSC 17/14 Q1014 NOSIG=
201612111805 METAR VIDP NIL=
201612111830 METAR VIDP 111830Z 00000KT 1000 R28/P2000 R29/P2000 BR NSC 17/14 Q1013 NOSIG=
201612111900 METAR VIDP 111900Z 00000KT 1000 R28/P2000 R29/P2000 BR NSC 16/14 Q1013 NOSIG=
201612111930 METAR VIDP 111930Z 00000KT 0900 R28/P2000 R29/P2000 MIFG NSC 16/14 Q1013 BECMG 0800 MIFG=
201612112000 METAR VIDP 112000Z 00000KT 0700 R28/P2000 R29/P2000 MIFG NSC 16/14 Q1013 BECMG 0600 MIFG=
201612112030 METAR VIDP 112030Z 00000KT 0600 R28/P2000 R29/P2000 MIFG NSC 16/14 Q1013 NOSIG=
201612112100 METAR VIDP 112100Z 00000KT 0600 R28/P2000 R29/P2000 MIFG NSC 16/14 Q1013 NOSIG=
201612112130 METAR VIDP 112130Z 00000KT 0500 R28/P2000 R29/P2000 FG NSC 15/13 Q1013 NOSIG=
201612112200 METAR VIDP 112200Z 00000KT 0400 R28/2000 R29/1700 FG NSC 15/13 Q1013 BECMG 0350 FG=
201612112230 METAR VIDP 112230Z 00000KT 0350 R28/P2000 R29/0350 FG NSC 14/13 Q1013 BECMG 0150=
201612112300 METAR VIDP 112300Z 00000KT 0250 R28/P2000 R29/0350 FG NSC 14/14 Q1013 BECMG 0150=
201612112330 METAR VIDP 112330Z 00000KT 0200 R28/1800 R29/0200 FG NSC 14/14 Q1013 BECMG 0150=
201612120000 METAR VIDP 120000Z 00000KT 0150 R28/1700 R29/0250 FG NSC 14/12 Q1013 NOSIG=
201612120030 METAR VIDP 120030Z 00000KT 0200 R28/1300 R29/0900 FG NSC 13/12 Q1013 NOSIG=
201612120100 METAR VIDP 120100Z 00000KT 0200 R28/1300 R29/0600 FG NSC 13/13 Q1013 NOSIG=
201612120130 METAR VIDP 120130Z 00000KT 0200 R28/1200 R29/0700 FG NSC 13/13 Q1014 NOSIG=
201612120200 METAR VIDP 120200Z 00000KT 0200 R28/0800 R29/0500 FG NSC 14/13 Q1014 NOSIG=
201612120230 METAR VIDP 120230Z 00000KT 0250 R28/0700 R29/0500 FG NSC 14/13 Q1014 BECMG VIS 0350 FG=
201612120300 METAR VIDP 120300Z 00000KT 0300 R28/0700 R29/0600 FG NSC 15/13 Q1015 BECMG VIS 0350 FG=
201612120305 METAR VIDP NIL=
201612120330 METAR VIDP 120330Z 00000KT 0400 R28/0900 R29/0900 MIFG NSC 16/13 Q1015 BECMG VIS 0600 MIFG=
201612120400 METAR VIDP 120400Z 23004KT 0500 R28/1300 R29/1100 MIFG NSC 17/13 Q1016 BECMG VIS 0600 MIFG=
201612120430 METAR VIDP 120430Z 26004KT 0600 R28/1300 R29/1300 MIFG NSC 17/12 Q1016 BECMG VIS 0800 MIFG=
201612120500 METAR VIDP 120500Z 27004KT 0800 R28/1300 R29/1300 MIFG NSC 20/12 Q1016 NOSIG=
201612120530 METAR VIDP 120530Z 27003KT 1000 R28/1300 R29/2000 FU NSC 22/12 Q1015 NOSIG=
201612120600 METAR VIDP 120600Z 26004KT 1300 R28/1300 R29/2000 FU NSC 23/12 Q1015 BECMG VIS 1500 FU=
201612120605 METAR VIDP NIL=
201612120630 METAR VIDP 120630Z 31004KT 1700 R28/2000 R29/2000 FU NSC 24/12 Q1015 NOSIG=
201612120700 METAR VIDP 120700Z 31003KT 1700 R28/2000 R29/2000 FU NSC 25/12 Q1015 NOSIG=
201612120730 METAR VIDP 120730Z 29007KT 2500 HZ NSC 26/06 Q1014 BECMG 3000=
201612120800 METAR VIDP 120800Z 32008KT 3000 HZ NSC 27/07 Q1014 NOSIG=
201612120830 METAR VIDP 120830Z 32006KT 3000 HZ NSC 27/07 Q1014 NOSIG=
201612120900 METAR VIDP 120900Z 30007KT 3000 HZ NSC 27/05 Q1014 NOSIG=
201612120930 METAR VIDP 120930Z 35006KT 3000 HZ NSC 27/06 Q1014 NOSIG=
201612121000 METAR VIDP 121000Z 34006KT 3000 HZ NSC 26/06 Q1014 NOSIG=
201612121030 METAR VIDP 121030Z 36007KT 3000 HZ NSC 26/05 Q1014 NOSIG=
201612121100 METAR VIDP 121100Z 32006KT 3000 HZ NSC 25/06 Q1014 NOSIG=
201612121130 METAR VIDP 121130Z 30006KT 3000 HZ NSC 25/06 Q1013 NOSIG=
201612121200 METAR VIDP 121200Z 28004KT 3000 HZ NSC 25/06 Q1013 NOSIG=
201612121205 METAR VIDP NIL=
201612121230 METAR VIDP 121230Z 00000KT 2500 HZ NSC 23/07 Q1013 NOSIG=
201612121300 METAR VIDP 121300Z 00000KT 2500 FU NSC 22/07 Q1014 NOSIG=
201612121330 METAR VIDP 121330Z 00000KT 2500 FU NSC 21/08 Q1014 NOSIG=
201612121400 METAR VIDP 121400Z 00000KT 2500 FU NSC 20/08 Q1014 NOSIG=
201612121430 METAR VIDP 121430Z 00000KT 2500 FU NSC 19/09 Q1014 NOSIG=
201612121500 METAR VIDP 121500Z 00000KT 2200 FU NSC 18/09 Q1014 NOSIG=
201612121530 METAR VIDP 121530Z 00000KT 2000 FU NSC 18/09 Q1014 BECMG 1500=
201612121600 METAR VIDP 121600Z 00000KT 1800 FU NSC 17/09 Q1014 BECMG 1500 FU=
201612121605 METAR VIDP NIL=
201612121630 METAR VIDP 121630Z 00000KT 1500 FU NSC 16/10 Q1015 NOSIG=
201612121700 METAR VIDP 121700Z 00000KT 1500 FU NSC 16/10 Q1015 NOSIG=
201612121730 METAR VIDP 121730Z 00000KT 1500 FU NSC 16/10 Q1015 NOSIG=
201612121800 METAR VIDP 121800Z 00000KT 1500 FU NSC 16/10 Q1014 NOSIG=
201612121805 METAR VIDP NIL=
201612121830 METAR VIDP 121830Z 26004KT 1500 R28/P2000 R29/P2000 FU NSC 16/11 Q1014 NOSIG=
201612121900 METAR VIDP 121900Z 26003KT 1500 R28/P2000 R29/P2000 FU NSC 16/12 Q1014 NOSIG=
201612121930 METAR VIDP 121930Z 30003KT 1500 R28/P2000 R29/P2000 BR NSC 15/11 Q1014 NOSIG=
201612122000 METAR VIDP 122000Z 00000KT 1400 R28/P2000 R29/P2000 BR NSC 15/11 Q1014 NOSIG=
201612122030 METAR VIDP 122030Z 00000KT 1400 R28/P2000 R29/P2000 BR NSC 15/11 Q1014 NOSIG=
201612122100 METAR VIDP 122100Z 00000KT 1200 R28/P2000 R29/P2000 BR NSC 14/10 Q1014 NOSIG=
201612122130 METAR VIDP 122130Z 00000KT 1100 R28/P2000 R29/P2000 BR NSC 14/10 Q1014 NOSIG=
201612122200 METAR VIDP 122200Z 00000KT 1000 R28/P2000 R29/P2000 BR NSC 14/10 Q1014 NOSIG=
201612122205 METAR VIDP NIL=
201612122230 METAR VIDP 122230Z 00000KT 1000 R28/P2000 R29/P2000 BR NSC 14/10 Q1014 BECMG 0800=
201612122300 METAR VIDP 122300Z 00000KT 0800 R28/P2000 R29/P2000 MIFG NSC 14/11 Q1013 NOSIG=
201612122330 METAR VIDP 122330Z 00000KT 0700 R28/P2000 R29/P2000 MIFG NSC 14/11 Q1013 BECMG 0600 MIFG=
201612130000 METAR VIDP 130000Z 00000KT 0600 R28/P2000 R29/1900 MIFG NSC 13/10 Q1013 NOSIG=
201612130005 METAR VIDP NIL=
201612130030 METAR VIDP 130030Z 00000KT 0600 R28/P2000 R29/1900 MIFG NSC 13/10 Q1013 NOSIG=
201612130100 METAR VIDP 130100Z 00000KT 0400 R28/P2000 R29/1700 FG NSC 13/10 Q1014 BECMG 0350 FG=
201612130105 METAR VIDP NIL=
201612130130 METAR VIDP 130130Z 00000KT 0300 R28/P2000 R29/1600 FG NSC 12/10 Q1014 NOSIG=
201612130200 METAR VIDP 130200Z 00000KT 0300 R28/P2000 R29/1000 FG NSC 12/10 Q1014 NOSIG=
201612130230 METAR VIDP 130230Z 00000KT 0500 R28/1800 R29/0900 FG FEW100 14/13 Q1015 BECMG VIS 0600 MIFG=
201612130300 METAR VIDP 130300Z 16003KT 0500 R28/4800 R29/1000 FG SCT100 14/13 Q1015 BECMG 0600 MIFG=
201612130330 METAR VIDP 130330Z 16003KT 0500 R28/1200 R29/1200 MIFG SCT100 16/14 Q1016 BECMG 0800 MIFG=
201612130400 METAR VIDP 130400Z 27004KT 0800 R28/1400 R29/1500 MIFG SCT100 18/14 Q1016 NOSIG=
201612130430 METAR VIDP 130430Z 26004KT 1000 R28/1500 R29/1500 MIFG SCT100 18/14 Q1016 NOSIG=
201612130500 METAR VIDP 130500Z 30004KT 1200 R28/1600 R29/2000 FU SCT100 20/13 Q1016 BECMG 1500 FU=
201612130505 METAR VIDP NIL=
201612130530 METAR VIDP 130530Z 30003KT 1400 R28/1500 R29/P2000 FU SCT100 22/13 Q1016 BECMG 1500 FU=
201612130600 METAR VIDP 130600Z 27003KT 1500 R28/1800 R29/P2000 FU SCT100 23/09 Q1016 NOSIG=
201612130605 METAR VIDP NIL=
201612130630 METAR VIDP 130630Z 33005KT 1500 R28/P2000 R29/P2000 FU SCT100 24/07 Q1016 NOSIG=
201612130700 METAR VIDP 130700Z 32005KT 2000 FU SCT100 25/07 Q1016 NOSIG=
201612130705 METAR VIDP NIL=
201612130730 METAR VIDP 130730Z 32005KT 2200 FU SCT100 25/07 Q1015 NOSIG=
201612130800 METAR VIDP 130800Z 32005KT 2200 FU SCT100 25/07 Q1015 NOSIG=
201612130805 METAR VIDP NIL=
201612130830 METAR VIDP 130830Z 31004KT 2200 FU SCT100 25/08 Q1015 NOSIG=
201612130900 METAR VIDP 130900Z 29004KT 2200 FU NSC 26/08 Q1015 NOSIG=
201612130930 METAR VIDP 130930Z 31005KT 2200 FU SCT100 26/08 Q1015 NOSIG=
201612131000 METAR VIDP 131000Z 31006KT 2200 FU NSC 25/08 Q1014 NOSIG=
201612131005 METAR VIDP NIL=
201612131030 METAR VIDP 131030Z 31006KT 2200 FU SCT100 25/09 Q1014 NOSIG=
201612131100 METAR VIDP 131100Z 31006KT 2200 FU NSC 25/09 Q1014 NOSIG=
201612131130 METAR VIDP 131130Z 33006KT 2200 FU NSC 23/09 Q1014 NOSIG=
201612131200 METAR VIDP 131200Z 34006KT 2200 FU NSC 22/09 Q1014 NOSIG=
201612131230 METAR VIDP 131230Z 34006KT 2200 FU NSC 21/09 Q1014 NOSIG=
201612131300 METAR VIDP 131300Z 34006KT 2200 FU NSC 21/09 Q1014 NOSIG=
201612131330 METAR VIDP 131330Z 00000KT 2200 FU NSC 20/09 Q1015 NOSIG=
201612131400 METAR VIDP 131400Z 00000KT 2200 FU NSC 19/09 Q1015 NOSIG=
201612131430 METAR VIDP 131430Z 00000KT 1800 R28/P2000 R29/P2000 FU NSC 18/09 Q1015 BECMG 1500 FU=
201612131500 METAR VIDP 131500Z 00000KT 1700 R28/P2000 R29/P2000 FU NSC 18/10 Q1015 BECMG 1500 FU=
201612131530 METAR VIDP 131530Z 00000KT 1400 R28/P2000 R29/P2000 FU NSC 17/11 Q1016 NOSIG=
201612131600 METAR VIDP 131600Z 00000KT 1400 R28/P2000 R29/P2000 FU NSC 17/11 Q1016 NOSIG=
201612131630 METAR VIDP 131630Z 00000KT 1400 R28/P2000 R29/P2000 FU NSC 16/11 Q1016 NOSIG=
201612131700 METAR VIDP 131700Z 00000KT 1200 R28/P2000 R29/P2000 FU NSC 16/11 Q1016 NOSIG=
201612131705 METAR VIDP NIL=
201612131730 METAR VIDP 131730Z 00000KT 1200 R28/P2000 R29/P2000 FU NSC 16/11 Q1016 NOSIG=
201612131800 METAR VIDP 131800Z 00000KT 1200 R28/P2000 R29/P2000 FU NSC 16/11 Q1016 NOSIG=
201612131805 METAR VIDP NIL=
201612131830 METAR VIDP NIL=
201612131905 METAR VIDP NIL=
201612131930 METAR VIDP 131930Z 00000KT 1200 R28/P2000 R29/P2000 BR NSC 15/11 Q1016 NOSIG=
201612132000 METAR VIDP 132000Z 00000KT 1200 R28/P2000 R29/P2000 BR NSC 14/11 Q1016 NOSIG=
201612132005 METAR VIDP NIL=
201612132030 METAR VIDP 132030Z 00000KT 1000 R28/P2000 R29/P2000 BR NSC 14/11 Q1016 NOSIG=
201612132100 METAR VIDP 132100Z 00000KT 1000 R28/P2000 R29/P2000 BR NSC 14/12 Q1016 NOSIG=
201612132105 METAR VIDP NIL=
201612132130 METAR VIDP 132130Z 00000KT 1000 R28/P2000 R29/P2000 BR NSC 13/11 Q1016 NOSIG=
201612132200 METAR VIDP 132200Z 00000KT 1000 R28/P2000 R29/P2000 BR NSC 13/11 Q1016 NOSIG=
201612132205 METAR VIDP NIL=
201612132230 METAR VIDP 132230Z 00000KT 0900 R28/2000 R29/1300 MIFG NSC 12/11 Q1016 NOSIG=
201612132300 METAR VIDP 132300Z 00000KT 0900 R28/1800 R29/1200 MIFG NSC 12/11 Q1015 BECMG 0800 MIFG=
201612132305 METAR VIDP NIL=
201612132330 METAR VIDP 132330Z 00000KT 0700 R28/1800 R29/1200 MIFG NSC 12/11 Q1015 BECMG 0600 MIFG=
201612140000 METAR VIDP 140000Z 00000KT 0500 R28/1600 R29/1200 FG NSC 11/10 Q1016 NOSIG=
201612140005 METAR VIDP NIL=
201612140030 METAR VIDP 140030Z 27004KT 0000 R28/0150 R29/0125 FG NSC 11/11 Q1016 NOSIG=
201612140100 METAR VIDP 140100Z 28003KT 0000 R28/0125 R29/0125 FG VV/// 11/11 Q1016 NOSIG=
201612140105 METAR VIDP NIL=
201612140130 METAR VIDP 140130Z 27003KT 0000 R28/0200 R29/0100 FG NSC 11/11 Q1016 NOSIG=
201612140200 METAR VIDP 140200Z 27003KT 0050 R28/0200 R29/0100 FG NSC 11/11 Q1017 NOSIG=
201612140205 METAR VIDP NIL=
201612140230 METAR VIDP 140230Z 26006KT 0050 R28/0700 R29/0125 FG NSC 11/11 Q1017 BECMG 0150 FG=
201612140300 METAR VIDP 140300Z 27004KT 0100 R28/0600 R29/0200 FG NSC 12/12 Q1018 BECMG 0150 FG=
201612140305 METAR VIDP NIL=
201612140330 METAR VIDP 140330Z 28004KT 0250 R28/0700 R29/0700 FG NSC 13/12 Q1018 BECMG 0350 FG=
201612140400 METAR VIDP 140400Z 28005KT 0600 R28/0900 R29/0900 MIFG NSC 14/12 Q1019 BECMG 0800 MIFG=
201612140430 METAR VIDP 140430Z 28006KT 0700 R28/1100 R29/1100 MIFG NSC 16/12 Q1019 BECMG 0800 FU=
201612140500 METAR VIDP 140500Z 28007KT 0700 R28/1200 R29/1600 FU NSC 17/12 Q1019 BECMG 0800 FU=
201612140530 METAR VIDP 140530Z 27007KT 0800 R28/1400 R29/1400 FU NSC 18/12 Q1019 NOSIG=
201612140600 METAR VIDP 140600Z 30007KT 1000 R28/1600 R29/2000 FU NSC 19/12 Q1018 NOSIG=
201612140630 METAR VIDP 140630Z 30006KT 1300 R28/1700 R29/P2000 FU NSC 20/12 Q1018 BECMG VIS 1500 FU=
201612140700 METAR VIDP 140700Z 30007KT 1500 R28/1700 R29/P2000 FU NSC 21/11 Q1018 NOSIG=
201612140730 METAR VIDP 140730Z 30006KT 2000 FU NSC 22/12 Q1017 NOSIG=
201612140800 METAR VIDP 140800Z 30006KT 2100 FU NSC 23/11 Q1017 NOSIG=
201612140830 METAR VIDP 140830Z 30006KT 2100 FU NSC 23/08 Q1017 NOSIG=
201612140900 METAR VIDP 140900Z 30007KT 2100 FU NSC 23/08 Q1017 NOSIG=
201612140930 METAR VIDP 140930Z 29007KT 2100 FU NSC 23/11 Q1016 NOSIG=
201612141000 METAR COR VIDP 141000Z 29007KT 2100 FU NSC 23/08 Q1016 NOSIG=
201612141005 METAR VIDP NIL=
201612141030 METAR VIDP 141030Z 29007KT 2100 FU NSC 23/08 Q1016 NOSIG=
201612141100 METAR VIDP 141100Z 31006KT 2200 FU NSC 22/08 Q1016 NOSIG=
201612141105 METAR VIDP NIL=
201612141130 METAR VIDP 141130Z 30006KT 2200 FU NSC 21/08 Q1016 NOSIG=
201612141200 METAR VIDP 141200Z 29005KT 2200 FU NSC 20/08 Q1016 NOSIG=
201612141230 METAR VIDP 141230Z 30003KT 2200 FU NSC 19/09 Q1017 NOSIG=
201612141300 METAR VIDP 141300Z 32004KT 2200 FU NSC 19/09 Q1017 NOSIG=
201612141330 METAR VIDP 141330Z 33004KT 2200 FU NSC 19/09 Q1017 NOSIG=
201612141400 METAR VIDP 141400Z 31004KT 2200 FU NSC 18/10 Q1017 NOSIG=
201612141430 METAR VIDP 141430Z 24003KT 2100 FU NSC 17/10 Q1017 NOSIG=
201612141500 METAR VIDP 141500Z 25003KT 2000 FU NSC 16/10 Q1018 NOSIG=
201612141530 METAR VIDP 141530Z 25003KT 1800 R28/P2000 R29/P2000 FU NSC 15/10 Q1018 NOSIG=
201612141600 METAR VIDP 141600Z 25004KT 1800 BR NSC 15/11 Q1018 NOSIG=
201612141630 METAR VIDP 141630Z 24004KT 1800 R28/P2000 R29/P2000 BR NSC 15/11 Q1018 NOSIG=
201612141700 METAR VIDP 141700Z 26004KT 1600 R28/P2000 R29/P2000 BR NSC 15/12 Q1018 BECMG 1500 BR=
201612141705 METAR VIDP NIL=
201612141730 METAR VIDP 141730Z 26003KT 1500 R28/P2000 R29/P2000 BR NSC 15/12 Q1018 NOSIG=
201612141800 METAR VIDP 141800Z 26003KT 1000 R28/P2000 R29/P2000 BR NSC 15/12 Q1017 NOSIG=
201612141830 METAR VIDP 141830Z 000003KT 1000 R28/P2000 R29/P2000 BR NSC 15/12 Q1017 NOSIG=
201612141905 METAR VIDP NIL=
201612141930 METAR VIDP 141930Z 25004KT 0800 R28/P2000 R29/P2000 MIFG NSC 12/11 Q1017 NOSIG=
201612142000 METAR VIDP 142000Z 25004KT 0800 R28/P2000 R29/P2000 MIFG NSC 12/11 Q1016 NOSIG=
201612142005 METAR VIDP NIL=
201612142030 METAR VIDP 142030Z 25004KT 0800 R28/P2000 R29/P2000 MIFG NSC 12/11 Q1016 NOSIG=
201612142100 METAR VIDP 142100Z 24004KT 0700 R28/P2000 R29/P2000 MIFG NSC 12/11 Q1016 TEMPO 0600 MIFG=
201612142105 METAR VIDP NIL=
201612142130 METAR VIDP 142130Z 24004KT 0600 R28/P2000 R29/P2000 MIFG NSC 12/11 Q1016 NOSIG=
201612142200 METAR VIDP 142200Z 24004KT 0500 R28/P2000 R29/P1900 MIFG NSC 12/11 Q1016 NOSIG=
201612142205 METAR VIDP NIL=
201612142230 METAR VIDP 142230Z 23003KT 0500 R28/P2000 R29/P2000 MIFG NSC 11/10 Q1016 NOSIG=
201612142300 METAR VIDP 142300Z 23004KT 0500 R28/P2000 R29/P1900 MIFG NSC 11/10 Q1016 NOSIG=
201612142305 METAR VIDP NIL=
201612142330 METAR VIDP 142330Z 24003KT 0400 R28/2000 R29/1900 FG NSC 11/10 Q1016 BECMG 0350 FG=
201612150000 METAR VIDP 150000Z 23003KT 0400 R28/2000 R29/1700 FG NSC 11/10 Q1016 BECMG 0350 FG=
201612150030 METAR VIDP 150030Z 22004KT 0350 R28/P2000 R29/1700 FG NSC 10/09 Q1016 NOSIG=
201612150100 METAR VIDP 150100Z 21003KT 0350 R28/P2000 R29/1700 FG NSC 10/09 Q1016 NOSIG=
201612150130 METAR VIDP 150130Z 21003KT 0350 R28/P2000 R29/1700 FG NSC 10/09 Q1016 NOSIG=
201612150200 METAR VIDP 150200Z 24003KT 0350 R28/1300 R29/1000 FG NSC 10/09 Q1016 NOSIG=
201612150230 METAR VIDP 150230Z 23004KT 0350 R28/2000 R29/1300 FG NSC 11/09 Q1017 NOSIG=
201612150300 METAR VIDP 150300Z 25004KT 0400 R28/2000 R29/1400 FG NSC 12/09 Q1017 NOSIG=
201612150330 METAR VIDP 150330Z 25004KT 0500 R28/2000 R29/1500 FG NSC 13/09 Q1018 BECMG 0600 MIFG=
201612150400 METAR VIDP 150400Z 23004KT 0700 R28/2000 R29/2000 MIFG NSC 14/10 Q1018 BECMG 0800 MIFG=
201612150405 METAR VIDP NIL=
201612150430 METAR VIDP 150430Z 26006KT 1000 R28/2000 R29/2000 FU NSC 16/10 Q1019 NOSIG=
201612150500 METAR VIDP 150500Z 27008KT 1200 R28/2000 R29/2000 FU NSC 17/10 Q1019 BECMG 1500 MIFG=
201612150505 METAR VIDP NIL=
201612150530 METAR VIDP 150530Z 26006KT 1500 R28/2000 R29/2000 FU NSC 18/11 Q1019 NOSIG=
201612150600 METAR VIDP 150600Z 31006KT 1700 R28/2000 R29/2000 FU NSC 19/11 Q1018 NOSIG=
201612150630 METAR VIDP 150630Z 31006KT 2000 FU NSC 20/11 Q1018 NOSIG=
201612150700 METAR VIDP 150700Z 31006KT 2100 FU NSC 21/11 Q1017 NOSIG=
201612150730 METAR VIDP 150730Z 30009KT 2200 FU NSC 22/11 Q1017 NOSIG=
201612150800 METAR VIDP 150800Z 27009KT 2200 FU NSC 23/08 Q1017 NOSIG=
201612150830 METAR VIDP 150830Z 30006G16KT 2800 HZ NSC 23/08 Q1016 BECMG 3000=
201612150900 METAR VIDP 150900Z 30006G16KT 3500 HZ NSC 23/08 Q1016 NOSIG=
201612150930 METAR VIDP 150930Z 30006G16KT 4000 HZ NSC 24/08 Q1016 NOSIG=
201612151000 METAR VIDP 151000Z 30006G16KT 4000 HZ NSC 24/08 Q1015 NOSIG=
201612151030 METAR VIDP 151030Z 30006G16KT 4500 HZ NSC 24/05 Q1015 BECMG 5000=
201612151100 METAR VIDP 151100Z 30006G16KT 5000 HZ NSC 23/05 Q1015 NOSIG=
201612151105 METAR VIDP NIL=
201612151130 METAR VIDP 151130Z 28006KT 5000 HZ NSC 21/05 Q1015 NOSIG=
201612151200 METAR VIDP 151200Z 30005KT 4500 HZ NSC 20/05 Q1016 NOSIG=
201612151230 METAR VIDP 151230Z 30005KT 4000 HZ NSC 20/06 Q1016 NOSIG=
201612151300 METAR VIDP 151300Z 27003KT 3500 HZ NSC 19/06 Q1016 NOSIG=
201612151330 METAR VIDP 151330Z 26003KT 3200 HZ NSC 18/07 Q1016 NOSIG=
201612151400 METAR VIDP 151400Z 26003KT 3200 HZ NSC 17/07 Q1016 NOSIG=
201612151430 METAR VIDP 151430Z 00000KT 3200 HZ NSC 17/07 Q1017 BECMG 3000 HZ=
201612151500 METAR VIDP 151500Z 00000KT 3000 HZ NSC 16/07 Q1017 NOSIG=
201612151530 METAR VIDP 151530Z 00000KT 2500 HZ NSC 16/07 Q1017 NOSIG=
201612151600 METAR VIDP 151600Z 00000KT 2500 HZ NSC 15/07 Q1017 NOSIG=
201612151630 METAR VIDP 151630Z 00000KT 2500 HZ NSC 15/07 Q1017 NOSIG=
201612151700 METAR VIDP 151700Z 00000KT 2200 HZ NSC 13/07 Q1017 NOSIG=
201612151730 METAR VIDP 151730Z 00000KT 2200 HZ NSC 13/07 Q1017 NOSIG=
201612151800 METAR VIDP 151800Z 00000KT 2200 HZ NSC 13/07 Q1017 NOSIG=
201612151830 METAR VIDP 151830Z 00000KT 2200 HZ NSC 13/07 Q1017 NOSIG=
201612151900 METAR VIDP 151900Z 00000KT 2200 HZ NSC 12/07 Q1017 NOSIG=
201612151905 METAR VIDP NIL=
201612151930 METAR VIDP 151930Z 00000KT 1800 R28/P2000 R29/P2000 FU NSC 12/07 Q1017 BECMG 1500 FU=
201612152000 METAR VIDP 152000Z 00000KT 1500 R28/P2000 R29/P2000 FU NSC 12/07 Q1017 NOSIG=
201612152005 METAR VIDP NIL=
201612152030 METAR VIDP 152030Z 00000KT 1500 R28/P2000 R29/P2000 BR NSC 11/07 Q1017 NOSIG=
201612152100 METAR VIDP 152100Z 00000KT 1500 R28/P2000 R29/P2000 BR NSC 11/07 Q1017 NOSIG=
201612152130 METAR VIDP 152130Z 00000KT 1500 R28/P2000 R29/P2000 BR NSC 11/07 Q1017 NOSIG=
201612152200 METAR VIDP 152200Z 00000KT 1200 R28/P2000 R29/P2000 BR NSC 10/07 Q1017 NOSIG=
201612152230 METAR VIDP 152230Z 00000KT 1200 R28/P2000 R29/P2000 BR NSC 10/07 Q1017 NOSIG=
201612152300 METAR VIDP 152300Z 00000KT 1200 R28/P2000 R29/P2000 BR NSC 10/07 Q1017 NOSIG=
201612152330 METAR VIDP 152330Z 00000KT 1200 R28/P2000 R29/P2000 BR NSC 10/07 Q1017 NOSIG=
201612160000 METAR VIDP 160000Z 00000KT 1200 R28/P2000 R29/P2000 BR NSC 09/07 Q1017 NOSIG=
201612160030 METAR VIDP 160030Z 00000KT 1000 R28/P2000 R29/P2000 BR NSC 09/08 Q1017 BECMG 0800 MIFG=
201612160100 METAR VIDP 160100Z 00000KT 1000 R28/P2000 R29/P2000 BR NSC 09/08 Q1018 BECMG 0800 MIFG=
201612160130 METAR VIDP 160130Z 00000KT 0800 R28/P2000 R29/P2000 MIFG NSC 09/07 Q1018 NOSIG=
201612160200 METAR VIDP 160200Z 00000KT 0800 R28/P2000 R29/1600 MIFG NSC 08/07 Q1018 NOSIG=
201612160230 METAR VIDP 160230Z 00000KT 1000 R28/P2000 R29/1500 BR NSC 10/08 Q1019 NOSIG=
201612160300 METAR VIDP 160300Z 00000KT 1000 R28/P2000 R29/1500 BR NSC 11/08 Q1019 NOSIG=
201612160330 METAR VIDP 160330Z 00000KT 1000 R28/P2000 R29/P2000 BR NSC 12/08 Q1019 NOSIG=
201612160400 METAR VIDP 160400Z 26003KT 1000 R28/P2000 R29/1800 FU NSC 14/08 Q1020 NOSIG=
201612160430 METAR VIDP 160430Z 26003KT 1200 R28/P2000 R29/1900 FU NSC 16/08 Q1021 NOSIG=
201612160500 METAR VIDP 160500Z 26003KT 1200 R28/P2000 R29/1900 FU NSC 18/08 Q1021 NOSIG=
201612160505 METAR VIDP NIL=
201612160530 METAR VIDP 160530Z 32004KT 1400 R28/1900 R29/P2000 FU NSC 20/08 Q1021 BECMG 1500 FU=
201612160600 METAR VIDP 160600Z 32004KT 1400 R28/1900 R29/P2000 FU NSC 20/08 Q1021 BECMG 1500 FU=
201612160630 METAR VIDP 160630Z 31004KT 1500 R28/1500 R29/2000 FU NSC 21/08 Q1020 NOSIG=
201612160700 METAR VIDP 160700Z 31004KT 1500 R28/1500 R29/2000 FU NSC 22/08 Q1020 NOSIG=
201612160730 METAR VIDP 160730Z 29004KT 1500 R28/1500 R29/2000 FU NSC 23/07 Q1019 NOSIG=
201612160800 METAR VIDP 160800Z 30006KT 1500 R28/1600 R29/1500 FU NSC 23/07 Q1018 NOSIG=
201612160805 METAR VIDP NIL=
201612160830 METAR VIDP 160830Z 29005KT 1500 R28/1600 R29/1500 FU NSC 23/07 Q1018 NOSIG=
201612160900 METAR COR VIDP 160900Z 28006KT 2100 FU NSC 23/08 Q1018 NOSIG=
201612160905 METAR VIDP NIL=
201612160930 METAR VIDP 160930Z 31006KT 2100 FU NSC 23/07 Q1018 NOSIG=
201612161000 METAR VIDP 161000Z 26006KT 2200 FU NSC 23/07 Q1018 NOSIG=
201612161030 METAR VIDP 161030Z 32006KT 2200 FU NSC 23/06 Q1018 NOSIG=
201612161100 METAR VIDP 161100Z 27006KT 2500 FU NSC 23/06 Q1018 NOSIG=
201612161130 METAR VIDP 161130Z 30004KT 2500 FU NSC 22/06 Q1018 NOSIG=
201612161200 METAR VIDP 161200Z 34004KT 2500 FU NSC 22/06 Q1017 NOSIG=
201612161205 METAR VIDP NIL=
201612161230 METAR VIDP 161230Z 29003KT 2200 FU NSC 21/06 Q1017 NOSIG=
201612161300 METAR VIDP 161300Z 00000KT 2200 FU NSC 19/07 Q1017 NOSIG=
201612161330 METAR VIDP 161330Z 00000KT 2200 FU NSC 18/08 Q1017 NOSIG=
201612161400 METAR VIDP 161400Z 00000KT 2200 FU NSC 17/08 Q1018 NOSIG=
201612161430 METAR VIDP 161430Z 00000KT 2200 FU NSC 17/08 Q1018 NOSIG=
201612161500 METAR VIDP 161500Z 00000KT 2200 FU NSC 17/09 Q1018 NOSIG=
201612161530 METAR VIDP 161530Z 00000KT 1800 FU NSC 17/09 Q1018 NOSIG=
201612161600 METAR VIDP 161600Z 00000KT 1600 R28/P2000 R29/P2000 FU NSC 16/09 Q1018 BECMG 1500=
201612161605 METAR VIDP NIL=
201612161630 METAR VIDP 161630Z 00000KT 1500 R28/P2000 R29/P2000 FU NSC 15/09 Q1018 NOSIG=
201612161700 METAR VIDP 161700Z 00000KT 1400 R28/P2000 R29/P2000 FU NSC 15/09 Q1018 NOSIG=
201612161705 METAR VIDP NIL=
201612161730 METAR VIDP 161730Z 00000KT 1300 R28/P2000 R29/P1900 FU NSC 14/09 Q1018 NOSIG=
201612161800 METAR VIDP 161800Z 00000KT 1000 R28/P2000 R29/P2000 BR NSC 13/09 Q1018 BECMG 0800=
201612161830 METAR VIDP 161830Z 00000KT 1000 R28/P2000 R29/P2000 BR NSC 13/09 Q1018 BECMG 0800=
201612161900 METAR VIDP 161900Z 00000KT 1000 R28/P2000 R29/1900 BR NSC 13/10 Q1018 BECMG 0800=
201612161930 METAR VIDP 161930Z 00000KT 0800 R28/P2000 R29/P2000 MIFG NSC 12/10 Q1018 NOSIG=
201612162000 METAR VIDP 162000Z 00000KT 0800 R28/P2000 R29/P2000 MIFG NSC 12/10 Q1018 NOSIG=
201612162030 METAR VIDP 162030Z 00000KT 1000 R28/P2000 R29/P2000 BR NSC 12/10 Q1018 NOSIG=
201612162100 METAR VIDP 162100Z 00000KT 1000 R28/P2000 R29/P2000 BR NSC 12/10 Q1017 BECMG 0800=
201612162105 METAR VIDP NIL=
201612162130 METAR VIDP 162130Z 00000KT 1000 R28/P2000 R29/P2000 BR NSC 12/10 Q1017 BECMG 0800=
201612162200 METAR VIDP 162200Z 00000KT 0900 R28/P2000 R29/P1600 MIFG NSC 11/10 Q1017 BECMG 0800=
201612162205 METAR VIDP NIL=
201612162230 METAR VIDP 162230Z 00000KT 0800 R28/P2000 R29/P1500 MIFG NSC 11/10 Q1017 BECMG 0600=
201612162300 METAR VIDP 162300Z 00000KT 0600 R28/P2000 R29/P1200 MIFG NSC 11/10 Q1017 NOSIG=
201612162305 METAR VIDP NIL=
201612162330 METAR VIDP 162330Z 00000KT 0600 R28/1800 R29/1400 MIFG NSC 11/10 Q1017 NOSIG=
201612170000 METAR VIDP 170000Z 00000KT 0600 R28/1600 R29/1500 MIFG NSC 11/10 Q1017 NOSIG=
201612170005 METAR VIDP NIL=
201612170030 METAR VIDP 170030Z 26003KT 0600 R28/1600 R29/1500 MIFG NSC 10/10 Q1017 NOSIG=
201612170100 METAR VIDP 170100Z 26005KT 0600 R28/1800 R29/1500 MIFG NSC 09/09 Q1018 NOSIG=
201612170105 METAR VIDP NIL=
201612170130 METAR VIDP 170130Z 25003KT 0600 R28/1400 R29/0800 MIFG NSC 09/09 Q1018 NOSIG=
201612170200 METAR VIDP 170200Z 25004KT 0400 R28/1000 R29/0900 FG NSC 09/09 Q1018 NOSIG=
201612170205 METAR VIDP NIL=
201612170230 METAR VIDP 170230Z 26003KT 0400 R28/0900 R29/0800 FG NSC 10/10 Q1019 NOSIG=
201612170300 METAR VIDP 170300Z 00000KT 0500 R28/1000 R29/0900 FG NSC 11/10 Q1019 BECMG 0600 MIFG=
201612170305 METAR VIDP NIL=
201612170330 METAR VIDP 170330Z 27003KT 0700 R28/1000 R29/1200 MIFG NSC 12/11 Q1019 TEMPO 0800 MIFG=
201612170400 METAR VIDP 170400Z 26003KT 0800 R28/1000 R29/1200 MIFG NSC 13/11 Q1019 NOSIG=
201612170430 METAR VIDP 170430Z 26005KT 1000 R28/1200 R29/2000 BR NSC 14/11 Q1020 NOSIG=
201612170500 METAR VIDP 170500Z 27005KT 1200 R28/2000 R29/2000 FU NSC 16/11 Q1020 NOSIG=
201612170505 METAR VIDP NIL=
201612170530 METAR VIDP 170530Z 29005KT 1200 R28/1900 R29/2000 FU NSC 17/11 Q1019 NOSIG=
201612170600 METAR VIDP 170600Z 29005KT 1200 R28/P2000 R29/P2000 FU NSC 17/11 Q1019 NOSIG=
201612170630 METAR VIDP 170630Z 28005KT 1300 R28/1700 R29/1900 FU NSC 18/10 Q1018 NOSIG=
201612170700 METAR VIDP 170700Z 29005KT 1300 R28/1600 R29/1700 FU NSC 19/11 Q1018 BECMG 1500 FU=
201612170705 METAR VIDP NIL=
201612170730 METAR VIDP 170730Z 29008KT 1500 R28/1500 R29/1700 FU NSC 20/11 Q1017 NOSIG=
201612170800 METAR VIDP 170800Z 31006KT 1700 R28/1700 R29/1700 FU NSC 21/11 Q1017 NOSIG=
201612170830 METAR VIDP 170830Z 27005KT 1200 R28/1300 R29/1800 FU NSC 21/11 Q1016 NOSIG=
201612170900 METAR VIDP 170900Z 27005KT 1200 R28/1300 R29/1800 FU NSC 21/11 Q1016 NOSIG=
201612170930 METAR VIDP 170930Z 27005KT 1200 R28/1300 R29/1800 FU NSC 21/11 Q1016 NOSIG=
201612171000 METAR VIDP 171000Z 30006KT 1400 R28/1400 R29/2000 FU NSC 21/08 Q1016 NOSIG=
201612171030 METAR VIDP 171030Z 29007KT 1400 R28/1400 R29/2000 FU NSC 21/08 Q1016 BECMG 1500 FU=
201612171100 METAR VIDP 171100Z 29007KT 1700 R28/1700 R29/2000 FU NSC 21/08 Q1016 NOSIG=
201612171130 METAR VIDP 171130Z 29006KT 2200 FU NSC 20/07 Q1016 NOSIG=
201612171200 METAR VIDP 171200Z 27004KT 2200 FU NSC 19/08 Q1016 NOSIG=
201612171205 METAR VIDP NIL=
201612171230 METAR VIDP 171230Z 00000KT 2200 FU NSC 17/08 Q1016 NOSIG=
201612171300 METAR COR VIDP 171300Z 27003KT 2100 FU NSC 17/08 Q1016 NOSIG=
201612171305 METAR VIDP NIL=
201612171330 METAR VIDP 171330Z 00000KT 1800 R28/P2000 R29/P2000 FU NSC 16/08 Q1016 BECMG 1500 FU=
201612171400 METAR VIDP 171400Z 00000KT 1500 R28/P2000 R29/P2000 FU NSC 16/08 Q1016 NOSIG=
201612171430 METAR VIDP 171430Z 28003KT 1200 R28/P2000 R29/P2000 FU NSC 15/09 Q1017 NOSIG=
201612171500 METAR VIDP 171500Z 00000KT 1200 R28/P2000 R29/P2000 FU NSC 14/09 Q1017 NOSIG=
201612171530 METAR VIDP 171530Z 00000KT 1000 R28/P2000 R29/P2000 BR NSC 14/10 Q1017 BECMG 0800 MIFG=
201612171600 METAR VIDP 171600Z 00000KT 0800 R28/P2000 R29/P2000 MIFG NSC 13/11 Q1017 NOSIG=
201612171630 METAR VIDP 171630Z 00000KT 0800 R28/P2000 R29/P2000 MIFG NSC 13/11 Q1017 NOSIG=
201612171700 METAR VIDP 171700Z 00000KT 0800 R28/P2000 R29/P2000 MIFG NSC 13/11 Q1017 NOSIG=
201612171730 METAR VIDP 171730Z 00000KT 0800 R28/P2000 R29/P2000 MIFG NSC 13/10 Q1018 NOSIG=
201612171800 METAR VIDP 171800Z 00000KT 0800 R28/P2000 R29/P2000 MIFG NSC 12/09 Q1018 NOSIG=
201612171830 METAR VIDP 171830Z 00000KT 0800 R28/P2000 R29/P2000 MIFG NSC 12/09 Q1018 NOSIG=
201612171900 METAR VIDP 171900Z 00000KT 0800 R28/P2000 R29/P2000 MIFG NSC 12/08 Q1017 NOSIG=
201612171905 METAR VIDP NIL=
201612171930 METAR VIDP 171930Z 00000KT 0800 R28/P2000 R29/P2000 MIFG NSC 12/09 Q1017 NOSIG=
201612172000 METAR VIDP 172000Z 00000KT 0800 R28/P2000 R29/P2000 MIFG NSC 12/09 Q1017 NOSIG=
201612172030 METAR VIDP 172030Z 00000KT 0800 R28/P2000 R29/1900 MIFG NSC 11/09 Q1017 NOSIG=
201612172100 METAR VIDP 172100Z 00000KT 0800 R28/P2000 R29/1900 MIFG NSC 11/09 Q1016 NOSIG=
201612172130 METAR VIDP 172130Z 00000KT 0700 R28/P2000 R29/1600 MIFG NSC 10/08 Q1016 BECMG 0600 MIFG=
201612172200 METAR VIDP 172200Z 00000KT 0700 R28/P2000 R29/1600 MIFG NSC 10/08 Q1016 BECMG 0600 MIFG=
201612172205 METAR VIDP NIL=
201612172230 METAR VIDP 172230Z 00000KT 0600 R28/2000 R29/1600 MIFG NSC 09/08 Q1016 NOSIG=
201612172300 METAR VIDP 172300Z 25004KT 0600 R28/2000 R29/1600 MIFG NSC 09/08 Q1016 NOSIG=
201612172305 METAR VIDP NIL=
201612172330 METAR VIDP 172330Z 25004KT 0600 R28/2000 R29/1600 MIFG NSC 09/08 Q1016 NOSIG=
201612180000 METAR VIDP 180000Z 25003KT 0500 R28/2000 R29/1800 MIFG NSC 09/08 Q1017 NOSIG=
201612180030 METAR VIDP 180030Z 00000KT 0400 R28/2000 R29/1150 FG NSC 08/08 Q1017 NOSIG=
201612180100 METAR VIDP 180100Z 00000KT 0400 R28/2000 R29/1200 FG NSC 08/08 Q1017 BECMG 0350=
201612180105 METAR VIDP NIL=
201612180130 METAR VIDP 180130Z 00000KT 0300 R28/2000 R29/0800 FG NSC 08/08 Q1017 NOSIG=
201612180200 METAR VIDP 180200Z 00000KT 0200 R28/1500 R29/1000 FG NSC 08/08 Q1017 NOSIG=
201612180230 METAR VIDP 180230Z 00000KT 0200 R28/1300 R29/0900 FG NSC 09/09 Q1018 BECMG 0350 FG=
201612180300 METAR VIDP 180300Z 00000KT 0300 R28/1500 R29/0900 FG NSC 09/09 Q1018 BECMG 0350 FG=
201612180330 METAR VIDP 180330Z 25003KT 0500 R28/1200 R29/1000 MIFG NSC 12/11 Q1019 BECMG 0600 MIFG=
201612180400 METAR VIDP 180400Z 28005KT 0600 R28/1200 R29/1200 MIFG NSC 13/11 Q1019 BECMG 0800 MIFG=
201612180430 METAR VIDP 180430Z 26005KT 0800 R28/1900 R29/1700 MIFG NSC 14/10 Q1019 NOSIG=
201612180500 METAR VIDP 180500Z 27005KT 0900 R28/2000 R29/1800 MIFG NSC 15/11 Q1019 NOSIG=
201612180505 METAR VIDP NIL=
201612180530 METAR VIDP 180530Z 29005KT 1000 R28/1200 R29/1900 MIFG NSC 14/10 Q1019 NOSIG=
201612180600 METAR VIDP 180600Z 29005KT 1000 R28/1100 R29/1800 FU NSC 16/10 Q1019 NOSIG=
201612180630 METAR VIDP 180630Z 29006KT 1000 R28/1000 R29/2000 FU NSC 18/09 Q1018 NOSIG=
201612180700 METAR VIDP 180700Z 29006KT 1000 R28/1000 R29/2000 FU NSC 20/09 Q1018 NOSIG=
201612180730 METAR VIDP 180730Z 31006KT 1200 R28/1300 R29/2000 FU NSC 21/08 Q1018 NOSIG=
201612180800 METAR VIDP 180800Z 30005KT 1200 R28/1300 R29/2000 FU NSC 21/08 Q1018 NOSIG=
201612180805 METAR VIDP NIL=
201612180830 METAR VIDP 180830Z 30005KT 1300 R28/1300 R29/2000 FU NSC 22/08 Q1018 BECMG 1500 FU=
201612180900 METAR VIDP 180900Z 31006KT 1400 R28/1400 R29/2000 FU NSC 22/08 Q1017 BECMG 1500 FU=
201612180930 METAR VIDP 180930Z 31006KT 1500 R28/1500 R29/2000 FU NSC 22/08 Q1017 NOSIG=
201612181000 METAR VIDP 181000Z 30006KT 1500 R28/1500 R29/2000 FU NSC 22/08 Q1017 NOSIG=
201612181030 METAR VIDP 181030Z 31005KT 1500 R28/1500 R29/P2000 FU NSC 22/05 Q1017 NOSIG=
201612181100 METAR VIDP 181100Z 30005KT 1600 R28/1600 R29/P2000 FU NSC 22/05 Q1017 NOSIG=
201612181130 METAR VIDP 181130Z 30005KT 1700 R28/1700 R29/P2000 FU NSC 21/06 Q1017 NOSIG=
201612181200 METAR VIDP 181200Z 30005KT 2200 FU NSC 20/07 Q1017 NOSIG=
201612181205 METAR VIDP NIL=
201612181230 METAR VIDP 181230Z 00000KT 2200 FU NSC 18/07 Q1017 NOSIG=
201612181300 METAR VIDP 181300Z 00000KT 2200 FU NSC 18/07 Q1017 NOSIG=
201612181330 METAR VIDP 181330Z 29003KT 1600 R28/P2000 R29/P2000 FU NSC 17/08 Q1018 BECMG 1500=
201612181400 METAR VIDP 181400Z 26003KT 1500 R28/P2000 R29/P2000 FU NSC 16/08 Q1018 NOSIG=
201612181430 METAR VIDP 181430Z 00000KT 1200 R28/P2000 R29/P2000 FU NSC 16/09 Q1019 NOSIG=
201612181500 METAR VIDP 181500Z 00000KT 1200 R28/P2000 R29/P2000 FU NSC 15/08 Q1019 NOSIG=
201612181530 METAR VIDP 181530Z 00000KT 1100 R28/P2000 R29/P2000 FU NSC 16/08 Q1019 NOSIG=
201612181600 METAR VIDP 181600Z 00000KT 1000 R28/P2000 R29/P2000 FU NSC 15/10 Q1019 NOSIG=
201612181605 METAR VIDP NIL=
201612181630 METAR VIDP 181630Z 00000KT 0900 R28/P2000 R29/P2000 MIFG NSC 13/09 Q1019 NOSIG=
201612181700 METAR VIDP 181700Z 00000KT 0900 R28/P2000 R29/P2000 MIFG NSC 13/09 Q1019 BECMG 0800 MIFG=
201612181705 METAR VIDP NIL=
201612181730 METAR VIDP 181730Z 00000KT 0800 R28/P2000 R29/P2000 MIFG NSC 12/09 Q1019 NOSIG=
201612181800 METAR VIDP 181800Z 00000KT 0800 R28/P2000 R29/P2000 MIFG NSC 12/09 Q1018 NOSIG=
201612181830 METAR VIDP 181830Z 00000KT 0800 R28/P2000 R29/P2000 MIFG NSC 12/09 Q1018 NOSIG=
201612181900 METAR VIDP 181900Z 00000KT 0700 R28/P2000 R29/1800 MIFG NSC 12/09 Q1018 BECMG VIS 0600=
201612181905 METAR VIDP NIL=
201612181930 METAR VIDP 181930Z 00000KT 0700 R28/P2000 R29/P1400 MIFG NSC 11/08 Q1017 BECMG VIS 0600=
201612182000 METAR VIDP 182000Z 00000KT 0600 R28/P2000 R29/1500 MIFG NSC 11/08 Q1017 NOSIG=
201612182030 METAR VIDP 182030Z 00000KT 0600 R28/2000 R29/1400 MIFG NSC 11/09 Q1017 NOSIG=
201612182100 METAR VIDP 182100Z 00000KT 0600 R28/2000 R29/1300 MIFG NSC 10/08 Q1018 NOSIG=
201612182105 METAR VIDP NIL=
201612182130 METAR VIDP 182130Z 00000KT 0600 R28/2000 R29/1400 MIFG NSC 10/08 Q1018 NOSIG=
201612182200 METAR VIDP 182200Z 25003KT 0500 R28/2000 R29/1700 FG NSC 09/07 Q1018 NOSIG=
201612182205 METAR VIDP NIL=
201612182230 METAR VIDP 182230Z 22003KT 0500 R28/2000 R29/1600 FG NSC 09/07 Q1018 NOSIG=
201612182300 METAR VIDP 182300Z 00000KT 0500 R28/2000 R29/1500 FG NSC 09/07 Q1018 NOSIG=
201612182330 METAR VIDP 182330Z 00000KT 0500 R28/2000 R29/1500 FG NSC 09/07 Q1017 NOSIG=
201612190000 METAR VIDP 190000Z 00000KT 0400 R28/2000 R29/1400 FG NSC 09/08 Q1018 NOSIG=
201612190030 METAR VIDP 190030Z 00000KT 0400 R28/2000 R29/1500 FG NSC 08/08 Q1018 NOSIG=
201612190100 METAR VIDP 190100Z 25004KT 0400 R28/2000 R29/1500 FG NSC 08/08 Q1018 NOSIG=
201612190130 METAR VIDP 190130Z 26004KT 0400 R28/1700 R29/1100 FG NSC 08/08 Q1018 BECMG 0350 FG=
201612190200 METAR VIDP 190200Z 24003KT 0250 R28/0900 R29/0800 FG NSC 08/08 Q1019 NOSIG=
201612190205 METAR VIDP NIL=
201612190230 METAR VIDP 190230Z 00000KT 0300 R28/0800 R29/0800 FG NSC 08/08 Q1019 BECMG 0350=
201612190300 METAR VIDP 190300Z 00000KT 0400 R28/0800 R29/0800 FG NSC 09/09 Q1019 BECMG 0600 FG=
201612190330 METAR VIDP 190330Z 25004KT 0500 R28/0800 R29/0800 FG NSC 10/10 Q1019 BECMG 0600 FG=
201612190400 METAR VIDP 190400Z 26006KT 0600 R28/1000 R29/1300 FG NSC 12/12 Q1020 BECMG 0800=
201612190405 METAR VIDP NIL=
201612190430 METAR VIDP 190430Z 28006KT 0700 R28/1000 R29/1500 MIFG NSC 13/12 Q1020 BECMG 0800=
201612190500 METAR VIDP 190500Z 28005KT 0800 R28/1100 R29/1500 MIFG NSC 15/11 Q1020 NOSIG=
201612190530 METAR VIDP 190530Z 28005KT 1000 R28/1100 R29/1700 FU NSC 17/10 Q1020 NOSIG=
201612190600 METAR VIDP 190600Z 28006KT 1100 R28/1100 R29/1500 FU NSC 17/10 Q1020 NOSIG=
201612190605 METAR VIDP NIL=
201612190630 METAR VIDP 190630Z 29006KT 1200 R28/1200 R29/1500 FU NSC 20/10 Q1019 NOSIG=
201612190700 METAR VIDP 190700Z 29006KT 1400 R28/1400 R29/1600 FU NSC 21/11 Q1018 BECMG 1500 FU=
201612190730 METAR VIDP 190730Z 31006KT 1500 R28/1500 R29/1600 FU NSC 21/11 Q1018 NOSIG=
201612190800 METAR VIDP 190800Z 31006KT 1500 R28/1500 R29/1600 FU NSC 21/11 Q1018 NOSIG=
201612190830 METAR VIDP 190830Z 31008KT 1500 R28/1500 R29/1500 HZ NSC 22/08 Q1017 NOSIG=
201612190900 METAR VIDP 190900Z 30008KT 1500 R28/1500 R29/1500 HZ NSC 22/08 Q1017 NOSIG=
201612190905 METAR VIDP NIL=
201612190930 METAR VIDP 190930Z 30009KT 1500 R28/1500 R29/1500 HZ NSC 22/09 Q1016 NOSIG=
201612191000 METAR VIDP 191000Z 30008KT 1500 R28/1500 R29/1500 HZ NSC 22/09 Q1016 NOSIG=
201612191030 METAR VIDP 191030Z 30009KT 1500 R28/1500 R29/1800 HZ NSC 22/08 Q1016 NOSIG=
201612191100 METAR VIDP 191100Z 29008KT 1500 R28/1500 R29/1900 HZ NSC 22/08 Q1016 NOSIG=
201612191130 METAR VIDP 191130Z 29008KT 1500 R28/1500 R29/1900 HZ NSC 22/08 Q1016 NOSIG=
201612191200 METAR VIDP 191200Z 28007KT 1800 R28/2000 R29/1900 HZ NSC 20/08 Q1016 NOSIG=
201612191205 METAR VIDP NIL=
201612191230 METAR VIDP 191230Z 27006KT 1800 R28/P2000 R29/P2000 HZ NSC 18/10 Q1016 NOSIG=
201612191300 METAR VIDP 191300Z 27006KT 1800 R28/P2000 R29/P2000 HZ NSC 17/10 Q1016 NOSIG=
201612191330 METAR VIDP 191330Z 27006KT 1800 R28/P2000 R29/P2000 HZ NSC 16/10 Q1016 NOSIG=
201612191400 METAR VIDP 191400Z 27006KT 1800 R28/P2000 R29/P2000 HZ NSC 15/10 Q1016 NOSIG=
201612191405 METAR VIDP NIL=
201612191430 METAR VIDP 191430Z 27005KT 1600 R28/P2000 R29/P2000 BR NSC 14/10 Q1016 BECMG 1500 BR=
201612191500 METAR VIDP 191500Z 28005KT 1400 R28/P2000 R29/P2000 BR NSC 14/10 Q1016 NOSIG=
201612191505 METAR VIDP NIL=
201612191530 METAR VIDP 191530Z 27005KT 1200 R28/P2000 R29/P2000 BR NSC 14/10 Q1017 NOSIG=
201612191600 METAR VIDP 191600Z 27006KT 1200 R28/P2000 R29/P2000 BR NSC 14/10 Q1017 NOSIG=
201612191630 METAR VIDP 191630Z 29006KT 1200 R28/P2000 R29/P2000 BR NSC 13/09 Q1017 NOSIG=
201612191700 METAR VIDP 191700Z 29005KT 1200 R28/P2000 R29/P2000 BR NSC 13/09 Q1016 NOSIG=
201612191730 METAR VIDP 191730Z 29005KT 1200 R28/P2000 R29/P2000 BR NSC 13/09 Q1016 NOSIG=
201612191800 METAR VIDP 191800Z 27005KT 1000 R28/P2000 R29/P2000 BR NSC 13/09 Q1016 NOSIG=
201612191830 METAR VIDP 191830Z 27005KT 0900 R28/P2000 R29/P2000 MIFG NSC 12/09 Q1016 BECMG 0800 MIFG=
201612191900 METAR VIDP 191900Z 27005KT 0800 R28/P2000 R29/P2000 MIFG NSC 12/09 Q1016 NOSIG=
201612191905 METAR VIDP NIL=
201612191930 METAR VIDP 191930Z 28005KT 0800 R28/P2000 R29/P2000 MIFG NSC 12/09 Q1016 NOSIG=
201612192000 METAR VIDP 192000Z 27005KT 0800 R28/P2000 R29/P2000 MIFG NSC 11/09 Q1016 NOSIG=
201612192030 METAR VIDP 192030Z 27005KT 0800 R28/P2000 R29/P2000 MIFG NSC 11/09 Q1016 NOSIG=
201612192100 METAR VIDP 192100Z 26005KT 0800 R28/P2000 R29/P2000 MIFG NSC 11/09 Q1016 NOSIG=
201612192130 METAR VIDP 192130Z 26005KT 0800 R28/P2000 R29/P2000 MIFG NSC 11/09 Q1016 NOSIG=
201612192200 METAR VIDP 192200Z 25005KT 0800 R28/P2000 R29/P2000 MIFG NSC 11/09 Q1016 NOSIG=
201612192205 METAR VIDP NIL=
201612192230 METAR VIDP 192230Z 25005KT 0800 R28/P2000 R29/P2000 MIFG NSC 11/09 Q1016 NOSIG=
201612192300 METAR VIDP 192300Z 27005KT 0700 R28/2000 R29/2000 MIFG NSC 10/08 Q1016 BECMG 0600=
201612192330 METAR VIDP 192330Z 26005KT 0600 R28/2000 R29/1900 MIFG NSC 10/08 Q1016 NOSIG=
201612200000 METAR VIDP 200000Z 26005KT 0500 R28/2000 R29/1800 FG NSC 09/08 Q1016 NOSIG=
201612200005 METAR VIDP NIL=
201612200030 METAR VIDP 200030Z 25005KT 0500 R28/2000 R29/1900 FG NSC 09/08 Q1016 NOSIG=
201612200100 METAR VIDP 200100Z 25005KT 0400 R28/2000 R29/1900 FG NSC 09/08 Q1016 NOSIG=
201612200105 METAR VIDP NIL=
201612200130 METAR VIDP 200130Z 28004KT 0400 R28/2000 R29/1500 FG NSC 09/08 Q1016 NOSIG=
201612200200 METAR VIDP 200200Z 28005KT 0400 R28/2000 R29/1000 FG NSC 09/08 Q1017 BECMG 0350=
201612200230 METAR VIDP 200230Z 27005KT 0300 R28/2000 R29/0950 FG NSC 10/09 Q1017 NOSIG=
201612200300 METAR VIDP 200300Z 26005KT 0300 R28/2000 R29/0900 FG NSC 10/09 Q1017 BECMG 0350=
201612200305 METAR VIDP NIL=
201612200330 METAR VIDP 200330Z 29006KT 0500 R28/0900 R29/0900 FG NSC 11/09 Q1017 BECMG 0600 MIFG=
201612200400 METAR VIDP 200400Z 27006KT 0600 R28/1000 R29/1100 MIFG NSC 12/08 Q1018 NOSIG=
201612200430 METAR VIDP 200430Z 28010KT 0700 R28/1100 R29/1400 MIFG NSC 15/11 Q1018 BECMG 0800 MIFG=
201612200500 METAR VIDP 200500Z 28010KT 1000 R28/2000 R29/1900 MIFG NSC 16/10 Q1018 NOSIG=
201612200505 METAR VIDP NIL=
201612200530 METAR VIDP 200530Z 27009KT 1200 R28/1500 R29/2000 FU NSC 17/10 Q1018 BECMG VIS 1500 FU=
201612200600 METAR VIDP 200600Z 29009KT 1400 R28/1600 R29/1800 FU NSC 19/10 Q1018 BECMG VIS 1500 FU=
201612200605 METAR VIDP NIL=
201612200630 METAR VIDP 200630Z 31010KT 1500 R28/1500 R29/1800 FU NSC 21/10 Q1017 NOSIG=
201612200700 METAR VIDP 200700Z 31008KT 1500 R28/1500 R29/1800 FU NSC 22/10 Q1017 NOSIG=
201612200730 METAR VIDP 200730Z 31008KT 1500 R28/1500 R29/1800 FU NSC 22/10 Q1016 NOSIG=
201612200800 METAR VIDP 200800Z 31008KT 1500 R28/1500 R29/1800 FU NSC 23/10 Q1016 NOSIG=
201612200830 METAR VIDP 200830Z 30008KT 1500 R28/1500 R29/1800 FU NSC 23/10 Q1015 NOSIG=
201612200900 METAR VIDP 200900Z 28008KT 1500 R28/1600 R29/1800 FU NSC 23/10 Q1015 NOSIG=
201612200930 METAR VIDP 200930Z 30012KT 1600 R28/1600 R29/1800 FU NSC 24/10 Q1015 NOSIG=
201612201000 METAR VIDP 201000Z 28012KT 2000 FU NSC 24/10 Q1015 NOSIG=
201612201005 METAR VIDP NIL=
201612201030 METAR VIDP 201030Z 30012KT 2000 FU NSC 24/09 Q1015 NOSIG=
201612201100 METAR VIDP 201100Z 28010KT 2000 FU NSC 22/09 Q1014 NOSIG=
201612201130 METAR VIDP 201130Z 27007KT 2000 FU NSC 22/09 Q1014 NOSIG=
201612201200 METAR VIDP 201200Z 26007KT 2000 FU NSC 19/09 Q1015 NOSIG=
201612201230 METAR VIDP 201230Z 28007KT 2000 FU NSC 18/09 Q1015 NOSIG=
201612201300 METAR VIDP 201300Z 26005KT 1800 R28/P2000 R29/P2000 FU NSC 17/09 Q1015 NOSIG=
201612201330 METAR VIDP 201330Z 28006KT 1800 R28/P2000 R29/P2000 FU NSC 16/10 Q1015 NOSIG=
201612201400 METAR VIDP 201400Z 25006KT 1800 R28/P2000 R29/P2000 FU NSC 16/10 Q1015 NOSIG=
201612201430 METAR VIDP 201430Z 27006KT 1700 R28/P2000 R29/P2000 FU NSC 16/10 Q1016 BECMG 1500 FU=
201612201500 METAR VIDP 201500Z 27006KT 1700 R28/P2000 R29/P2000 FU NSC 15/09 Q1016 BECMG 1500 FU=
201612201530 METAR VIDP 201530Z 28007KT 1700 R28/P2000 R29/P2000 FU NSC 15/09 Q1016 BECMG 1500 FU=
201612201600 METAR VIDP 201600Z 29007KT 1500 R28/P2000 R29/P2000 FU NSC 15/09 Q1016 NOSIG=
201612201605 METAR VIDP NIL=
201612201630 METAR VIDP 201630Z 27006KT 1500 R28/P2000 R29/P2000 FU NSC 15/09 Q1016 NOSIG=
201612201700 METAR VIDP 201700Z 27007KT 1500 R28/P2000 R29/P2000 FU NSC 15/09 Q1016 NOSIG=
201612201705 METAR VIDP NIL=
201612201730 METAR VIDP 201730Z 28007KT 1500 R28/P2000 R29/P2000 FU NSC 15/09 Q1016 NOSIG=
201612201800 METAR VIDP 201800Z 25005KT 1500 R28/P2000 R29/P2000 FU NSC 14/09 Q1016 NOSIG=
201612201805 METAR VIDP NIL=
201612201830 METAR VIDP 201830Z 25005KT 1500 R28/2000 R29/2000 BR NSC 13/09 Q1016 NOSIG=
201612201900 METAR VIDP 201900Z 27005KT 1500 R28/2000 R29/2000 BR NSC 13/09 Q1016 NOSIG=
201612201930 METAR VIDP 201930Z 27005KT 1500 R28/2000 R29/2000 BR NSC 12/09 Q1015 NOSIG=
201612202000 METAR VIDP 202000Z 26008KT 1600 R28/2000 R29/2000 BR NSC 12/09 Q1015 NOSIG=
201612202030 METAR VIDP 202030Z 26008KT 1800 R28/P2000 R29/P2000 BR NSC 12/09 Q1015 NOSIG=
201612202100 METAR VIDP 202100Z 26008KT 2200 BR NSC 12/09 Q1015 NOSIG=
201612202130 METAR VIDP 202130Z 27008KT 1900 R28/P2000 R29/P2000 BR NSC 12/10 Q1015 NOSIG=
201612202200 METAR VIDP 202200Z 26008KT 1800 R28/P2000 R29/P2000 BR NSC 12/10 Q1015 NOSIG=
201612202205 METAR VIDP NIL=
201612202230 METAR VIDP 202230Z 26006KT 1700 R28/P2000 R29/P2000 BR NSC 12/09 Q1015 NOSIG=
201612202300 METAR VIDP 202300Z 27006KT 1700 R28/P2000 R29/P2000 BR NSC 12/09 Q1015 NOSIG=
201612202330 METAR VIDP 202330Z 25005KT 1600 R28/P2000 R29/P2000 BR NSC 12/09 Q1015 BECMG 1500 BR=
201612210000 METAR VIDP 210000Z 24005KT 1500 R28/P2000 R29/P2000 BR NSC 11/09 Q1015 NOSIG=
201612210030 METAR VIDP 210030Z 24005KT 1500 R28/P2000 R29/P2000 BR NSC 10/09 Q1015 NOSIG=
201612210100 METAR VIDP 210100Z 27004KT 1500 R28/P2000 R29/P2000 BR NSC 10/08 Q1015 NOSIG=
201612210105 METAR VIDP NIL=
201612210130 METAR VIDP 210130Z 26004KT 1500 R28/P2000 R29/P2000 BR NSC 09/08 Q1015 NOSIG=
201612210200 METAR VIDP 210200Z 27005KT 1200 R28/1300 R29/1500 BR NSC 09/08 Q1016 BECMG 0800 MIFG=
201612210230 METAR VIDP 210230Z 26004KT 0800 R28/1000 R29/1200 MIFG NSC 09/08 Q1016 NOSIG=
201612210300 METAR VIDP 210300Z 28006KT 1000 R28/1000 R29/1700 MIFG NSC 12/11 Q1017 NOSIG=
201612210305 METAR VIDP NIL=
201612210330 METAR VIDP 210330Z 28006KT 1200 R28/2000 R29/1700 MIFG NSC 13/11 Q1017 NOSIG=
201612210400 METAR VIDP 210400Z 29006KT 1200 R28/2000 R29/2000 BR NSC 13/11 Q1017 NOSIG=
201612210405 METAR VIDP NIL=
201612210430 METAR VIDP 210430Z 27006KT 1200 R28/2000 R29/2000 BR NSC 15/10 Q1018 NOSIG=
201612210500 METAR VIDP 210500Z 28006KT 1200 R28/2000 R29/2000 BR NSC 17/10 Q1018 BECMG 1500 FU=
201612210530 METAR VIDP 210530Z 27007KT 1500 R28/2000 R29/2000 BR NSC 19/09 Q1018 NOSIG=
201612210600 METAR VIDP 210600Z 31006KT 1700 R28/2000 R29/2000 FU NSC 20/09 Q1018 NOSIG=
201612210630 METAR VIDP 210630Z 30008KT 1700 R28/2000 R29/2000 FU NSC 21/08 Q1017 NOSIG=
201612210700 METAR VIDP 210700Z 29010KT 2000 FU NSC 23/08 Q1017 NOSIG=
201612210705 METAR VIDP NIL=
201612210730 METAR VIDP 210730Z 28010KT 2000 HZ NSC 23/07 Q1016 NOSIG=
201612210800 METAR VIDP 210800Z 29009KT 2200 HZ NSC 24/07 Q1016 NOSIG=
201612210830 METAR VIDP 210830Z 30010KT 2500 HZ NSC 25/06 Q1015 NOSIG=
201612210900 METAR VIDP 210900Z 29011KT 2500 HZ NSC 25/06 Q1015 NOSIG=
201612210930 METAR VIDP 210930Z 29010KT 2500 HZ NSC 25/06 Q1015 NOSIG=
201612211000 METAR VIDP 211000Z 30011KT 2500 HZ NSC 25/06 Q1014 NOSIG=
201612211030 METAR VIDP 211030Z 30011KT 2500 HZ NSC 25/06 Q1014 NOSIG=
201612211100 METAR VIDP 211100Z 30011KT 2800 HZ NSC 24/05 Q1014 BECMG 3000 HZ=
201612211130 METAR VIDP 211130Z 30009KT 3000 HZ NSC 23/05 Q1014 NOSIG=
201612211200 METAR VIDP 211200Z 30006KT 2500 HZ NSC 22/05 Q1014 NOSIG=
201612211230 METAR VIDP 211230Z 29005KT 2200 HZ NSC 20/06 Q1014 NOSIG=
201612211300 METAR VIDP 211300Z 27003KT 2200 HZ NSC 19/07 Q1015 NOSIG=
201612211330 METAR VIDP 211330Z 26004KT 2200 HZ NSC 18/07 Q1015 NOSIG=
201612211400 METAR VIDP 211400Z 26004KT 2200 HZ NSC 17/07 Q1015 NOSIG=
201612211430 METAR VIDP 211430Z 26003KT 2200 HZ NSC 17/07 Q1015 NOSIG=
201612211500 METAR VIDP 211500Z 27003KT 2200 HZ NSC 17/07 Q1015 NOSIG=
201612211530 METAR VIDP 211530Z 26004KT 1800 R28/P2000 R29/P2000 HZ NSC 16/07 Q1016 NOSIG=
201612211600 METAR VIDP 211600Z 25003KT 1800 R28/P2000 R29/P2000 FU NSC 15/07 Q1016 NOSIG=
201612211630 METAR VIDP 211630Z 25004KT 1600 R28/P2000 R29/P2000 FU NSC 15/07 Q1016 NOSIG=
201612211700 METAR VIDP 211700Z 26003KT 1600 R28/P2000 R29/P2000 FU NSC 14/08 Q1016 NOSIG=
201612211730 METAR VIDP 211730Z 00000KT 1600 R28/P2000 R29/P2000 FU NSC 14/07 Q1016 NOSIG=
201612211800 METAR VIDP 211800Z 00000KT 1600 R28/P2000 R29/P2000 FU NSC 14/07 Q1016 NOSIG=
201612211830 METAR VIDP 211830Z 00000KT 1600 R28/P2000 R29/P2000 FU NSC 13/07 Q1016 NOSIG=
201612211900 METAR VIDP 211900Z 26003KT 1600 R28/P2000 R29/P2000 FU NSC 12/07 Q1016 NOSIG=
201612211930 METAR VIDP 211930Z 27004KT 1600 R28/P2000 R29/P2000 FU NSC 12/06 Q1016 NOSIG=
201612212000 METAR VIDP 212000Z 26004KT 1600 R28/P2000 R29/P2000 FU NSC 12/06 Q1016 NOSIG=
201612212030 METAR VIDP 212030Z 26004KT 1600 R28/P2000 R29/P2000 FU NSC 12/06 Q1015 NOSIG=
201612212100 METAR VIDP 212100Z 25004KT 1600 R28/P2000 R29/P2000 FU NSC 12/06 Q1015 NOSIG=
201612212105 METAR VIDP NIL=
201612212130 METAR VIDP 212130Z 25003KT 1600 R28/P2000 R29/P2000 FU NSC 12/06 Q1015 BECMG 1500 FU=
201612212200 METAR VIDP 212200Z 26003KT 1500 R28/P2000 R29/P2000 FU NSC 12/06 Q1015 NOSIG=
201612212205 METAR VIDP NIL=
201612212230 METAR VIDP 212230Z 26003KT 1500 R28/P2000 R29/P2000 FU NSC 12/06 Q1015 NOSIG=
201612212300 METAR VIDP 212300Z 29003KT 1500 R28/P2000 R29/P2000 FU NSC 11/06 Q1015 NOSIG=
201612212305 METAR VIDP NIL=
201612212330 METAR VIDP 212330Z 29003KT 1200 R28/P2000 R29/P2000 FU NSC 11/06 Q1015 NOSIG=
201612220000 METAR VIDP 220000Z 28003KT 1200 R28/P2000 R29/P2000 FU NSC 11/06 Q1015 NOSIG=
201612220030 METAR VIDP 220030Z 26004KT 1200 R28/P2000 R29/P2000 FU NSC 11/06 Q1015 NOSIG=
201612220100 METAR VIDP 220100Z 25004KT 1200 R28/P2000 R29/P2000 FU NSC 11/06 Q1015 NOSIG=
201612220105 METAR VIDP NIL=
201612220130 METAR VIDP 220130Z 25004KT 1000 R28/P2000 R29/P2000 BR NSC 10/06 Q1016 NOSIG=
201612220200 METAR VIDP 220200Z 25004KT 1000 R28/2000 R29/1800 BR NSC 09/06 Q1016 NOSIG=
201612220230 METAR VIDP 220230Z 25004KT 1000 R28/2000 R29/1300 BR NSC 10/06 Q1017 NOSIG=
201612220300 METAR VIDP 220300Z 25004KT 1000 R28/2000 R29/1400 BR NSC 11/07 Q1017 NOSIG=
201612220330 METAR VIDP 220330Z 26004KT 1200 R28/2000 R29/2000 FU NSC 13/07 Q1017 NOSIG=
201612220400 METAR VIDP 220400Z 26004KT 1200 R28/2000 R29/2000 FU NSC 14/08 Q1018 BECMG 1500 FU=
201612220430 METAR VIDP 220430Z 26006KT 1400 R28/2000 R29/2000 FU NSC 16/08 Q1018 BECMG 1500 FU=
201612220500 METAR VIDP 220500Z 30006KT 1500 R28/2000 R29/2000 FU NSC 17/08 Q1018 NOSIG=
201612220530 METAR VIDP 220530Z 30006KT 1700 R28/P2000 R29/P2000 FU NSC 18/08 Q1018 NOSIG=
201612220600 METAR VIDP 220600Z 29006KT 2000 R28/P2000 R29/P2000 FU NSC 18/08 Q1018 NOSIG=
201612220605 METAR VIDP NIL=
201612220630 METAR VIDP 220630Z 31006KT 2100 FU NSC 20/08 Q1017 NOSIG=
201612220700 METAR VIDP 220700Z 32006KT 2200 FU NSC 22/08 Q1016 NOSIG=
201612220705 METAR VIDP NIL=
201612220730 METAR VIDP 220730Z 30007KT 2200 FU NSC 22/08 Q1016 NOSIG=
201612220800 METAR VIDP 220800Z 30007KT 2200 FU NSC 22/08 Q1016 NOSIG=
201612220830 METAR VIDP 220830Z 30008KT 2200 FU NSC 23/08 Q1015 NOSIG=
201612220900 METAR VIDP 220900Z 29008KT 2200 FU NSC 23/08 Q1015 NOSIG=
201612220930 METAR VIDP 220930Z 31007KT 2200 FU NSC 23/08 Q1015 NOSIG=
201612221000 METAR VIDP 221000Z 29007KT 2200 FU NSC 24/08 Q1015 NOSIG=
201612221005 METAR VIDP NIL=
201612221030 METAR VIDP 221030Z 30007KT 2500 FU NSC 23/08 Q1015 NOSIG=
201612221100 METAR VIDP 221100Z 28006KT 2500 FU NSC 23/08 Q1015 NOSIG=
201612221130 METAR VIDP 221130Z 28004KT 2500 FU NSC 22/08 Q1015 NOSIG=
201612221200 METAR VIDP 221200Z 28005KT 2500 FU NSC 21/08 Q1015 NOSIG=
201612221230 METAR VIDP 221230Z 29004KT 2200 FU NSC 20/09 Q1015 NOSIG=
201612221300 METAR VIDP 221300Z 29003KT 2200 FU NSC 19/09 Q1016 NOSIG=
201612221330 METAR VIDP 221330Z 00000KT 2100 FU NSC 17/08 Q1016 NOSIG=
201612221400 METAR VIDP 221400Z 00000KT 2000 FU NSC 17/09 Q1016 NOSIG=
201612221430 METAR VIDP 221430Z 00000KT 1800 R28/P2000 R29/P2000 FU NSC 16/09 Q1016 NOSIG=
201612221500 METAR VIDP 221500Z 00000KT 1800 R28/P2000 R29/P2000 FU NSC 15/09 Q1016 BECMG 1500 FU=
201612221530 METAR VIDP 221530Z 00000KT 1500 R28/P2000 R29/P2000 FU NSC 15/09 Q1016 NOSIG=
201612221600 METAR VIDP 221600Z 00000KT 1500 R28/P2000 R29/P2000 FU NSC 14/09 Q1016 NOSIG=
201612221605 METAR VIDP NIL=
201612221630 METAR VIDP 221630Z 00000KT 1200 R28/P2000 R29/P2000 FU NSC 14/09 Q1016 NOSIG=
201612221700 METAR VIDP 221700Z 00000KT 1000 R28/P2000 R29/P2000 BR NSC 14/10 Q1016 NOSIG=
201612221705 METAR VIDP NIL=
201612221730 METAR VIDP 221730Z 00000KT 1000 R28/P2000 R29/P2000 BR NSC 14/10 Q1016 NOSIG=
201612221800 METAR VIDP 221800Z 00000KT 1000 R28/P2000 R29/P2000 BR NSC 14/10 Q1016 NOSIG=
201612221830 METAR VIDP 221830Z 00000KT 1000 R28/P2000 R29/P2000 BR NSC 13/11 Q1016 NOSIG=
201612221900 METAR VIDP 221900Z 00000KT 1000 R28/P2000 R29/P2000 BR NSC 13/11 Q1016 NOSIG=
201612221930 METAR VIDP 221930Z 00000KT 1000 R28/P2000 R29/P2000 BR NSC 13/11 Q1015 NOSIG=
201612222000 METAR VIDP 222000Z 00000KT 0900 R28/P2000 R29/P2000 MIFG NSC 13/11 Q1015 BECMG VIS 0800 MIFG=
201612222005 METAR VIDP NIL=
201612222030 METAR VIDP 222030Z 00000KT 0800 R28/P2000 R29/P2000 MIFG NSC 13/11 Q1015 NOSIG=
201612222100 METAR VIDP 222100Z 00000KT 0800 R28/P2000 R29/P2000 MIFG NSC 13/11 Q1015 NOSIG=
201612222130 METAR VIDP 222130Z 00000KT 0700 R28/P2000 R29/1200 MIFG NSC 12/11 Q1015 TEMPO VIS 0600 MIFG=
201612222200 METAR VIDP 222200Z 00000KT 0600 R28/P2000 R29/1200 MIFG NSC 12/11 Q1015 NOSIG=
201612222205 METAR VIDP NIL=
201612222230 METAR VIDP 222230Z 00000KT 0500 R28/P2000 R29/1600 MIFG NSC 11/10 Q1014 NOSIG=
201612222300 METAR VIDP 222300Z 00000KT 0400 R28/P2000 R29/1500 FG NSC 10/09 Q1014 NOSIG=
201612222330 METAR VIDP 222330Z 00000KT 0400 R28/P2000 R29/1700 FG NSC 10/09 Q1014 NOSIG=
201612230000 METAR VIDP 230000Z 00000KT 0400 R28/P2000 R29/1500 FG NSC 09/08 Q1014 BECMG 0350 FG=
201612230030 METAR VIDP 230030Z 00000KT 0300 R28/2000 R29/0900 FG NSC 09/08 Q1014 NOSIG=
201612230100 METAR VIDP 230100Z 00000KT 0300 R28/1900 R29/1100 FG NSC 09/08 Q1014 NOSIG=
201612230130 METAR VIDP 230130Z 00000KT 0200 R28/1500 R29/0900 FG NSC 09/08 Q1015 NOSIG=
201612230200 METAR VIDP 230200Z 00000KT 0200 R28/1300 R29/0300 FG NSC 09/08 Q1015 BECMG 0150 FG=
201612230230 METAR VIDP 230230Z 00000KT 0150 R28/1300 R29/0300 FG NSC 09/08 Q1015 NOSIG=
201612230300 METAR VIDP 230300Z 00000KT 0400 R28/1300 R29/0900 FG NSC 10/08 Q1016 NOSIG=
201612230330 METAR VIDP 230330Z 00000KT 0500 R28/1100 R29/1000 MIFG NSC 11/09 Q1016 BECMG 0600 MIFG=
201612230400 METAR VIDP 230400Z 00000KT 0600 R28/1000 R29/1100 MIFG NSC 11/09 Q1016 BECMG 0800 MIFG=
201612230430 METAR VIDP 230430Z 00000KT 0600 R28/1000 R29/0800 MIFG NSC 13/10 Q1017 BECMG 0800 MIFG=
201612230500 METAR VIDP 230500Z 00000KT 0800 R28/1000 R29/1000 MIFG NSC 16/12 Q1017 NOSIG=
201612230530 METAR VIDP 230530Z 00000KT 0800 R28/1200 R29/1200 FU NSC 18/12 Q1016 NOSIG=
201612230600 METAR VIDP 230600Z 23004KT 1000 R28/1200 R29/1200 FU NSC 18/12 Q1016 NOSIG=
201612230630 METAR VIDP 230630Z 28004KT 1000 R28/1300 R29/1400 FU NSC 20/12 Q1016 NOSIG=
201612230700 METAR VIDP 230700Z 29004KT 1200 R28/1300 R29/1400 FU NSC 20/12 Q1016 NOSIG=
201612230730 METAR VIDP 230730Z 27004KT 1200 R28/1300 R29/1400 FU NSC 21/12 Q1015 NOSIG=
201612230800 METAR VIDP 230800Z 27003KT 1200 R28/1400 R29/1500 FU NSC 22/12 Q1014 BECMG 1500 FU=
201612230830 METAR VIDP 230830Z 29003KT 1300 R28/1800 R29/1500 FU NSC 23/12 Q1013 BECMG 1500 FU=
201612230900 METAR VIDP 230900Z 27006KT 1300 R28/1900 R29/1600 FU NSC 24/11 Q1012 BECMG 1500 FU=
201612230930 METAR VIDP 230930Z 29004KT 1500 R28/P2000 R29/1900 FU NSC 24/11 Q1012 NOSIG=
201612231000 METAR VIDP 231000Z 28005KT 1500 R28/P2000 R29/1900 FU NSC 24/11 Q1012 NOSIG=
201612231030 METAR VIDP 231030Z 28005KT 1500 R28/1700 R29/1900 FU NSC 23/11 Q1012 NOSIG=
201612231100 METAR VIDP 231100Z 29005KT 1500 R28/1800 R29/1800 FU NSC 22/10 Q1012 NOSIG=
201612231130 METAR VIDP 231130Z 33003KT 1300 R28/1900 R29/1600 FU NSC 22/11 Q1012 NOSIG=
201612231200 METAR VIDP 231200Z 00000KT 1200 R28/P2000 R29/2000 FU NSC 20/12 NOSIG=
201612231205 METAR VIDP NIL=
201612231230 METAR VIDP 231230Z 00000KT 1000 R28/P2000 R29/P2000 FU NSC 19/12 Q1012 NOSIG=
201612231300 METAR VIDP 231300Z 00000KT 1000 R28/P2000 R29/2000 FU NSC 18/11 Q1012 BECMG 0800 FU=
201612231305 METAR VIDP NIL=
201612231330 METAR VIDP 231330Z 00000KT 0800 R28/P2000 R29/P2000 FU NSC 17/12 Q1013 NOSIG=
201612231400 METAR VIDP 231400Z 00000KT 0800 R28/P2000 R29/1900 FU NSC 17/12 Q1013 NOSIG=
201612231430 METAR VIDP 231430Z 00000KT 0700 R28/P2000 R29/1700 MIFG NSC 17/13 Q1013 NOSIG=
201612231500 METAR VIDP 231500Z 00000KT 0700 R28/P2000 R29/1700 MIFG NSC 16/13 Q1013 NOSIG=
201612231530 METAR COR VIDP 231530Z 00000KT 0700 R28/2000 R29/1500 MIFG NSC 16/11 Q1013 BECMG 0600 MIFG=
201612231600 METAR VIDP 231600Z 00000KT 0400 R28/2000 R29/1500 FG NSC 15/11 Q1013 BECMG 0350 FG=
201612231630 METAR VIDP 231630Z 00000KT 0350 R28/2000 R29/1400 FG NSC 15/11 Q1013 NOSIG=
201612231700 METAR VIDP 231700Z 00000KT 0350 R28/2000 R29/1600 FG NSC 14/11 Q1013 NOSIG=
201612231730 METAR VIDP 231730Z 00000KT 0350 R28/2000 R29/1500 FG NSC 14/11 Q1014 NOSIG=
201612231800 METAR VIDP 231800Z 00000KT 0350 R28/1800 R29/1400 FG NSC 13/11 Q1014 NOSIG=
201612231830 METAR VIDP 231830Z 00000KT 0350 R28/2000 R29/1400 FG NSC 13/11 Q1014 NOSIG=
201612231900 METAR VIDP 231900Z 00000KT 0350 R28/1900 R29/1600 FG NSC 13/11 Q1013 NOSIG=
201612231930 METAR VIDP 231930Z 00000KT 0350 R28/1800 R29/1400 FG NSC 13/11 Q1013 NOSIG=
201612232000 METAR VIDP 232000Z 00000KT 0300 R28/1700 R29/1100 FG NSC 12/10 Q1012 NOSIG=
201612232030 METAR VIDP 232030Z 00000KT 0300 R28/1600 R29/0900 FG NSC 12/10 Q1012 NOSIG=
201612232100 METAR VIDP 232100Z 00000KT 0250 R28/2000 R29/1000 FG NSC 11/09 Q1012 NOSIG=
201612232130 METAR VIDP 232130Z 00000KT 0200 R28/2000 R29/0900 FG NSC 11/09 Q1012 NOSIG=
201612232200 METAR VIDP 232200Z 00000KT 0200 R28/2000 R29/0900 FG NSC 11/09 Q1012 NOSIG=
201612232205 METAR VIDP NIL=
201612232230 METAR VIDP 232230Z 00000KT 0200 R28/2000 R29/0700 FG NSC 10/09 Q1012 NOSIG=
201612232300 METAR VIDP 232300Z 00000KT 0200 R28/2000 R29/0900 FG NSC 10/09 Q1012 NOSIG=
201612232330 METAR VIDP 232330Z 00000KT 0200 R28/2000 R29/0900 FG NSC 10/09 Q1012 BECMG 0150=
201612240000 METAR VIDP 240000Z 00000KT 0200 R28/2000 R29/0900 FG NSC 10/09 Q1012 BECMG 0150=
201612240005 METAR VIDP NIL=
201612240030 METAR VIDP 240030Z 10004KT 0200 R28/2000 R29/1000 FG NSC 10/09 Q1011 BECMG 0150=
201612240100 METAR VIDP 240100Z 10004KT 0150 R28/2000 R29/0700 FG NSC 10/09 Q1012 NOSIG=
201612240130 METAR VIDP 240130Z 00000KT 0100 R28/2000 R29/1000 FG NSC 10/09 Q1012 NOSIG=
201612240200 METAR VIDP 240200Z 00000KT 0100 R28/1400 R29/0500 FG NSC 10/09 Q1012 NOSIG=
201612240230 METAR VIDP 240230Z 00000KT 0100 R28/1000 R29/0500 FG NSC 10/09 Q1012 NOSIG=
201612240300 METAR VIDP 240300Z 11004KT 0300 R28/0800 R29/0800 FG NSC 11/10 Q1013 BECMG VIS 0350 FG=
201612240305 METAR VIDP NIL=
201612240330 METAR VIDP 240330Z 11004KT 0350 R28/0900 R29/0900 FG NSC 13/10 Q1013 BECMG VIS 0500 FG=
201612240400 METAR VIDP 240400Z 13004KT 0350 R28/1000 R29/0900 FG NSC 15/12 Q1014 BECMG VIS 0600 MIFG=
201612240405 METAR VIDP NIL=
201612240430 METAR VIDP 240430Z 13004KT 0600 R28/1100 R29/1100 FG NSC 16/12 Q1014 BECMG VIS 0800 MIFG=
201612240500 METAR VIDP 240500Z 13004KT 0700 R28/1200 R29/1200 FU NSC 17/12 Q1013 BECMG VIS 0800 FU=
201612240530 METAR VIDP 240530Z 14006KT 0800 R28/1300 R29/1600 FU NSC 20/12 Q1013 NOSIG=
201612240600 METAR VIDP 240600Z 13006KT 1000 R28/1400 R29/1700 FU NSC 21/12 Q1013 NOSIG=
201612240630 METAR VIDP 240630Z 13006KT 1200 R28/1700 R29/1800 FU NSC 23/12 Q1013 NOSIG=
201612240700 METAR VIDP 240700Z 15004KT 1200 R28/1900 R29/1900 FU NSC 24/12 Q1012 NOSIG=
201612240730 METAR VIDP 240730Z 15004KT 1400 R28/1900 R29/1900 FU NSC 24/12 Q1012 BECMG 1500 FU=
201612240800 METAR VIDP 240800Z 15007KT 1500 R28/P2000 R29/P2000 FU NSC 24/12 Q1012 NOSIG=
201612240830 METAR VIDP 240830Z 15007KT 1500 R28/P2000 R29/P2000 FU NSC 24/12 Q1012 NOSIG=
201612240900 METAR VIDP 240900Z 17007KT 1800 R28/P2000 R29/P2000 FU NSC 24/10 Q1011 NOSIG=
201612240930 METAR VIDP 240930Z 14008KT 2000 FU NSC 24/10 Q1010 NOSIG=
201612241000 METAR VIDP 241000Z 11008KT 1600 R28/P2000 R29/1700 FU NSC 23/10 Q1010 NOSIG=
201612241030 METAR VIDP 241030Z 10008KT 1600 R28/1800 R29/1700 FU NSC 23/11 Q1010 BECMG 1500 FU=
201612241100 METAR VIDP 241100Z 11008KT 1500 R28/1800 R29/1600 FU NSC 22/11 Q1010 NOSIG=
201612241130 METAR VIDP 241130Z 12007KT 1200 R28/1500 R29/1500 FU NSC 22/11 Q1009 NOSIG=
201612241200 METAR VIDP 241200Z 10007KT 1200 R28/1500 R29/1500 FU NSC 20/11 Q1009 NOSIG=
201612241230 METAR VIDP 241230Z 10006KT 1000 R28/1700 R29/1600 FU NSC 20/13 Q1009 NOSIG=
201612241300 METAR VIDP 241300Z 12004KT 1000 R28/P2000 R29/2000 BR NSC 18/14 Q1010 NOSIG=
201612241305 METAR VIDP NIL=
201612241330 METAR VIDP 241330Z 10004KT 1000 R28/P2000 R29/2000 BR NSC 18/14 Q1010 NOSIG=
201612241400 METAR VIDP 241400Z 11005KT 1000 R28/P2000 R29/2000 BR NSC 18/14 Q1010 NOSIG=
201612241430 METAR VIDP 241430Z 12007KT 1000 R28/2000 R29/2000 BR NSC 17/14 Q1010 NOSIG=
201612241500 METAR VIDP 241500Z 11006KT 1000 R28/2000 R29/2000 BR NSC 17/13 Q1010 NOSIG=
201612241530 METAR VIDP 241530Z 12006KT 1000 R28/2000 R29/2000 BR NSC 16/13 Q1011 NOSIG=
201612241600 METAR VIDP 241600Z 12006KT 0900 R28/2000 R29/2000 BR NSC 17/14 Q1011 NOSIG=
201612241605 METAR VIDP NIL=
201612241630 METAR VIDP 241630Z 12005KT 0900 R28/2000 R29/2000 MIFG NSC 16/14 Q1011 NOSIG=
201612241700 METAR VIDP 241700Z 12006KT 0900 R28/2000 R29/2000 MIFG NSC 16/14 Q1011 NOSIG=
201612241705 METAR VIDP NIL=
201612241730 METAR VIDP 241730Z 13008KT 0900 R28/P2000 R29/P2000 MIFG NSC 16/13 Q1011 NOSIG=
201612241800 METAR VIDP 241800Z 12008KT 0900 R28/P2000 R29/P2000 MIFG NSC 16/13 Q1011 NOSIG=
201612241805 METAR VIDP NIL=
201612241830 METAR VIDP 241830Z 14008KT 1000 R28/2000 R29/2000 BR NSC 16/13 Q1011 NOSIG=
201612241900 METAR VIDP 241900Z 14007KT 1200 R28/2000 R29/2000 BR NSC 16/13 Q1011 NOSIG=
201612241930 METAR VIDP 241930Z 11006KT 1400 R28/2000 R29/2000 BR NSC 16/13 Q1011 NOSIG=
201612242000 METAR VIDP 242000Z 13007KT 1400 R28/2000 R29/2000 BR NSC 16/13 Q1011 NOSIG=
201612242030 METAR VIDP 242030Z 14006KT 1400 R28/2000 R29/2000 BR NSC 16/12 Q1010 NOSIG=
201612242100 METAR VIDP 242100Z 14006KT 1400 R28/2000 R29/2000 BR NSC 16/12 Q1010 NOSIG=
201612242130 METAR VIDP 242130Z 13005KT 1400 R28/2000 R29/2000 BR NSC 15/12 Q1010 NOSIG=
201612242200 METAR VIDP 242200Z 14008KT 1200 R28/2000 R29/2000 BR NSC 15/13 Q1010 NOSIG=
201612242205 METAR VIDP NIL=
201612242230 METAR VIDP 242230Z 13008KT 1200 R28/2000 R29/2000 BR NSC 15/13 Q1010 NOSIG=
201612242300 METAR VIDP 242300Z 15007KT 1200 R28/2000 R29/2000 BR NSC 15/13 Q1010 NOSIG=
201612242305 METAR VIDP NIL=
201612242330 METAR VIDP 242330Z 15006KT 1200 R28/P2000 R29/P2000 BR NSC 15/13 Q1011 NOSIG=
201612250000 METAR VIDP 250000Z 13007KT 1200 R28/P2000 R29/P2000 BR NSC 14/13 Q1011 NOSIG=
201612250030 METAR VIDP 250030Z 13007KT 1200 R28/P2000 R29/P2000 BR NSC 14/13 Q1011 NOSIG=
201612250100 METAR VIDP 250100Z 14005KT 0900 R28/P2000 R29/P2000 MIFG NSC 13/12 Q1012 TEMPO 0800=
201612250105 METAR VIDP NIL=
201612250130 METAR VIDP 250130Z 13004KT 0800 R28/P2000 R29/P2000 MIFG NSC 13/12 Q1012 TEMPO 0600=
201612250200 METAR VIDP 250200Z 14005KT 0600 R28/P2000 R29/1800 MIFG NSC 13/12 Q1012 NOSIG=
201612250205 METAR VIDP NIL=
201612250230 METAR VIDP 250230Z 14005KT 0600 R28/P2000 R29/1800 MIFG NSC 14/13 Q1012 NOSIG=
201612250300 METAR VIDP 250300Z 24005KT 0700 R28/1400 R29/1200 MIFG NSC 14/12 Q1012 NOSIG=
201612250330 METAR VIDP 250330Z 25007KT 0400 R28/1000 R29/1000 FG NSC 14/12 Q1014 NOSIG=
201612250331 METAR VIDP 250331Z 25007KT 0400 R28/1000 R29/1000 FG NSC 14/12 Q1014 BECMG 0350 FG=
201612250400 METAR VIDP 250400Z 26006KT 0200 R28/0500 R29/0400 FG NSC 13/11 Q1015 NOSIG=
201612250430 METAR VIDP 250430Z 26006KT 0200 R28/0600 R29/0400 FG FEW100 13/12 Q1016 NOSIG=
201612250500 METAR VIDP 250500Z 28004KT 0250 R28/0700 R29/0600 FG FEW100 13/12 Q1016 BECMG VIS 0350 FG=
201612250505 METAR VIDP NIL=
201612250530 METAR VIDP 250530Z 29004KT 0250 R28/0800 R29/0800 FG FEW100 14/13 Q1016 BECMG VIS 0350 FG=
201612250600 METAR VIDP 250600Z 28004KT 0400 R28/0900 R29/0800 FG FEW100 14/13 Q1015 NOSIG=
201612250630 METAR VIDP 250630Z 27008KT 0400 R28/0900 R29/0700 FG FEW100 15/13 Q1015 NOSIG=
201612250700 METAR VIDP 250700Z 27008KT 0500 R28/0900 R29/0800 MIFG FEW100 15/12 Q1015 BECMG 0600 MIFG=
201612250705 METAR VIDP NIL=
201612250730 METAR VIDP 250730Z 28007KT 0500 R28/0900 R29/0800 MIFG FEW100 15/13 Q1015 BECMG 0600 MIFG=
201612250800 METAR VIDP 250800Z 27007KT 0500 R28/1000 R29/0800 MIFG FEW100 15/13 Q1014 NOSIG=
201612250805 METAR VIDP NIL=
201612250830 METAR VIDP 250830Z 28005KT 0500 R28/0900 R29/0800 MIFG FEW100 15/12 Q1014 BECMG VIS 0600 FG=
201612250900 METAR VIDP 250900Z 28008KT 0500 R28/1000 R29/0800 MIFG VV/// 15/13 Q1014 NOSIG=
201612250905 METAR VIDP NIL=
201612250930 METAR VIDP 250930Z 27006KT 0400 R28/0800 R29/0700 FG VV/// 15/13 Q1014 NOSIG=
201612251000 METAR VIDP 251000Z 29007KT 0400 R28/0800 R29/0700 FG VV/// 15/14 Q1014 NOSIG=
201612251030 METAR VIDP 251030Z 25007KT 0400 R28/1000 R29/0900 FG VV/// 15/14 Q1014 BECMG VIS 0350 FG=
201612251100 METAR VIDP 251100Z 28008KT 0350 R28/1200 R29/1200 FG VV/// 15/14 Q1014 NOSIG=
201612251130 METAR VIDP 251130Z 27006KT 0350 R28/1300 R29/1400 FG VV/// 15/14 Q1014 NOSIG=
201612251200 METAR VIDP 251200Z 29006KT 0350 R28/1500 R29/1500 FG VV/// 15/14 Q1014 NOSIG=
201612251230 METAR VIDP 251230Z 27006KT 0350 R28/1800 R29/1600 FG VV/// 15/13 Q1014 NOSIG=
201612251300 METAR VIDP 251300Z 29007KT 0500 R28/1900 R29/1500 FG NSC 14/13 Q1015 NOSIG=
201612251330 METAR VIDP 251330Z 29007KT 0500 R28/2000 R29/1800 FG NSC 14/13 Q1015 NOSIG=
201612251400 METAR VIDP 251400Z 31007KT 0500 R28/2000 R29/1800 FG NSC 14/13 Q1015 NOSIG=
201612251430 METAR VIDP 251430Z 32006KT 0500 R28/2000 R29/2000 FG NSC 14/13 Q1015 NOSIG=
201612251500 METAR VIDP 251500Z 31006KT 0500 R28/2000 R29/1800 FG FEW100 14/13 Q1016 NOSIG=
201612251530 METAR VIDP 251530Z 32007KT 0500 R28/2000 R29/1700 FG FEW100 14/13 Q1016 NOSIG=
201612251600 METAR VIDP 251600Z 33008KT 0500 R28/2000 R29/1600 FG FEW100 14/13 Q1016 NOSIG=
201612251630 METAR VIDP 251630Z 32005KT 0500 R28/2000 R29/1900 FG FEW100 14/12 Q1016 NOSIG=
201612251700 METAR VIDP 251700Z 31005KT 0500 R28/2000 R29/1800 FG FEW100 14/12 Q1016 NOSIG=
201612251705 METAR VIDP NIL=
201612251730 METAR VIDP 251730Z 33005KT 0500 R28/2000 R29/1800 FG FEW100 14/12 Q1016 NOSIG=
201612251800 METAR VIDP 251800Z 32004KT 0500 R28/2000 R29/1600 FG FEW100 14/12 Q1016 NOSIG=
201612251805 METAR VIDP NIL=
201612251830 METAR VIDP 251830Z 32004KT 0400 R28/1600 R29/1400 FG FEW100 13/12 Q1016 BECMG VIS 0350 FG=
201612251900 METAR VIDP 251900Z 26005KT 0200 R28/1000 R29/0600 FG VV/// 12/11 Q1016 BECMG 0150 FG=
201612251930 METAR VIDP 251930Z 27004KT 0150 R28/0800 R29/0500 FG VV/// 12/11 Q1016 NOSIG=
201612252000 METAR VIDP 252000Z 28004KT 0100 R28/0300 R29/0300 FG VV/// 12/11 Q1016 NOSIG=
201612252030 METAR VIDP 252030Z 26003KT 0050 R28/0350 R29/0175 FG VV/// 12/11 Q1016 NOSIG=
201612252100 METAR VIDP 252100Z 27004KT 0000 R28/0250 R29/0150 FG VV/// 11/11 Q1016 NOSIG=
201612252105 METAR VIDP NIL=
201612252130 METAR VIDP 252130Z 26004KT 0000 R28/0100 R29/0200 FG VV/// 11/11 Q1016 NOSIG=
201612252200 METAR VIDP 252200Z 27004KT 0000 R28/0125 R29/0125 FG VV/// 11/11 Q1016 NOSIG=
201612252230 METAR VIDP 252230Z 27004KT 0000 R28/0300 R29/0250 FG VV/// 11/11 Q1016 NOSIG=
201612252300 METAR VIDP 252300Z 27004KT 0000 R28/0275 R29/0700 FG VV/// 10/10 Q1016 NOSIG=
201612252305 METAR VIDP NIL=
201612252330 METAR VIDP 252330Z 26005KT 0000 R28/0600 R29/0400 FG VV/// 10/10 Q1016 NOSIG=
201612260000 METAR VIDP 260000Z 27004KT 0000 R28/1100 R29/0650 FG VV/// 10/10 Q1016 NOSIG=
201612260005 METAR VIDP NIL=
201612260030 METAR VIDP 260030Z 28004KT 0000 R28/1100 R29/0350 FG VV/// 10/10 Q1017 NOSIG=
201612260100 METAR VIDP 260100Z 26004KT 0000 R28/0450 R29/0225 FG VV/// 10/10 Q1017 NOSIG=
201612260130 METAR VIDP 260130Z 26004KT 0000 R28/0175 R29/0200 FG VV/// 10/10 Q1017 NOSIG=
201612260200 METAR VIDP 260200Z 26004KT 0000 R28/0175 R29/0200 FG VV/// 10/10 Q1017 NOSIG=
201612260230 METAR VIDP 260230Z 27006KT 0050 R28/0300 R29/0375 FG VV/// 10/10 Q1018 BECMG VIS 0150 FG=
201612260300 METAR VIDP 260300Z 27006KT 0100 R28/0350 R29/0400 FG VV/// 10/10 Q1018 BECMG VIS 0150 FG=
201612260330 METAR VIDP 260330Z 27006KT 0200 R28/0500 R29/0400 FG VV/// 11/11 Q1018 BECMG VIS 0350 FG=
201612260400 METAR VIDP 260400Z 26004KT 0500 R28/0800 R29/0800 FG NSC 12/12 Q1019 BECMG VIS 0600 MIFG=
201612260405 METAR VIDP NIL=
201612260430 METAR VIDP 260430Z 26006KT 0600 R28/1100 R29/1100 MIFG NSC 12/12 Q1019 BECMG VIS 0800 MIFG=
201612260500 METAR VIDP 260500Z 27006KT 0800 R28/1200 R29/1500 MIFG NSC 13/12 Q1019 NOSIG=
201612260530 METAR VIDP 260530Z 29006KT 1000 R28/1500 R29/1500 MIFG NSC 15/13 Q1019 NOSIG=
201612260600 METAR VIDP 260600Z 29006KT 1300 R28/1700 R29/1700 FU NSC 16/11 Q1019 BECMG VIS 1500 FU=
201612260630 METAR VIDP 260630Z 30006KT 1500 R28/1700 R29/1600 FU NSC 18/11 Q1018 NOSIG=
201612260700 METAR VIDP 260700Z 30006KT 1500 R28/1600 R29/1500 FU NSC 19/11 Q1018 NOSIG=
201612260705 METAR VIDP NIL=
201612260730 METAR VIDP 260730Z 31006KT 1500 R28/1600 R29/1500 FU NSC 20/11 Q1017 NOSIG=
201612260800 METAR VIDP 260800Z 31006KT 1500 R28/1700 R29/1500 FU NSC 21/11 Q1017 NOSIG=
201612260830 METAR VIDP 260830Z 30008KT 1500 R28/2000 R29/2000 FU NSC 22/10 Q1016 NOSIG=
201612260900 METAR VIDP 260900Z 32008KT 1500 R28/2000 R29/1500 FU NSC 22/10 Q1016 NOSIG=
201612260930 METAR VIDP 260930Z 32009KT 1500 R28/2000 R29/1500 FU NSC 23/10 Q1016 NOSIG=
201612261000 METAR VIDP 261000Z 33009KT 1500 R28/2000 R29/1500 FU NSC 22/09 Q1015 NOSIG=
201612261005 METAR VIDP NIL=
201612261030 METAR VIDP 261030Z 33009KT 1500 R28/2000 R29/1500 FU NSC 22/09 Q1015 NOSIG=
201612261100 METAR VIDP 261100Z 32009KT 1500 R28/2000 R29/1500 FU NSC 21/09 Q1015 NOSIG=
201612261130 METAR VIDP 261130Z 31008KT 1500 R28/2000 R29/1500 FU NSC 21/09 Q1015 NOSIG=
201612261200 METAR VIDP 261200Z 27005KT 1500 R28/P2000 R29/P2000 FU NSC 19/10 Q1015 NOSIG=
201612261205 METAR VIDP NIL=
201612261230 METAR VIDP 261230Z 28005KT 1500 R28/P2000 R29/P2000 FU NSC 18/11 Q1016 NOSIG=
201612261300 METAR VIDP 261300Z 28005KT 1500 R28/P2000 R29/P2000 FU NSC 17/11 Q1016 NOSIG=
201612261305 METAR VIDP NIL=
201612261330 METAR VIDP 261330Z 29006KT 1500 R28/P2000 R29/P2000 FU NSC 16/11 Q1016 NOSIG=
201612261400 METAR VIDP 261400Z 28005KT 1200 R28/P2000 R29/P2000 BR NSC 15/11 Q1017 NOSIG=
201612261430 METAR VIDP 261430Z 28005KT 1200 R28/P2000 R29/P2000 BR NSC 15/11 Q1017 NOSIG=
201612261500 METAR VIDP 261500Z 26004KT 1000 R28/P2000 R29/P2000 BR NSC 15/11 Q1017 BECMG 0800 MIFG=
201612261505 METAR VIDP NIL=
201612261530 METAR VIDP 261530Z 27004KT 0800 R28/P2000 R29/P2000 MIFG NSC 14/11 Q1017 NOSIG=
201612261600 METAR VIDP 261600Z 27004KT 0800 R28/P2000 R29/P2000 MIFG NSC 14/11 Q1017 NOSIG=
201612261630 METAR VIDP 261630Z 26004KT 0700 R28/1800 R29/0900 MIFG NSC 13/11 Q1018 BECMG 0600 MIFG=
201612261700 METAR VIDP 261700Z 24003KT 0600 R28/1600 R29/1200 MIFG NSC 13/11 Q1018 NOSIG=
201612261705 METAR VIDP NIL=
201612261730 METAR VIDP 261730Z 25002KT 0500 R28/1400 R29/1000 MIFG NSC 13/11 Q1018 NOSIG=
201612261800 METAR VIDP 261800Z 28003KT 0500 R28/1400 R29/1300 MIFG NSC 12/10 Q1018 NOSIG=
201612261830 METAR VIDP 261830Z 26004KT 0500 R28/1700 R29/1300 MIFG NSC 12/10 Q1017 NOSIG=
201612261900 METAR VIDP 261900Z 25003KT 0500 R28/1800 R29/1200 MIFG NSC 12/10 Q1017 NOSIG=
201612261905 METAR VIDP NIL=
201612261930 METAR VIDP 261930Z 26004KT 0500 R28/1700 R29/1200 MIFG NSC 11/09 Q1017 NOSIG=
201612262000 METAR VIDP 262000Z 26004KT 0400 R28/1700 R29/0900 FG NSC 11/10 Q1017 NOSIG=
201612262005 METAR VIDP NIL=
201612262030 METAR VIDP 262030Z 25004KT 0400 R28/1600 R29/0800 FG NSC 11/10 Q1017 NOSIG=
201612262100 METAR VIDP 262100Z 27004KT 0400 R28/1800 R29/0900 FG NSC 11/10 Q1017 NOSIG=
201612262130 METAR VIDP 262130Z 27004KT 0300 R28/1800 R29/0900 FG NSC 10/09 Q1017 NOSIG=
201612262200 METAR VIDP 262200Z 27003KT 0300 R28/0700 R29/0400 FG NSC 10/09 Q1016 NOSIG=
201612262205 METAR VIDP NIL=
201612262230 METAR VIDP 262230Z 25003KT 0200 R28/1100 R29/0200 FG VV/// 09/08 Q1016 BECMG 0150=
201612262300 METAR VIDP 262300Z 28004KT 0100 R28/1200 R29/0100 FG VV/// 09/08 Q1016 NOSIG=
201612262305 METAR VIDP NIL=
201612262330 METAR VIDP 262330Z 24003KT 0050 R28/0800 R29/0075 FG VV/// 08/08 Q1016 NOSIG=
201612270000 METAR VIDP 270000Z 26003KT 0050 R28/0700 R29/0100 FG VV/// 08/08 Q1016 NOSIG=
201612270030 METAR VIDP 270030Z 00000KT 0000 R28/0800 R29/0100 FG VV/// 08/08 Q1017 NOSIG=
201612270100 METAR VIDP 270100Z 00000KT 0000 R28/0200 R29/0050 FG VV/// 08/08 Q1017 NOSIG=
201612270105 METAR VIDP NIL=
201612270130 METAR VIDP 270130Z 00000KT 0000 R28/0200 R29/0075 FG VV/// 07/06 Q1017 NOSIG=
201612270200 METAR VIDP 270200Z 00000KT 0050 R28/0300 R29/0075 FG VV/// 07/06 Q1018 NOSIG=
201612270230 METAR VIDP 270230Z 00000KT 0100 R28/0400 R29/0200 FG VV/// 08/06 Q1018 BECMG 0150 FG=
201612270300 METAR VIDP 270300Z 00000KT 0200 R28/1200 R29/0700 FG VV/// 09/07 Q1018 BECMG 0350 FG=
201612270305 METAR VIDP NIL=
201612270330 METAR VIDP 270330Z 26004KT 0400 R28/1200 R29/1000 MIFG NSC 10/08 Q1018 BECMG 0600 MIFG=
201612270400 METAR VIDP 270400Z 24004KT 0600 R28/1300 R29/1100 MIFG NSC 12/09 Q1019 NOSIG=
201612270405 METAR VIDP NIL=
201612270430 METAR VIDP 270430Z 25004KT 0600 R28/1300 R29/1300 MIFG NSC 13/09 Q1019 NOSIG=
201612270500 METAR VIDP 270500Z 27006KT 0700 R28/1400 R29/1500 FU NSC 14/10 Q1019 BECMG 0800 FU=
201612270530 METAR VIDP 270530Z 29006KT 0700 R28/1400 R29/1400 FU NSC 16/10 Q1019 BECMG 0800 FU=
201612270600 METAR VIDP 270600Z 29006KT 0800 R28/1400 R29/1400 FU NSC 17/10 Q1019 NOSIG=
201612270630 METAR VIDP 270630Z 31006KT 1000 R28/1400 R29/1200 FU NSC 18/10 Q1019 NOSIG=
201612270700 METAR VIDP 270700Z 31008KT 1000 R28/1400 R29/1200 FU NSC 19/09 Q1019 NOSIG=
201612270730 METAR VIDP 270730Z 32006KT 1300 R28/1500 R29/1400 FU NSC 21/09 Q1018 BECMG VIS 1500 FU=
201612270800 METAR VIDP 270800Z 32006KT 1300 R28/1600 R29/1400 FU NSC 22/09 Q1017 BECMG VIS 1500 FU=
201612270830 METAR VIDP 270830Z 31006KT 1400 R28/1500 R29/1400 FU NSC 22/07 Q1016 BECMG VIS 1500 FU=
201612270900 METAR VIDP 270900Z 33006KT 1500 R28/1600 R29/1500 FU NSC 22/07 Q1016 NOSIG=
201612270905 METAR VIDP NIL=
201612270930 METAR VIDP 270930Z 31009KT 1500 R28/1700 R29/1500 FU NSC 23/06 Q1016 NOSIG=
201612271000 METAR VIDP 271000Z 30007KT 1700 R28/1800 R29/1500 FU NSC 23/05 Q1015 NOSIG=
201612271005 METAR VIDP NIL=
201612271030 METAR VIDP 271030Z 30007KT 1700 R28/1800 R29/1500 FU NSC 23/05 Q1015 NOSIG=
201612271100 METAR VIDP 271100Z 30006KT 1700 R28/1800 R29/1500 FU NSC 23/05 Q1015 NOSIG=
201612271105 METAR VIDP NIL=
201612271130 METAR VIDP 271130Z 29005KT 1700 R28/2000 R29/1700 FU NSC 21/06 Q1015 NOSIG=
201612271200 METAR VIDP 271200Z 27003KT 1800 R28/2000 R29/2000 FU NSC 20/07 Q1015 NOSIG=
201612271230 METAR VIDP 271230Z 27003KT 1800 R28/2000 R29/2000 FU NSC 19/07 Q1016 NOSIG=
201612271300 METAR VIDP 271300Z 27003KT 1600 R28/2000 R29/2000 FU NSC 18/08 Q1016 NOSIG=
201612271305 METAR VIDP NIL=
201612271330 METAR VIDP 271330Z 00000KT 1600 R28/2000 R29/2000 FU NSC 17/09 Q1016 NOSIG=
201612271400 METAR VIDP 271400Z 00000KT 1600 R28/2000 R29/2000 FU NSC 16/09 Q1016 BECMG 1500=
201612271430 METAR VIDP 271430Z 00000KT 1500 R28/2000 R29/2000 FU NSC 15/09 Q1017 NOSIG=
201612271500 METAR VIDP 271500Z 00000KT 1400 R28/2000 R29/2000 FU NSC 14/09 Q1017 NOSIG=
201612271530 METAR VIDP 271530Z 00000KT 1400 R28/2000 R29/2000 FU NSC 14/09 Q1017 NOSIG=
201612271600 METAR VIDP 271600Z 00000KT 1000 R28/2000 R29/1600 FU NSC 14/09 Q1017 NOSIG=
201612271605 METAR VIDP NIL=
201612271630 METAR VIDP 271630Z 00000KT 0900 R28/2000 R29/1400 MIFG NSC 13/09 Q1017 BECMG 0800 MIFG=
201612271700 METAR VIDP 271700Z 00000KT 0800 R28/2000 R29/1300 MIFG NSC 13/09 Q1018 NOSIG=
201612271730 METAR VIDP 271730Z 00000KT 0700 R28/2000 R29/1600 MIFG NSC 13/09 Q1018 BECMG 0600 MIFG=
201612271800 METAR VIDP 271800Z 00000KT 0500 R28/2000 R29/1500 FG NSC 12/09 Q1017 NOSIG=
201612271805 METAR VIDP NIL=
201612271830 METAR VIDP 271830Z 00000KT 0500 R28/2000 R29/1400 FG NSC 12/09 Q1017 NOSIG=
201612271900 METAR VIDP 271900Z 00000KT 0500 R28/2000 R29/1400 MIFG NSC 12/09 Q1017 NOSIG=
201612271930 METAR VIDP 271930Z 00000KT 0500 R28/2000 R29/1500 MIFG NSC 11/09 Q1017 NOSIG=
201612272000 METAR VIDP 272000Z 00000KT 0400 R28/2000 R29/1500 FG NSC 11/09 Q1017 NOSIG=
201612272030 METAR VIDP 272030Z 00000KT 0400 R28/2000 R29/1200 FG NSC 11/09 Q1017 NOSIG=
201612272100 METAR VIDP 272100Z 00000KT 0400 R28/2000 R29/1100 FG NSC 11/09 Q1016 BECMG 0350 FG=
201612272130 METAR VIDP 272130Z 00000KT 0350 R28/2000 R29/1100 FG NSC 10/09 Q1016 NOSIG=
201612272200 METAR VIDP 272200Z 00000KT 0300 R28/2000 R29/1100 FG NSC 10/09 Q1016 NOSIG=
201612272205 METAR VIDP NIL=
201612272230 METAR VIDP 272230Z 00000KT 0300 R28/2000 R29/1100 FG NSC 10/09 Q1016 NOSIG=
201612272300 METAR VIDP 272300Z 00000KT 0300 R28/2000 R29/1000 FG NSC 10/09 Q1016 NOSIG=
201612272305 METAR VIDP NIL=
201612272330 METAR VIDP 272330Z 00000KT 0200 R28/2000 R29/1100 FG NSC 10/09 Q1016 BECMG 0150=
201612280000 METAR VIDP 280000Z 26003KT 0200 R28/2000 R29/1600 FG NSC 10/09 Q1016 BECMG 0150 FG=
201612280030 METAR VIDP 280030Z 00000KT 0200 R28/2000 R29/1500 FG NSC 10/09 Q1016 BECMG 0150 FG=
201612280100 METAR VIDP 280100Z 00000KT 0100 R28/2000 R29/1500 FG NSC 10/09 Q1016 NOSIG=
201612280130 METAR VIDP 280130Z 00000KT 0100 R28/2000 R29/1500 FG NSC 10/09 Q1016 NOSIG=
201612280200 METAR VIDP 280200Z 00000KT 0200 R28/1500 R29/1000 FG NSC 10/09 Q1016 NOSIG=
201612280230 METAR VIDP 280230Z 00000KT 0250 R28/1400 R29/0900 FG NSC 11/09 Q1017 BECMG 0350=
201612280300 METAR VIDP 280300Z 00000KT 0350 R28/1500 R29/1000 FG NSC 11/09 Q1017 NOSIG=
201612280330 METAR VIDP 280330Z 00000KT 0500 R28/1500 R29/1500 FG FEW100 13/09 Q1017 BECMG 0600 MIFG=
201612280400 METAR VIDP 280400Z 26003KT 0800 R28/1400 R29/1400 FU FEW100 15/09 Q1017 NOSIG=
201612280430 METAR VIDP 280430Z 26003KT 0900 R28/1300 R29/1400 FU FEW100 15/08 Q1018 NOSIG=
201612280500 METAR VIDP 280500Z 28004KT 1000 R28/1300 R29/1400 FU FEW100 16/08 Q1018 NOSIG=
201612280505 METAR VIDP NIL=
201612280530 METAR VIDP 280530Z 28004KT 1200 R28/1300 R29/1400 FU FEW100 17/08 Q1018 NOSIG=
201612280600 METAR VIDP 280600Z 28004KT 1200 R28/1300 R29/2000 FU NSC 19/08 Q1017 NOSIG=
201612280630 METAR VIDP 280630Z 28006KT 1400 R28/2000 R29/2000 FU FEW100 21/08 Q1017 BECMG 1500 FU=
201612280700 METAR VIDP 280700Z 28004KT 2000 FU FEW100 22/08 Q1016 NOSIG=
201612280730 METAR VIDP 280730Z 31004KT 2100 FU FEW100 23/08 Q1015 NOSIG=
201612280800 METAR VIDP 280800Z 30006KT 2100 FU FEW100 23/08 Q1015 NOSIG=
201612280830 METAR VIDP 280830Z 29006KT 2100 FU FEW100 23/08 Q1015 NOSIG=
201612280900 METAR VIDP 280900Z 27006KT 2000 R28/1700 R29/1800 FU FEW100 23/06 Q1014 NOSIG=
201612280930 METAR VIDP 280930Z 28006KT 2000 R28/1600 R29/1500 FU FEW100 24/05 Q1014 NOSIG=
201612281000 METAR VIDP 281000Z 29006KT 2000 R28/1600 R29/1500 FU FEW100 24/05 Q1014 NOSIG=
201612281005 METAR VIDP NIL=
201612281030 METAR VIDP 281030Z 28006KT 2000 R28/1700 R29/2000 FU FEW100 24/04 Q1013 NOSIG=
201612281100 METAR VIDP 281100Z 28005KT 2000 R28/1700 R29/1900 FU NSC 23/05 Q1013 NOSIG=
201612281130 METAR VIDP 281130Z 28003KT 2000 R28/1800 R29/2000 FU NSC 22/06 Q1013 NOSIG=
201612281200 METAR VIDP 281200Z 00000KT 2000 R28/P2000 R29/P2000 FU NSC 21/07 Q1014 NOSIG=
201612281205 METAR VIDP NIL=
201612281230 METAR VIDP 281230Z 00000KT 2000 R28/P2000 R29/P2000 FU NSC 21/07 Q1014 NOSIG=
201612281300 METAR VIDP 281300Z 00000KT 2000 R28/P2000 R29/P2000 FU NSC 19/07 Q1014 NOSIG=
201612281330 METAR VIDP 281330Z 00000KT 2000 R28/P2000 R29/P2000 FU NSC 19/07 Q1015 NOSIG=
201612281400 METAR VIDP 281400Z 00000KT 1800 R28/P2000 R29/P2000 FU NSC 18/07 Q1015 NOSIG=
201612281430 METAR VIDP 281430Z 00000KT 1800 R28/P2000 R29/P2000 FU NSC 17/08 Q1015 NOSIG=
201612281500 METAR VIDP 281500Z 00000KT 1600 R28/P2000 R29/P2000 FU NSC 16/08 Q1015 BECMG 1500 FU=
201612281505 METAR VIDP NIL=
201612281530 METAR VIDP 281530Z 00000KT 1500 R28/P2000 R29/P2000 FU NSC 16/08 Q1016 NOSIG=
201612281600 METAR VIDP 281600Z 00000KT 1500 R28/P2000 R29/P2000 FU NSC 15/08 Q1016 NOSIG=
201612281630 METAR VIDP 281630Z 00000KT 1500 R28/P2000 R29/P2000 FU NSC 16/08 Q1016 NOSIG=
201612281700 METAR VIDP 281700Z 00000KT 1200 R28/P2000 R29/P2000 FU NSC 16/08 Q1017 NOSIG=
201612281730 METAR VIDP 281730Z 00000KT 1200 R28/P2000 R29/P2000 FU NSC 14/08 Q1017 NOSIG=
201612281800 METAR VIDP 281800Z 12003KT 1000 R28/P2000 R29/P2000 FU NSC 14/08 Q1017 NOSIG=
201612281830 METAR VIDP 281830Z 08003KT 1000 R28/P2000 R29/P2000 FU NSC 14/07 Q1017 NOSIG=
201612281900 METAR VIDP 281900Z 12004KT 1000 R28/P2000 R29/P2000 FU NSC 14/08 Q1017 NOSIG=
201612281905 METAR VIDP NIL=
201612281930 METAR VIDP 281930Z 11003KT 1000 R28/P2000 R29/P2000 FU NSC 13/08 Q1016 NOSIG=
201612282000 METAR VIDP 282000Z 10004KT 1000 R28/P2000 R29/P2000 FU NSC 13/08 Q1016 NOSIG=
201612282030 METAR VIDP 282030Z 11003KT 1000 R28/P2000 R29/P2000 FU NSC 12/07 Q1016 NOSIG=
201612282100 METAR VIDP 282100Z 10003KT 1000 R28/P2000 R29/P2000 BR NSC 11/07 Q1016 NOSIG=
201612282130 METAR VIDP 282130Z 10003KT 1000 R28/P2000 R29/P2000 BR NSC 11/07 Q1016 NOSIG=
201612282200 METAR VIDP 282200Z 00000KT 1000 R28/P2000 R29/P2000 BR NSC 11/09 Q1016 NOSIG=
201612282205 METAR VIDP NIL=
201612282230 METAR VIDP 282230Z 00000KT 1000 R28/P2000 R29/P2000 BR NSC 10/09 Q1016 NOSIG=
201612282300 METAR VIDP 282300Z 00000KT 1000 R28/P2000 R29/P2000 BR NSC 10/09 Q1016 NOSIG=
201612282305 METAR VIDP NIL=
201612282330 METAR VIDP 282330Z 00000KT 1000 R28/P2000 R29/P2000 BR NSC 10/09 Q1016 NOSIG=
201612290000 METAR VIDP 290000Z 00000KT 1200 R28/P2000 R29/P2000 BR NSC 10/09 Q1016 NOSIG=
201612290005 METAR VIDP NIL=
201612290030 METAR VIDP 290030Z 00000KT 1200 R28/P2000 R29/P2000 BR NSC 10/09 Q1016 NOSIG=
201612290100 METAR VIDP 290100Z 09004KT 1000 R28/P2000 R29/P2000 BR NSC 10/09 Q1016 NOSIG=
201612290105 METAR VIDP NIL=
201612290130 METAR COR VIDP 290130Z 10004KT 1000 R28/P2000 R29/P2000 BR NSC 11/09 Q1017 BECMG 0800 MIFG=
201612290200 METAR VIDP 290200Z 11004KT 0800 R28/1900 R29/1400 MIFG NSC 11/09 Q1017 NOSIG=
201612290205 METAR VIDP NIL=
201612290230 METAR VIDP 290230Z 11006KT 0700 R28/1200 R29/1100 MIFG NSC 13/11 Q1017 TEMPO 0600 MIFG=
201612290300 METAR VIDP 290300Z 11006KT 0600 R28/1100 R29/1100 MIFG NSC 13/11 Q1018 NOSIG=
201612290305 METAR VIDP NIL=
201612290330 METAR VIDP 290330Z 11006KT 0700 R28/1100 R29/1100 MIFG NSC 14/12 Q1018 BECMG 0800 MIFG=
201612290400 METAR VIDP 290400Z 14005KT 0800 R28/1200 R29/1100 MIFG NSC 16/12 Q1019 NOSIG=
201612290403 METAR VIDP 290403Z 15005KT 1000 R28/1200 R29/1400 FU NSC 18/12 Q1019 NOSIG=
201612290405 METAR VIDP NIL=
201612290430 METAR VIDP NIL=
201612290431 METAR VIDP 290431Z 15005KT 1000 R28/1200 R29/1400 FU NSC 18/12 Q1019 NOSIG=
201612290500 METAR VIDP 290500Z 15005KT 1000 R28/1200 R29/1400 FU NSC 18/12 Q1019 NOSIG=
201612290530 METAR VIDP 290530Z 14008KT 1000 R28/1200 R29/1300 FU NSC 19/11 Q1019 NOSIG=
201612290600 METAR VIDP 290600Z 14008KT 1200 R28/1200 R29/1400 FU NSC 20/11 Q1018 BECMG 1500 FU=
201612290630 METAR VIDP 290630Z 15008KT 1200 R28/1200 R29/1400 FU NSC 21/11 Q1018 BECMG 1500 FU=
201612290700 METAR VIDP 290700Z 15008KT 1200 R28/1200 R29/1400 FU NSC 21/11 Q1018 BECMG 1500 FU=
201612290705 METAR VIDP NIL=
201612290730 METAR VIDP 290730Z 15008KT 1500 R28/1200 R29/1300 FU NSC 21/11 Q1017 NOSIG=
201612290800 METAR VIDP 290800Z 12008KT 1200 R28/1200 R29/1400 FU NSC 21/11 Q1016 NOSIG=
201612290830 METAR VIDP 290830Z 12008KT 1200 R28/1200 R29/1400 FU NSC 21/11 Q1016 NOSIG=
201612290900 METAR VIDP 290900Z 11008KT 1200 R28/1200 R29/1200 FU NSC 21/11 Q1015 NOSIG=
201612290930 METAR VIDP 290930Z 11008KT 1100 R28/1200 R29/1100 FU NSC 21/11 Q1015 NOSIG=
201612291000 METAR VIDP 291000Z 11009KT 1100 R28/1800 R29/1200 FU NSC 21/12 Q1015 NOSIG=
201612291005 METAR VIDP NIL=
201612291030 METAR VIDP 291030Z 11008KT 1100 R28/2000 R29/1100 FU NSC 20/12 Q1015 NOSIG=
201612291100 METAR VIDP 291100Z 11009KT 1100 R28/2000 R29/1100 FU NSC 20/12 Q1015 NOSIG=
201612291130 METAR VIDP 291130Z 11008KT 1100 R28/2000 R29/1400 FU NSC 18/12 Q1015 NOSIG=
201612291200 METAR VIDP 291200Z 11005KT 0900 R28/2000 R29/1400 FU NSC 17/12 Q1015 BECMG 0800 MIFG=
201612291230 METAR VIDP 291230Z 13005KT 0800 R28/P2000 R29/P2000 MIFG NSC 16/12 Q1016 NOSIG=
201612291300 METAR VIDP 291300Z 10006KT 0700 R28/P2000 R29/P2000 MIFG NSC 15/12 Q1016 BECMG 0600 MIFG=
201612291330 METAR VIDP 291330Z 11006KT 0700 R28/P2000 R29/P2000 MIFG NSC 14/13 Q1016 BECMG 0600 MIFG=
201612291400 METAR VIDP 291400Z 12006KT 0600 R28/P2000 R29/1800 MIFG NSC 14/13 Q1016 NOSIG=
201612291430 METAR VIDP 291430Z 12005KT 0600 R28/P2000 R29/1600 MIFG NSC 14/13 Q1016 NOSIG=
201612291500 METAR VIDP 291500Z 11005KT 0500 R28/P2000 R29/1400 MIFG NSC 13/12 Q1017 NOSIG=
201612291530 METAR VIDP 291530Z 12005KT 0500 R28/P2000 R29/1400 MIFG NSC 13/12 Q1017 NOSIG=
201612291600 METAR VIDP 291600Z 12005KT 0500 R28/P2000 R29/1400 MIFG NSC 13/12 Q1017 NOSIG=
201612291630 METAR VIDP 291630Z 11005KT 0400 R28/1500 R29/1100 FG NSC 13/12 Q1017 BECMG 0350 FG=
201612291700 METAR VIDP 291700Z 12007KT 0400 R28/1500 R29/1200 FG NSC 12/11 Q1017 BECMG 0350 FG=
201612291730 METAR VIDP 291730Z 12006KT 0350 R28/1500 R29/1000 FG NSC 12/11 Q1017 NOSIG=
201612291800 METAR VIDP 291800Z 12007KT 0350 R28/1300 R29/1050 FG NSC 12/11 Q1017 NOSIG=
201612291830 METAR VIDP 291830Z 11006KT 0200 R28/1200 R29/0600 FG VV/// 12/12 Q1017 BECMG 0150 FG=
201612291900 METAR VIDP 291900Z 12005KT 0150 R28/0700 R29/0600 FG VV/// 12/11 Q1017 NOSIG=
201612291930 METAR VIDP 291930Z 10006KT 0100 R28/0800 R29/0400 FG VV/// 12/11 Q1017 NOSIG=
201612292000 METAR VIDP 292000Z 10006KT 0100 R28/0600 R29/0300 FG VV/// 12/11 Q1017 NOSIG=
201612292030 METAR VIDP 292030Z 11006KT 0100 R28/1200 R29/0300 FG VV/// 11/11 Q1017 NOSIG=
201612292100 METAR VIDP 292100Z 12006KT 0100 R28/2000 R29/0600 FG VV/// 11/11 Q1017 NOSIG=
201612292130 METAR VIDP 292130Z 12006KT 0100 R28/1200 R29/0600 FG VV/// 11/11 Q1017 NOSIG=
201612292200 METAR VIDP 292200Z 12006KT 0100 R28/1200 R29/0600 FG VV/// 11/11 Q1017 NOSIG=
201612292205 METAR VIDP NIL=
201612292230 METAR VIDP 292230Z 13006KT 0100 R28/2000 R29/1100 FG VV/// 11/11 Q1017 NOSIG=
201612292300 METAR VIDP 292300Z 13006KT 0100 R28/2000 R29/1300 FG VV/// 11/11 Q1017 NOSIG=
201612292305 METAR VIDP NIL=
201612292330 METAR VIDP 292330Z 12007KT 0300 R28/2000 R29/1500 FG NSC 11/11 Q1017 NOSIG=
201612300000 METAR VIDP 300000Z 12007KT 0300 R28/2000 R29/1500 FG NSC 11/11 Q1017 NOSIG=
201612300030 METAR VIDP 300030Z 14007KT 0300 R28/2000 R29/1500 FG NSC 11/11 Q1017 NOSIG=
201612300100 METAR VIDP 300100Z 12007KT 0300 R28/1800 R29/1300 FG NSC 11/11 Q1017 NOSIG=
201612300130 METAR VIDP 300130Z 12007KT 0300 R28/1800 R29/1300 FG NSC 11/11 Q1017 NOSIG=
201612300200 METAR VIDP 300200Z 13006KT 0300 R28/2000 R29/1100 FG NSC 11/11 Q1018 BECMG 0350 FG=
201612300230 METAR VIDP 300230Z 12006KT 0300 R28/2000 R29/1000 FG NSC 11/11 Q1018 BECMG 0350 FG=
201612300300 METAR VIDP 300300Z 12006KT 0400 R28/1700 R29/1000 FG NSC 11/11 Q1018 NOSIG=
201612300330 METAR VIDP 300330Z 11006KT 0400 R28/1700 R29/1000 FG NSC 11/11 Q1019 NOSIG=
201612300400 METAR VIDP 300400Z 12006KT 0400 R28/1800 R29/0900 FG NSC 11/11 Q1019 NOSIG=
201612300405 METAR VIDP NIL=
201612300430 METAR VIDP 300430Z 13006KT 0400 R28/2000 R29/0900 FG NSC 12/11 Q1019 NOSIG=
201612300500 METAR VIDP 300500Z 11006KT 0500 R28/2000 R29/0900 FG NSC 14/11 Q1019 BECMG 0600 MIFG=
201612300530 METAR VIDP 300530Z 10008KT 0700 R28/2000 R29/1000 MIFG NSC 14/11 Q1019 BECMG 0800 FU=
201612300600 METAR VIDP 300600Z 12006KT 0700 R28/1300 R29/1100 FU NSC 15/10 Q1019 BECMG 0800 FU=
201612300630 METAR VIDP 300630Z 12006KT 0700 R28/1200 R29/1200 FU NSC 15/10 Q1018 BECMG 0800 FU=
201612300700 METAR VIDP 300700Z 15006KT 0800 R28/1500 R29/1100 FU NSC 16/10 Q1018 NOSIG=
201612300730 METAR VIDP 300730Z 12007KT 0800 R28/1500 R29/1200 FU NSC 17/11 Q1017 NOSIG=
201612300800 METAR VIDP 300800Z 13006KT 0800 R28/1500 R29/1100 FU NSC 18/11 Q1017 NOSIG=
201612300830 METAR VIDP 300830Z 13006KT 0800 R28/1500 R29/1100 FU NSC 18/11 Q1017 NOSIG=
201612300900 METAR VIDP 300900Z 11006KT 0800 R28/1900 R29/1100 FU NSC 18/10 Q1017 NOSIG=
201612300905 METAR VIDP NIL=
201612300930 METAR VIDP 300930Z 10006KT 1000 R28/1900 R29/1100 FU NSC 18/10 Q1016 NOSIG=
201612301000 METAR VIDP 301000Z 12006KT 1000 R28/1900 R29/1100 FU NSC 18/10 Q1016 NOSIG=
201612301030 METAR VIDP 301030Z 10006KT 1000 R28/1900 R29/1100 FU NSC 18/10 Q1016 NOSIG=
201612301100 METAR VIDP 301100Z 12005KT 1200 R28/P2000 R29/P2000 FU NSC 18/11 Q1016 NOSIG=
201612301130 METAR VIDP 301130Z 12006KT 1200 R28/P2000 R29/P2000 FU NSC 17/11 Q1016 NOSIG=
201612301200 METAR VIDP 301200Z 13006KT 1200 R28/P2000 R29/P2000 FU NSC 16/11 Q1016 NOSIG=
201612301205 METAR VIDP NIL=
201612301230 METAR VIDP 301230Z 13006KT 1200 R28/P2000 R29/P2000 FU NSC 15/11 Q1016 NOSIG=
201612301300 METAR VIDP 301300Z 12006KT 1200 R28/P2000 R29/P2000 FU NSC 15/11 Q1016 NOSIG=
201612301305 METAR VIDP NIL=
201612301330 METAR VIDP 301330Z 12004KT 1200 R28/P2000 R29/P2000 BR NSC 14/11 Q1017 NOSIG=
201612301400 METAR VIDP 301400Z 13003KT 1200 R28/P2000 R29/P2000 BR NSC 14/12 Q1017 NOSIG=
201612301430 METAR VIDP 301430Z 13004KT 1000 R28/P2000 R29/P2000 BR NSC 13/11 Q1017 NOSIG=
201612301500 METAR VIDP 301500Z 12004KT 1000 R28/P2000 R29/P2000 BR NSC 13/11 Q1017 BECMG 0800 MIFG=
201612301505 METAR VIDP NIL=
201612301530 METAR VIDP 301530Z 12004KT 0800 R28/P2000 R29/1800 MIFG NSC 12/11 Q1017 NOSIG=
201612301600 METAR VIDP 301600Z 13004KT 0700 R28/P2000 R29/1600 MIFG NSC 12/10 Q1018 BECMG VIS 0600 MIFG=
201612301605 METAR VIDP NIL=
201612301630 METAR VIDP 301630Z 13004KT 0600 R28/P2000 R29/1300 MIFG NSC 12/10 Q1018 NOSIG=
201612301700 METAR VIDP 301700Z 10004KT 0600 R28/1800 R29/1200 MIFG NSC 12/10 Q1018 NOSIG=
201612301705 METAR VIDP NIL=
201612301730 METAR VIDP 301730Z 12003KT 0600 R28/1800 R29/1400 MIFG NSC 11/10 Q1018 NOSIG=
201612301800 METAR VIDP 301800Z 11003KT 0600 R28/1800 R29/1200 MIFG NSC 11/10 Q1018 NOSIG=
201612301830 METAR VIDP 301830Z 00000KT 0600 R28/1800 R29/0900 MIFG NSC 11/10 Q1018 NOSIG=
201612301900 METAR VIDP 301900Z 00000KT 0100 R28/1500 R29/0250 FG NSC 10/09 Q1017 NOSIG=
201612301930 METAR VIDP 301930Z 13005KT 0100 R28/1600 R29/0300 FG NSC 10/09 Q1017 NOSIG=
201612302000 METAR VIDP 302000Z 10005KT 0100 R28/0200 R29/0800 FG NSC 10/09 Q1017 NOSIG=
201612302005 METAR VIDP NIL=
201612302030 METAR VIDP 302030Z 10005KT 0100 R28/0400 R29/0800 FG NSC 10/09 Q1017 NOSIG=
201612302100 METAR VIDP 302100Z 11004KT 0100 R28/0400 R29/0200 FG NSC 09/08 Q1017 NOSIG=
201612302130 METAR VIDP 302130Z 10003KT 0050 R28/0100 R29/0200 FG NSC 09/08 Q1017 NOSIG=
201612302200 METAR VIDP 302200Z 12003KT 0050 R28/0100 R29/0200 FG NSC 09/08 Q1017 NOSIG=
201612302205 METAR VIDP NIL=
201612302230 METAR VIDP 302230Z 00000KT 0200 R28/1000 R29/1100 FG NSC 10/09 Q1016 NOSIG=
201612302300 METAR VIDP 302300Z 13003KT 0350 R28/1200 R29/1500 FG NSC 10/09 Q1016 NOSIG=
201612302330 METAR VIDP 302330Z 20003KT 0100 R28/1500 R29/0200 FG VV/// 09/09 Q1015 NOSIG=
