##########################################################
# Query made at 12/13/2025 04:33:11 UTC
# Time interval: from 12/10/2017 00:00  to 12/30/2017 23:59  UTC
##########################################################

##########################################################
# VIDP, New Delhi / Palam (India)
# WMO index: 42181. WIGOS ID: 0-20000-0-42181
# Latitude 28-34-00N. Longitude 077-07-00E. Altitude 225 m.
##########################################################

###################################
#  METAR/SPECI from VIDP
###################################
201712100000 METAR VIDP 100000Z 00000KT 1200 R28/P2000 R29/P2000 FU NSC 12/06 Q1015 NOSIG=
201712100005 METAR VIDP NIL=
201712100030 METAR VIDP 100030Z 00000KT 1200 R28/P2000 R29/P2000 FU NSC 12/06 Q1015 NOSIG=
201712100100 METAR VIDP 100100Z 00000KT 1000 R28/P2000 R29/P2000 FU NSC 12/06 Q1015 BECMG 0800 FU=
201712100105 METAR VIDP NIL=
201712100130 METAR VIDP 100130Z 00000KT 0800 R28/P2000 R29/1600 FU NSC 12/06 Q1016 NOSIG=
201712100200 METAR VIDP 100200Z 00000KT 0800 R28/1300 R29/1000 FU NSC 12/06 Q1016 NOSIG=
201712100205 METAR VIDP NIL=
201712100230 METAR VIDP 100230Z 00000KT 0800 R28/1400 R29/1100 FU NSC 12/06 Q1016 NOSIG=
201712100300 METAR VIDP 100300Z 00000KT 1000 R28/1500 R29/1300 FU NSC 13/07 Q1017 NOSIG=
201712100330 METAR VIDP 100330Z 00000KT 1200 R28/1500 R29/2000 FU NSC 15/06 Q1017 NOSIG=
201712100400 METAR VIDP 100400Z 25003KT 1300 R28/1300 R29/P2000 FU NSC 17/06 Q1017 BECMG 1500 FU=
201712100430 METAR VIDP 100430Z 29003KT 1500 R28/1200 R29/P2000 FU NSC 18/07 Q1017 NOSIG=
201712100501 METAR VIDP 100501Z 33003KT 1500 R28/P2000 R29/P2000 FU NSC 20/07 Q1017 NOSIG=
201712100505 METAR VIDP NIL=
201712100530 METAR VIDP 100530Z 35003KT 1500 R28/1400 R29/P2000 FU NSC 22/07 Q1017 NOSIG=
201712100600 METAR VIDP 100600Z 32003KT 2000 FU NSC 23/07 Q1017 NOSIG=
201712100630 METAR VIDP 100630Z 30003KT 2000 FU NSC 24/06 Q1017 NOSIG=
201712100700 METAR VIDP 100700Z 29003KT 2500 HZ NSC 26/04 Q1016 BECMG 3000 HZ=
201712100730 METAR VIDP 100730Z 27003KT 3000 HZ NSC 26/03 Q1015 NOSIG=
201712100800 METAR VIDP 100800Z 29003KT 3500 HZ NSC 27/03 Q1015 NOSIG=
201712100830 METAR VIDP 100830Z 28003KT 3500 HZ NSC 27/02 Q1015 NOSIG=
201712100900 METAR VIDP 100900Z 28004KT 3500 HZ NSC 27/02 Q1015 NOSIG=
201712100930 METAR VIDP 100930Z 32005KT 3500 HZ NSC 26/02 Q1014 NOSIG=
201712101000 METAR VIDP 101000Z 32005KT 4500 HZ NSC 26/02 Q1014 NOSIG=
201712101005 METAR VIDP NIL=
201712101030 METAR VIDP 101030Z 32005KT 4500 HZ NSC 25/02 Q1013 NOSIG=
201712101100 METAR VIDP 101100Z 32005KT 4500 HZ NSC 24/02 Q1013 NOSIG=
201712101105 METAR VIDP NIL=
201712101130 METAR VIDP 101130Z 28004KT 4500 HZ NSC 23/02 Q1013 NOSIG=
201712101200 METAR VIDP 101200Z 27003KT 4500 HZ NSC 22/05 Q1014 NOSIG=
201712101230 METAR VIDP 101230Z 27003KT 3500 HZ NSC 21/05 Q1014 NOSIG=
201712101300 METAR VIDP 101300Z 29003KT 3500 HZ NSC 20/05 Q1014 BECMG 3000 HZ=
201712101305 METAR VIDP NIL=
201712101330 METAR VIDP 101330Z 00000KT 3000 HZ NSC 20/06 Q1015 NOSIG=
201712101400 METAR VIDP 101400Z 00000KT 3000 HZ NSC 19/06 Q1015 NOSIG=
201712101430 METAR VIDP 101430Z 00000KT 3000 HZ NSC 18/06 Q1015 NOSIG=
201712101500 METAR VIDP 101500Z 00000KT 3000 HZ NSC 18/07 Q1015 NOSIG=
201712101530 METAR VIDP 101530Z 00000KT 3000 HZ NSC 17/05 Q1015 NOSIG=
201712101600 METAR VIDP 101600Z 00000KT 3000 HZ NSC 16/05 Q1016 NOSIG=
201712101630 METAR VIDP 101630Z 00000KT 3000 HZ NSC 16/05 Q1016 NOSIG=
201712101700 METAR VIDP 101700Z 00000KT 3000 HZ NSC 15/05 Q1016 NOSIG=
201712101705 METAR VIDP NIL=
201712101730 METAR VIDP 101730Z 00000KT 3000 HZ NSC 15/05 Q1016 NOSIG=
201712101800 METAR VIDP 101800Z 00000KT 2500 HZ NSC 14/06 Q1015 NOSIG=
201712101805 METAR VIDP NIL=
201712101830 METAR VIDP 101830Z 00000KT 2500 HZ NSC 13/06 Q1015 NOSIG=
201712101900 METAR VIDP 101900Z 00000KT 2500 HZ NSC 12/06 Q1015 NOSIG=
201712101930 METAR VIDP 101930Z 00000KT 2500 HZ NSC 12/06 Q1014 NOSIG=
201712102000 METAR VIDP 102000Z 00000KT 2500 HZ NSC 12/06 Q1014 NOSIG=
201712102030 METAR VIDP 102030Z 00000KT 2100 HZ NSC 12/06 Q1014 NOSIG=
201712102100 METAR VIDP 102100Z 00000KT 2100 HZ NSC 12/06 Q1014 NOSIG=
201712102105 METAR VIDP NIL=
201712102130 METAR VIDP 102130Z 00000KT 2100 HZ NSC 12/06 Q1014 NOSIG=
201712102200 METAR VIDP 102200Z 00000KT 2100 FU NSC 12/06 Q1014 NOSIG=
201712102230 METAR VIDP 102230Z 09003KT 1800 R28/P2000 R29/P2000 FU NSC 11/05 Q1014 BECMG 1500 FU=
201712102300 METAR VIDP 102300Z 09004KT 1500 R28/P2000 R29/P2000 FU NSC 11/05 Q1014 NOSIG=
201712102305 METAR VIDP NIL=
201712102330 METAR VIDP 102330Z 10003KT 1500 R28/P2000 R29/P2000 FU NSC 11/05 Q1013 NOSIG=
201712110000 METAR VIDP 110000Z 07004KT 1500 R28/P2000 R29/P2000 FU NSC 11/05 Q1013 NOSIG=
201712110005 METAR VIDP NIL=
201712110030 METAR VIDP 110030Z 08004KT 1200 R28/P2000 R29/P2000 BR NSC 10/06 Q1014 NOSIG=
201712110100 METAR VIDP 110100Z 08003KT 1200 R28/P2000 R29/P2000 BR NSC 10/06 Q1014 NOSIG=
201712110130 METAR VIDP 110130Z 09004KT 1000 R28/P2000 R29/P2000 FU FEW100 12/06 Q1014 BECMG 0800 FU=
201712110200 METAR VIDP 110200Z 08004KT 0800 R28/1400 R29/1400 FU FEW100 12/06 Q1015 NOSIG=
201712110205 METAR VIDP NIL=
201712110230 METAR VIDP 110230Z 00000KT 1000 R28/1700 R29/1300 FU NSC 14/08 Q1015 NOSIG=
201712110300 METAR VIDP 110300Z 00000KT 1000 R28/1500 R29/1100 FU NSC 15/08 Q1015 NOSIG=
201712110305 METAR VIDP NIL=
201712110330 METAR VIDP 110330Z 00000KT 1100 R28/1500 R29/1400 FU NSC 18/09 Q1016 NOSIG=
201712110400 METAR VIDP 110400Z 00000KT 1100 R28/1500 R29/1400 FU NSC 19/09 Q1016 NOSIG=
201712110430 METAR VIDP 110430Z 12004KT 1300 R28/P2000 R29/P2000 FU NSC 21/09 Q1016 BECMG 1500 FU=
201712110500 METAR VIDP 110500Z 15005KT 1500 R28/P2000 R29/P2000 FU NSC 22/08 Q1016 NOSIG=
201712110505 METAR VIDP NIL=
201712110530 METAR VIDP 110530Z 16005KT 1600 R28/P2000 R29/1800 FU SCT100 22/08 Q1016 NOSIG=
201712110600 METAR VIDP 110600Z 14007KT 1600 R28/P2000 R29/1900 FU SCT100 23/08 Q1015 NOSIG=
201712110605 METAR VIDP NIL=
201712110630 METAR VIDP 110630Z 14006KT 2200 FU SCT100 23/06 Q1015 NOSIG=
201712110700 METAR VIDP 110700Z 12007KT 2200 HZ SCT040 BKN100 23/06 Q1014 NOSIG=
201712110730 METAR VIDP 110730Z 13006KT 2500 HZ SCT040 BKN100 24/06 Q1013 NOSIG=
201712110800 METAR VIDP 110800Z 15007KT 2500 HZ SCT040 BKN100 24/06 Q1013 NOSIG=
201712110830 METAR VIDP 110830Z 15007KT 2500 HZ SCT040 BKN100 24/06 Q1012 NOSIG=
201712110900 METAR VIDP 110900Z 15007KT 2500 HZ SCT040 BKN100 24/06 Q1012 NOSIG=
201712110905 METAR VIDP NIL=
201712110930 METAR VIDP 110930Z 14005KT 2800 HZ SCT040 BKN100 24/08 Q1012 NOSIG=
201712111000 METAR VIDP 111000Z 15005KT 2800 HZ SCT040 BKN100 24/08 Q1012 NOSIG=
201712111005 METAR VIDP NIL=
201712111030 METAR VIDP 111030Z 15006KT 2800 HZ SCT040 BKN100 24/08 Q1012 BECMG 3000 HZ=
201712111100 METAR VIDP 111100Z 15006KT 3000 HZ SCT040 FEW040CB BKN100 24/08 Q1012 TEMPO 29020G30KT 1500 TSRA=
201712111105 METAR VIDP NIL=
201712111130 METAR VIDP 111130Z 26005KT 3000 HZ SCT035 FEW040CB BKN100 22/10 Q1013 TEMPO 29029G30KT 1500 TSRA=
201712111200 METAR VIDP 111200Z 28004KT 3000 HZ SCT035 FEW040CB BKN100 21/10 Q1013 TEMPO 27020G30KT 0800 TSRA=
201712111205 METAR VIDP NIL=
201712111230 METAR VIDP 111230Z 24004KT 2500 HZ SCT035 FEW040CB BKN100 21/11 Q1013 TEMPO 27020G30KT 0800 TSRA=
201712111300 METAR VIDP 111300Z 28007KT 2000 -DZ SCT035 FEW040CB OVC080 18/12 Q1014 TEMPO 27020G30KT 0800 TSRA=
201712111305 METAR VIDP NIL=
201712111330 METAR VIDP 111330Z 33005KT 2000 -DZ SCT035 FEW040CB OVC080 17/13 Q1014 TEMPO 27020G30KT 0800 TSRA=
201712111400 METAR VIDP 111400Z 07004KT 2200 BR SCT035 FEW040CB OVC080 17/14 Q1014 TEMPO 27020G30KT 0800 TSRA=
201712111430 METAR VIDP 111430Z 06002KT 2200 BR SCT035 FEW040 OVC080 17/14 Q1014 TEMPO 27020G30KT 0800 TSRA=
201712111500 METAR VIDP 111500Z 09006KT 2000 BR SCT035 FEW040CB OVC080 17/13 Q1014 TEMPO 27020G30KT 0800 TSRA=
201712111530 METAR VIDP 111530Z 09007KT 2000 DZ SCT035 FEW040CB OVC080 16/14 Q1013 NOSIG=
201712111600 METAR VIDP 111600Z 10008KT 2000 DZ SCT035 FEW040CB OVC080 16/14 Q1013 NOSIG=
201712111630 METAR VIDP 111630Z 11005KT 2000 BR SCT035 FEW040CB OVC080 16/14 Q1013 NOSIG=
201712111700 METAR VIDP 111700Z 12006KT 2000 BR SCT035 FEW040CB OVC080 16/13 Q1013 NOSIG=
201712111730 METAR VIDP 111730Z 12007KT 2500 BR SCT035 FEW040CB OVC080 16/13 Q1013 NOSIG=
201712111800 METAR VIDP 111800Z 11006KT 2500 BR SCT035 FEW040CB OVC080 16/13 Q1013 NOSIG=
201712111830 METAR VIDP 111830Z 11007KT 2500 BR SCT035 FEW040CB OVC080 15/12 Q1013 NOSIG=
201712111900 METAR VIDP 111900Z 11006KT 2500 BR SCT035 FEW040CB OVC080 15/13 Q1013 NOSIG=
201712111930 METAR COR VIDP 111930Z 00000KT 2500 BR SCT035 FEW040CB OVC080 15/13 Q1013 TEMPO 0800 TSRA=
201712112000 METAR VIDP 112000Z 25005KT 2200 TS SCT035 FEW040CB OVC080 15/13 Q1013 TEMPO 0800 TSRA=
201712112005 METAR VIDP NIL=
201712112030 METAR VIDP 112030Z 00000KT 2000 TS SCT035 FEW040CB OVC080 15/13 Q1014 TEMPO 0800 TSRA=
201712112100 METAR VIDP 112100Z 00000KT 2000 BR SCT035 FEW040CB OVC080 15/13 Q1013 TEMPO 0800 TSRA=
201712112130 METAR VIDP 112130Z 11003KT 2000 BR SCT035 FEW040CB OVC080 15/13 Q1013 TEMPO 0800 TSRA=
201712112200 METAR VIDP 112200Z 07004KT 2000 BR SCT035 FEW040CB OVC080 15/13 Q1013 TEMPO 0800 TSRA=
201712112230 METAR VIDP 112230Z 07003KT 2000 BR SCT035 FEW040CB OVC080 15/14 Q1013 TEMPO 0800 TSRA=
201712112300 METAR VIDP 112300Z 08002KT 2000 BR SCT035 FEW040CB BKN080 15/14 Q1013 TEMPO 0800 TSRA=
201712112330 METAR VIDP 112330Z 06003KT 1800 R28/P2000 R29/P2000 BR SCT035 BKN080 15/14 Q1013 BECMG 1500 BR=
201712120000 METAR VIDP 120000Z 00000KT 1800 R28/P2000 R29/P2000 BR SCT035 BKN080 15/14 Q1013 BECMG 1500 BR=
201712120030 METAR VIDP 120030Z 00000KT 1500 R28/P2000 R29/P2000 BR SCT035 BKN080 15/14 Q1014 NOSIG=
201712120100 METAR VIDP 120100Z 13003KT 1500 R28/P2000 R29/P2000 BR SCT035 BKN080 15/14 Q1014 NOSIG=
201712120130 METAR VIDP 120130Z 12004KT 1300 R28/P2000 R29/1700 BR SCT035 BKN080 15/13 Q1014 BECMG 0800 MIFG=
201712120200 METAR VIDP 120200Z 13004KT 1000 R28/P2000 R29/P1300 BR SCT035 BKN080 15/13 Q1015 BECMG 0800 MIFG=
201712120205 METAR VIDP NIL=
201712120230 METAR VIDP 120230Z 00000KT 1000 R28/P2000 R29/P1300 BR SCT035 BKN080 15/14 Q1015 BECMG 0800 MIFG=
201712120300 METAR VIDP 120300Z 11003KT 1100 R28/1400 R29/1400 BR SCT035 BKN080 15/14 Q1016 NOSIG=
201712120330 METAR VIDP 120330Z 11004KT 1200 R28/1400 R29/1400 BR SCT030 BKN080 15/14 Q1016 NOSIG=
201712120400 METAR VIDP 120400Z 21005KT 1200 R28/1400 R29/1200 BR SCT030 BKN080 15/14 Q1017 NOSIG=
201712120405 METAR VIDP NIL=
201712120430 METAR VIDP 120430Z 24003KT 1200 R28/1500 R29/1200 BR SCT030 BKN080 17/15 Q1017 NOSIG=
201712120500 METAR COR VIDP 120500Z 00000KT 1200 R28/1400 R29/1300 BR SCT040 BKN100 17/14 Q1017 NOSIG=
201712120505 METAR VIDP NIL=
201712120530 METAR VIDP 120530Z 24003KT 1200 R28/1400 R29/1400 BR SCT040 BKN100 19/15 Q1017 NOSIG=
201712120600 METAR VIDP 120600Z 25004KT 1200 R28/1400 R29/1400 BR SCT040 BKN100 19/15 Q1017 NOSIG=
201712120605 METAR VIDP NIL=
201712120630 METAR VIDP 120630Z 28005KT 1200 R28/1300 R29/1500 BR SCT040 BKN100 19/15 Q1016 NOSIG=
201712120700 METAR VIDP 120700Z 27009KT 1200 R28/1300 R29/1050 HZ SCT040 BKN100 19/15 Q1016 NOSIG=
201712120705 METAR VIDP NIL=
201712120730 METAR VIDP 120730Z 27007KT 1200 R28/1200 R29/1100 BR SCT040 BKN100 19/16 Q1016 NOSIG=
201712120800 METAR VIDP 120800Z 17008KT 1200 R28/1300 R29/1200 BR SCT040 BKN100 19/15 Q1015 NOSIG=
201712120805 METAR VIDP NIL=
201712120830 METAR VIDP 120830Z 27008KT 1200 R28/1200 R29/1200 BR SCT040 BKN100 18/15 Q1015 NOSIG=
201712120900 METAR VIDP 120900Z 26009KT 1200 R28/1400 R29/1200 BR SCT040 BKN100 18/15 Q1015 NOSIG=
201712120930 METAR VIDP 120930Z 27009KT 1100 R28/1400 R29/1100 BR SCT040 BKN100 17/15 Q1015 NOSIG=
201712121000 METAR VIDP 121000Z 28008KT 1100 R28/1400 R29/1200 BR SCT040 BKN100 17/14 Q1015 NOSIG=
201712121030 METAR VIDP 121030Z 29009KT 1100 R28/1400 R29/1200 BR SCT040 BKN100 17/14 Q1015 NOSIG=
201712121100 METAR VIDP 121100Z 28008KT 1400 R28/1800 R29/1500 BR FEW040 SCT100 16/14 Q1015 BECMG 1500 BR=
201712121105 METAR VIDP NIL=
201712121130 METAR VIDP 121130Z 30008KT 1500 R28/2000 R29/1700 BR FEW040 SCT100 16/14 Q1015 NOSIG=
201712121200 METAR VIDP 121200Z 31007KT 1200 R28/P2000 R29/P2000 BR FEW040 SCT100 16/14 Q1015 NOSIG=
201712121205 METAR VIDP NIL=
201712121230 METAR VIDP 121230Z 30006KT 1200 R28/P2000 R29/P2000 BR FEW040 SCT100 16/14 Q1015 NOSIG=
201712121300 METAR VIDP 121300Z 30007KT 1200 R28/P2000 R29/P2000 BR FEW040 SCT100 16/14 Q1016 NOSIG=
201712121305 METAR VIDP NIL=
201712121330 METAR VIDP 121330Z 29007KT 1200 R28/P2000 R29/P2000 BR SCT100 16/14 Q1016 NOSIG=
201712121400 METAR VIDP 121400Z 30006KT 1200 R28/P2000 R29/P2000 BR SCT100 16/14 Q1016 NOSIG=
201712121405 METAR VIDP NIL=
201712121430 METAR VIDP 121430Z 30006KT 1200 R28/P2000 R29/P2000 BR SCT100 16/14 Q1017 NOSIG=
201712121500 METAR VIDP 121500Z 29004KT 1200 R28/P2000 R29/P2000 BR SCT100 16/14 Q1017 NOSIG=
201712121505 METAR VIDP NIL=
201712121530 METAR VIDP 121530Z 29006KT 1200 R28/P2000 R29/P2000 BR FEW100 16/14 Q1017 NOSIG=
201712121600 METAR VIDP 121600Z 31005KT 1200 R28/P2000 R29/P2000 BR FEW040 16/14 Q1017 NOSIG=
201712121630 METAR VIDP 121630Z 30005KT 1200 R28/P2000 R29/P2000 BR FEW100 16/14 Q1017 NOSIG=
201712121700 METAR VIDP 121700Z 30005KT 1000 R28/P2000 R29/P2000 BR FEW100 15/14 Q1017 NOSIG=
201712121705 METAR VIDP NIL=
201712121730 METAR VIDP 121730Z 30005KT 1000 R28/P2000 R29/P2000 BR FEW100 15/14 Q1017 NOSIG=
201712121800 METAR VIDP 121800Z 28005KT 1000 R28/P2000 R29/P2000 BR FEW100 15/14 Q1017 NOSIG=
201712121830 METAR VIDP 121830Z 27005KT 1000 R28/P2000 R29/P2000 BR FEW100 15/14 Q1017 NOSIG=
201712121900 METAR VIDP 121900Z 25005KT 1000 R28/P2000 R29/P2000 BR FEW100 15/14 Q1017 NOSIG=
201712121930 METAR VIDP 121930Z 26005KT 1000 R28/P2000 R29/P2000 BR FEW100 15/14 Q1017 NOSIG=
201712122000 METAR VIDP 122000Z 27006KT 1000 R28/P2000 R29/P2000 BR FEW100 15/14 Q1017 NOSIG=
201712122030 METAR VIDP 122030Z 27006KT 1000 R28/P2000 R29/P2000 BR FEW100 15/14 Q1017 NOSIG=
201712122100 METAR VIDP 122100Z 28006KT 1000 R28/P2000 R29/P2000 BR FEW100 15/14 Q1017 NOSIG=
201712122130 METAR VIDP 122130Z 26004KT 0900 R28/P2000 R29/P2000 MIFG NSC 15/14 Q1017 BECMG 0800 MIFG=
201712122200 METAR VIDP 122200Z 27005KT 0800 R28/P2000 R29/P2000 MIFG NSC 14/14 Q1017 NOSIG=
201712122230 METAR VIDP 122230Z 27005KT 0800 R28/P2000 R29/P2000 MIFG NSC 14/13 Q1017 NOSIG=
201712122300 METAR VIDP 122300Z 26005KT 0800 R28/P2000 R29/P2000 MIFG NSC 14/13 Q1017 NOSIG=
201712122330 METAR VIDP 122330Z 28005KT 0700 R28/P2000 R29/1900 MIFG NSC 14/12 Q1017 TEMPO 0600 MIFG=
201712130000 METAR VIDP 130000Z 28003KT 0600 R28/P2000 R29/P2000 MIFG NSC 14/12 Q1017 NOSIG=
201712130030 METAR VIDP 130030Z 28006KT 0600 R28/P2000 R29/1900 MIFG NSC 14/12 Q1017 NOSIG=
201712130100 METAR VIDP 130100Z 26007KT 0400 R28/1500 R29/1400 FG NSC 13/12 Q1017 NOSIG=
201712130130 METAR VIDP 130130Z 26005KT 0300 R28/1400 R29/1200 FG NSC 13/12 Q1018 NOSIG=
201712130200 METAR VIDP 130200Z 26005KT 0300 R28/1100 R29/0800 FG NSC 13/12 Q1018 NOSIG=
201712130205 METAR VIDP NIL=
201712130230 METAR VIDP 130230Z 27005KT 0300 R28/1100 R29/0800 FG NSC 13/12 Q1019 NOSIG=
201712130300 METAR VIDP 130300Z 28005KT 0300 R28/1000 R29/0900 FG NSC 13/12 Q1019 NOSIG=
201712130330 METAR COR VIDP 130330Z 28004KT 0400 R28/0900 R29/0600 FG NSC 13/12 Q1019 BECMG 0600 MIFG=
201712130400 METAR COR VIDP 130400Z 27006KT 0400 R28/1500 R29/0800 FG NSC 14/12 Q1020 BECMG 0600 MIFG=
201712130430 METAR VIDP 130430Z 25006KT 0400 R28/1000 R29/0700 FG NSC 14/12 Q1020 BECMG VIS 0600=
201712130500 METAR VIDP 130500Z 27006KT 0400 R28/1500 R29/1100 FG NSC 14/12 Q1020 BECMG VIS 0800=
201712130530 METAR VIDP 130530Z 27005KT 1000 R28/1600 R29/1600 BR NSC 15/12 Q1020 NOSIG=
201712130600 METAR VIDP 130600Z 25006KT 1000 R28/1300 R29/1800 BR NSC 15/12 Q1020 NOSIG=
201712130630 METAR VIDP 130630Z 26008KT 1000 R28/1100 R29/1200 BR NSC 16/12 Q1019 NOSIG=
201712130700 METAR VIDP 130700Z 27007KT 1000 R28/1100 R29/1200 BR NSC 16/12 Q1019 NOSIG=
201712130730 METAR VIDP 130730Z 28006KT 1000 R28/1200 R29/1400 BR NSC 17/13 Q1018 NOSIG=
201712130800 METAR VIDP 130800Z 28006KT 1000 R28/1200 R29/1400 BR NSC 17/13 Q1018 NOSIG=
201712130805 METAR VIDP NIL=
201712130830 METAR COR VIDP 130830Z 29006KT 1100 R28/P1100 R29/P1300 FU NSC 18/13 Q1018 NOSIG=
201712130900 METAR VIDP 130900Z 30006KT 1100 R28/1100 R29/1300 FU NSC 18/13 Q1018 NOSIG=
201712130930 METAR VIDP 130930Z 29005KT 1100 R28/1100 R29/1400 FU NSC 19/13 Q1017 NOSIG=
201712131000 METAR VIDP 131000Z 29005KT 1300 R28/P1500 R29/P1400 FU NSC Q1017 NOSIG=
201712131030 METAR VIDP 131030Z 28007KT 1300 R28/1700 R29/1400 FU NSC 18/13 Q1017 NOSIG=
201712131100 METAR VIDP 131100Z 28006KT 1300 R28/1700 R29/1400 FU NSC 18/13 Q1017 TEMPO 1500 FU=
201712131130 METAR VIDP 131130Z 26006KT 1500 R28/1900 R29/1700 BR NSC 17/13 Q1017 NOSIG=
201712131200 METAR VIDP 131200Z 25006KT 1500 R28/P2000 R29/1800 BR NSC 16/13 Q1017 NOSIG=
201712131205 METAR VIDP NIL=
201712131230 METAR VIDP 131230Z 26005KT 1500 R28/P2000 R29/P2000 BR NSC 16/13 Q1017 NOSIG=
201712131300 METAR VIDP 131300Z 26005KT 1200 R28/P2000 R29/1700 BR NSC 15/13 Q1018 NOSIG=
201712131330 METAR VIDP 131330Z 26005KT 1000 R28/P2000 R29/1600 BR NSC 14/12 Q1018 BECMG 0800 MIFG=
201712131400 METAR VIDP 131400Z 26005KT 0700 R28/1600 R29/1500 MIFG NSC 13/12 Q1018 BECMG 0800 MIFG=
201712131430 METAR VIDP 131430Z 27005KT 0600 R28/1600 R29/1200 MIFG NSC 13/13 Q1018 NOSIG=
201712131500 METAR VIDP 131500Z 27005KT 0600 R28/1500 R29/0950 MIFG NSC 13/12 Q1018 NOSIG=
201712131530 METAR VIDP 131530Z 25004KT 0600 R28/1700 R29/0950 MIFG NSC 13/12 Q1018 NOSIG=
201712131605 METAR VIDP NIL=
201712131630 METAR VIDP 131630Z 28004KT 0150 R28/1000 R29/0150 FG NSC 12/11 Q1019 NOSIG=
201712131700 METAR VIDP 131700Z 27004KT 0000 R28/0200 R29/0150 FG NSC 11/11 Q1019 NOSIG=
201712131705 METAR VIDP NIL=
201712131730 METAR VIDP NIL=
201712131800 METAR VIDP 131800Z 27004KT 0000 R/28/0175 R/29/0150 FG VV/// 11/11 Q1019 NOSIG=
201712131805 METAR VIDP NIL=
201712131830 METAR VIDP 131830Z 32005KT 0100 R28/1500 R29/0700 FG VV/// 12/11 Q1019 BECMG VIS 0150 FG=
201712131900 METAR VIDP 131900Z 28006KT 0150 R28/1400 R29/1000 FG VV/// 12/12 Q1019 NOSIG=
201712131930 METAR VIDP 131930Z 28005KT 0150 R28/1000 R29/0750 FG VV/// 12/11 Q1019 NOSIG=
201712132000 METAR VIDP 132000Z 28006KT 0150 R28/1600 R29/1000 FG VV/// 12/11 Q1019 NOSIG=
201712132030 METAR VIDP 132030Z 30006KT 0150 R/28/1000 R/29/0800 FG VV/// 12/11 Q1019 NOSIG=
201712132100 METAR VIDP 132100Z 32003KT 0200 R28/2000 R29/1100 FG VV/// 12/12 Q1018 NOSIG=
201712132130 METAR VIDP 132130Z 32005KT 0300 R28/1800 R29/1500 FG VV/// 12/12 Q1018 NOSIG=
201712132200 METAR VIDP 132200Z 30006KT 0300 R28/2000 R29/1600 FG VV/// 12/12 Q1018 NOSIG=
201712132205 METAR VIDP NIL=
201712132230 METAR VIDP 132230Z 29007KT 0300 R28/P2000 R29/1800 FG VV/// 12/12 Q1018 NOSIG=
201712132300 METAR VIDP 132300Z 31005KT 0400 R28/1600 R29/1500 FG VV/// 12/12 Q1018 NOSIG=
201712132330 METAR VIDP 132330Z 32006KT 0400 R28/P2000 R29/1600 FG VV/// 12/12 Q1018 NOSIG=
201712140000 METAR VIDP 140000Z 29006KT 0400 R28/P2000 R29/1800 FG VV/// 12/12 Q1018 NOSIG=
201712140030 METAR COR VIDP 140030Z 30006KT 0400 R28/P2000 R29/P2000 FG VV/// 11/11 Q1019 NOSIG=
201712140100 METAR VIDP 140100Z 32006KT 0700 R28/P2000 R29/P2000 MIFG NSC 11/11 Q1019 BECMG 0800 MIFG=
201712140105 METAR VIDP NIL=
201712140130 METAR VIDP 140130Z 32006KT 0700 R28/P2000 R29/P2000 MIFG NSC 11/11 Q1019 BECMG 0800 MIFG=
201712140200 METAR VIDP 140200Z 30006KT 0800 R28/P2000 R29/1900 MIFG NSC 11/11 Q1020 NOSIG=
201712140205 METAR VIDP NIL=
201712140230 METAR VIDP 140230Z 29006KT 0800 R28/1900 R29/1500 MIFG NSC 11/10 Q1020 NOSIG=
201712140300 METAR VIDP 140300Z 28006KT 0800 R28/1700 R29/1400 MIFG NSC 11/10 Q1020 NOSIG=
201712140305 METAR VIDP NIL=
201712140330 METAR VIDP 140330Z 30005KT 0800 R28/1600 R29/1300 MIFG NSC 11/10 Q1021 NOSIG=
201712140400 METAR VIDP 140400Z 28007KT 1000 R28/1400 R29/1300 BR NSC 11/09 Q1021 NOSIG=
201712140430 METAR VIDP 140430Z 27006KT 1000 R28/1600 R29/1400 BR NSC 12/09 Q1022 NOSIG=
201712140500 METAR VIDP 140500Z 27007KT 1200 R28/1700 R29/1900 BR FEW040 12/09 Q1022 NOSIG=
201712140530 METAR VIDP 140530Z 27006KT 1300 R28/1900 R29/P2000 BR FEW040 13/10 Q1022 BECMG 1500 BR=
201712140600 METAR VIDP 140600Z 28006KT 1500 R28/P2000 R29/P2000 BR FEW040 13/10 Q1022 NOSIG=
201712140630 METAR VIDP 140630Z 28007KT 1500 R28/P2000 R29/1800 FU NSC 15/10 Q1021 NOSIG=
201712140700 METAR VIDP 140700Z 29006KT 1500 R28/P2000 R29/1600 FU NSC 16/10 Q1021 NOSIG=
201712140730 METAR VIDP 140730Z 30006KT 1500 R28/P2000 R29/1600 FU NSC 16/10 Q1020 NOSIG=
201712140800 METAR VIDP 140800Z 28007KT 1500 R28/P2000 R29/1500 FU NSC 17/10 Q1020 NOSIG=
201712140830 METAR VIDP 140830Z 31007KT 1500 R28/P2000 R29/1600 FU NSC 17/10 Q1019 NOSIG=
201712140900 METAR VIDP 140900Z 23007KT 1500 R28/P2000 R29/1600 17/10 Q1019 NOSIG=
201712140905 METAR VIDP NIL=
201712140930 METAR VIDP 140930Z 28006KT 1500 R28/P2000 R29/1600 FU NSC 18/10 Q1019 NOSIG=
201712141000 METAR VIDP 141000Z 28006KT 1500 R28/P2000 R29/1600 FU NSC 18/10 Q1019 NOSIG=
201712141005 METAR VIDP NIL=
201712141030 METAR VIDP 141030Z 29006KT 1500 R28/P2000 R29/1600 FU NSC 18/10 Q1019 NOSIG=
201712141100 METAR VIDP 141100Z 29006KT 1500 R28/P2000 R29/1700 FU NSC 18/10 Q1018 NOSIG=
201712141130 METAR VIDP 141130Z 29006KT 1500 R28/P2000 R29/1700 FU NSC 17/10 Q1018 NOSIG=
201712141200 METAR VIDP 141200Z 31007KT 1500 R28/P2000 R29/P2000 FU NSC 16/09 Q1018 NOSIG=
201712141230 METAR VIDP 141230Z 32006KT 1500 R28/P2000 R29/P2000 FU NSC 15/09 Q1018 NOSIG=
201712141300 METAR VIDP 141300Z 32005KT 1500 R28/P2000 R29/P2000 FU NSC 15/09 Q1019 NOSIG=
201712141330 METAR VIDP 141330Z 36006KT 1500 R28/P2000 R29/P2000 FU NSC 14/09 Q1019 NOSIG=
201712141400 METAR VIDP 141400Z 34006KT 1500 R28/P2000 R29/P2000 BR NSC 14/10 Q1019 NOSIG=
201712141430 METAR VIDP 141430Z 34007KT 1500 R28/P2000 R29/P2000 BR NSC 13/10 Q1020 NOSIG=
201712141500 METAR VIDP 141500Z 36007KT 1200 R28/P2000 R29/P2000 BR NSC 13/10 Q1020 NOSIG=
201712141505 METAR VIDP NIL=
201712141530 METAR VIDP 141530Z 36006KT 1200 R28/P2000 R29/P2000 BR NSC 12/10 Q1020 NOSIG=
201712141600 METAR VIDP 141600Z 35004KT 1200 R28/P2000 R29/P2000 BR NSC 12/10 Q1020 NOSIG=
201712141605 METAR VIDP NIL=
201712141630 METAR VIDP 141630Z 35005KT 1200 R28/2000 R29/2000 BR NSC 12/10 Q1020 NOSIG=
201712141700 METAR VIDP 141700Z 36005KT 1200 R28/P2000 R29/P2000 BR NSC 11/09 Q1020 NOSIG=
201712141705 METAR VIDP NIL=
201712141730 METAR VIDP 141730Z 01004KT 1100 R28/2000 R29/2000 BR NSC 11/10 Q1020 NOSIG=
201712141800 METAR VIDP 141800Z 33003KT 0900 R28/2000 R29/1900 MIFG NSC 11/10 Q1020 NOSIG=
201712141805 METAR VIDP NIL=
201712141830 METAR VIDP 141830Z 31005KT 0900 R28/2000 R29/2000 MIFG NSC 11/10 Q1020 NOSIG=
201712141900 METAR VIDP 141900Z 32008KT 0900 R28/2000 R29/2000 MIFG NSC 11/10 Q1020 NOSIG=
201712141930 METAR VIDP 141930Z 31009KT 0900 R28/P2000 R29/P2000 MIFG NSC 10/09 Q1020 BECMG VIS 0800=
201712142000 METAR VIDP 142000Z 32007KT 0900 R28/P2000 R29/P2000 MIFG NSC 10/09 Q1020 BECMG VIS 0800=
201712142005 METAR VIDP NIL=
201712142030 METAR VIDP NIL=
201712142100 METAR VIDP 142100Z 31006KT 0900 R28/2000 R29/2000 MIFG NSC 10/09 Q1019 BECMG VIS 0800=
201712142130 METAR VIDP 142130Z 31006KT 0800 R28/2000 R29/2000 MIFG NSC 10/09 Q1019 NOSIG=
201712142205 METAR VIDP NIL=
201712142230 METAR VIDP NIL=
201712142300 METAR VIDP 142300Z 29005KT 0800 R28/2000 R29/1900 MIFG NSC 09/08 Q1019 NOSIG=
201712142330 METAR VIDP 142330Z 30005KT 0800 R28/2000 R29/2000 MIFG NSC 09/08 Q1019 NOSIG=
201712150000 METAR VIDP 150000Z 30005KT 0800 R28/P2000 R29/1900 MIFG NSC 09/08 Q1019 BECMG VIS 0600=
201712150005 METAR VIDP NIL=
201712150030 METAR VIDP 150030Z 29005KT 0600 R28/P2000 R29/1900 MIFG NSC 09/08 Q1019 NOSIG=
201712150100 METAR VIDP 150100Z 29005KT 0600 R28/P2000 R29/1900 MIFG NSC 08/07 Q1019 NOSIG=
201712150130 METAR VIDP 150130Z 30005KT 0400 R28/P2000 R29/1700 FG NSC 08/08 Q1020 NOSIG=
201712150200 METAR VIDP 150200Z 31005KT 0400 R28/1400 R29/1100 FG NSC 08/08 Q1020 BECMG 0350 FG=
201712150230 METAR VIDP 150230Z 31005KT 0350 R28/1300 R29/1100 FG NSC 08/08 Q1020 NOSIG=
201712150300 METAR VIDP 150300Z 30005KT 0400 R28/1200 R29/1000 FG NSC 09/08 Q1021 NOSIG=
201712150330 METAR VIDP 150330Z 31006KT 0500 R28/1200 R29/1100 FG FEW040 09/08 Q1021 NOSIG=
201712150400 METAR VIDP 150400Z 30007KT 0500 R28/1300 R29/1200 FG FEW040 10/08 Q1022 BECMG 0500 MIFG=
201712150405 METAR VIDP NIL=
201712150430 METAR VIDP 150430Z 30006KT 0700 R28/1300 R29/1200 MIFG FEW040 10/08 Q1022 NOSIG=
201712150500 METAR VIDP 150500Z 30005KT 0700 R28/1400 R29/1300 MIFG NSC 11/08 Q1022 BECMG 0800 MIFG=
201712150505 METAR VIDP NIL=
201712150530 METAR VIDP 150530Z 30007KT 0800 R28/1500 R29/1400 MIFG NSC 12/08 Q1022 NOSIG=
201712150600 METAR VIDP 150600Z 29006KT 1000 R28/1700 R29/1400 FU NSC 13/08 Q1022 NOSIG=
201712150605 METAR VIDP NIL=
201712150630 METAR VIDP 150630Z 30005KT 1100 R28/1600 R11/1300 FU NSC 14/08 Q1022 NOSIG=
201712150700 METAR VIDP 150700Z 29006KT 1200 R28/1800 R29/1400 FU NSC 16/08 Q1021 NOSIG=
201712150705 METAR VIDP NIL=
201712150730 METAR VIDP 150730Z 29006KT 1200 R28/1800 R29/1600 FU NSC 16/08 Q1021 NOSIG=
201712150800 METAR VIDP 150800Z 29006KT 1200 R28/1800 R29/1500 FU NSC 17/08 Q1021 BECMG 1500 FU=
201712150830 METAR VIDP 150830Z 29006KT 1200 R28/P2000 R29/P2000 FU FEW100 18/07 Q1020 BECMG 1500 FU=
201712150900 METAR COR VIDP 150900Z 32008KT 1700 R28/P2000 R29/P2000 FU FEW100 18/07 Q1020 NOSIG=
201712150905 METAR VIDP NIL=
201712150930 METAR VIDP 150930Z 30008KT 2000 HZ FEW100 18/08 Q1020 NOSIG=
201712150931 METAR VIDP 150931Z 30008KT 2000 HZ FEW100 18/08 Q1020 NOSIG=
201712151000 METAR VIDP 151000Z 33008KT 2000 HZ FEW100 18/08 Q1020 NOSIG=
201712151005 METAR VIDP NIL=
201712151030 METAR VIDP 151030Z 30008KT 2000 HZ FEW100 18/08 Q1020 NOSIG=
201712151100 METAR VIDP 151100Z 32008KT 2000 HZ FEW100 18/08 Q1020 NOSIG=
201712151105 METAR VIDP NIL=
201712151130 METAR VIDP 151130Z 32007KT 2200 HZ FEW100 17/08 Q1020 NOSIG=
201712151200 METAR VIDP 151200Z 28006KT 2500 HZ FEW100 17/08 Q1020 NOSIG=
201712151230 METAR VIDP 151230Z 29006KT 2500 HZ FEW100 16/07 Q1020 NOSIG=
201712151300 METAR VIDP 151300Z 27007KT 2500 HZ FEW100 14/08 Q1021 NOSIG=
201712151330 METAR VIDP 151330Z 27006KT 2500 HZ FEW100 14/08 Q1021 NOSIG=
201712151400 METAR VIDP 151400Z 28006KT 2200 HZ FEW100 14/08 Q1021 NOSIG=
201712151401 METAR VIDP 151401Z 28006KT 2200 HZ FEW100 14/08 Q1021 NOSIG=
201712151430 METAR VIDP 151430Z 30006KT 2200 HZ FEW100 13/07 Q1021 NOSIG=
201712151500 METAR VIDP 151500Z 29005KT 2200 HZ FEW100 13/08 Q1021 NOSIG=
201712151530 METAR VIDP 151530Z 28005KT 2200 HZ FEW100 13/08 Q1022 NOSIG=
201712151600 METAR VIDP 151600Z 29005KT 2200 BR NSC 12/08 Q1022 NOSIG=
201712151630 METAR VIDP 151630Z 28006KT 2200 BR NSC 12/08 Q1022 NOSIG=
201712151700 METAR COR VIDP 151700Z 26005KT 1600 R28/P2000 R29/P1700 BR NSC 11/08 Q1022 BECMG 1500 BR=
201712151730 METAR VIDP 151730Z 25005KT 1000 R28/2000 R29/1300 BR NSC 10/08 Q1022 BECMG 0800 MIFG=
201712151800 METAR VIDP 151800Z 25005KT 0600 R28/1600 R29/1100 MIFG NSC 10/08 Q1022 NOSIG=
201712151830 METAR COR VIDP 151830Z 26005KT 0500 R28/1500 R29/1100 FG NSC 09/08 Q1022 NOSIG=
201712151900 METAR VIDP 151900Z 26004KT 0400 R28/1100 R29/0900 FG NSC 09/08 Q1022 BECMG 0350 FG=
201712151930 METAR VIDP 151930Z 25005KT 0300 R28/1100 R29/0900 FG NSC 09/08 Q1022 NOSIG=
201712152000 METAR VIDP 152000Z 26007KT 0200 R28/0900 R29/0500 FG NSC 09/08 Q1022 BECMG 0150 FG=
201712152030 METAR VIDP 152030Z 27006KT 0100 R28/0600 R29/0400 FG VV/// 08/08 Q1021 NOSIG=
201712152100 METAR VIDP 152100Z 27007KT 0100 R28/0700 R29/0500 FG VV/// 08/08 Q1021 NOSIG=
201712152130 METAR VIDP 152130Z 27007KT 0100 R28/1000 R29/0300 FG VV/// 08/08 Q1021 NOSIG=
201712152200 METAR VIDP 152200Z 28007KT 0100 R28/1800 R29/0950 FG VV/// 09/08 Q1021 BECMG 0150 FG=
201712152201 METAR VIDP 152201Z 28007KT 0100 R28/1800 R29/0950 FG VV/// 09/08 Q1021 BECMG 0150 FG=
201712152205 METAR VIDP NIL=
201712152230 METAR VIDP 152230Z 27007KT 0400 R28/P2000 R29/1600 FG VV/// 09/08 Q1021 BECMG 0600 MIFG=
201712152300 METAR VIDP 152300Z 28008KT 0600 R28/P2000 R29/1900 MIFG NSC 09/08 Q1021 BECMG 0800 MIFG=
201712152330 METAR VIDP 152330Z 29008KT 0800 R28/P2000 R29/P2000 BR NSC 09/08 Q1021 NOSIG=
201712160000 METAR VIDP 160000Z 30008KT 0800 R28/P2000 R29/P2000 BR NSC 08/08 Q1021 NOSIG=
201712160030 METAR VIDP 160030Z 28007KT 0800 R28/P2000 R29/1900 BR NSC 08/08 Q1021 NOSIG=
201712160100 METAR VIDP 160100Z 28007KT 1000 R28/P2000 R29/1800 BR NSC 08/08 Q1021 NOSIG=
201712160130 METAR VIDP 160130Z 28008KT 0900 R28/P2000 R29/1500 BR NSC 08/08 Q1021 BECMG 0800 MIFG=
201712160200 METAR VIDP 160200Z 29008KT 0700 R28/1700 R29/1100 MIFG NSC 08/08 Q1022 BECMG 0600 MIFG=
201712160230 METAR VIDP 160230Z 28008KT 0500 R28/1000 R29/1000 MIFG NSC 08/08 Q1022 NOSIG=
201712160300 METAR VIDP 160300Z 28006KT 0500 MIFG NSC 09/09 Q1022 BECMG 0600 MIFG=
201712160330 METAR VIDP 160330Z 28006KT 0600 R28/1200 R29/0800 MIFG NSC 09/09 Q1022 BECMG 0800 MIFG=
201712160400 METAR COR VIDP 160400Z 27008KT 0700 R28/0700 R29/1300 MIFG NSC 10/08 Q1023 BECMG 0800 MIFG=
201712160430 METAR VIDP 160430Z 27008KT 0700 R28/1300 R29/1300 MIFG NSC 10/08 Q1023 BECMG 0800 MIFG=
201712160500 METAR VIDP 160500Z 28008KT 0800 R28/1900 R29/1400 MIFG NSC 12/09 Q1023 NOSIG=
201712160530 METAR VIDP 160530Z 28008KT 1000 R28/2000 R29/1200 BR NSC 13/10 Q1023 NOSIG=
201712160600 METAR VIDP 160600Z 30008KT 1200 R28/2000 R29/1600 FU NSC 14/07 Q1023 NOSIG=
201712160630 METAR VIDP 160630Z 29009KT 1200 R28/2000 R29/1600 FU NSC 15/07 Q1023 BECMG VIS 1500 FU=
201712160705 METAR VIDP NIL=
201712160730 METAR VIDP 160730Z 30010KT 1500 R28/2000 R29/2000 FU NSC 18/07 Q1022 NOSIG=
201712160800 METAR VIDP 160800Z 29008KT 1500 R28/2000 R29/2000 FU NSC 18/06 Q1022 NOSIG=
201712160830 METAR VIDP 160830Z 29010KT 1500 R28/P2000 R29/1600 FU NSC 18/06 Q1021 NOSIG=
201712160900 METAR VIDP 160900Z 30010KT 1600 R28/2000 R29/2000 FU NSC 18/06 Q1021 NOSIG=
201712160930 METAR VIDP 160930Z 28011KT 1600 R28/P2000 R29/P2000 FU NSC 19/05 Q1020 NOSIG=
201712161000 METAR VIDP 161000Z 28010KT 1600 R28/P2000 R29/P2000 FU NSC 19/05 Q1020 NOSIG=
201712161030 METAR VIDP 161030Z 28009KT 2100 FU NSC 19/05 Q1020 NOSIG=
201712161100 METAR VIDP 161100Z 28009KT 2500 FU NSC 18/05 Q1019 NOSIG=
201712161130 METAR VIDP 161130Z 28010KT 2500 FU NSC 18/05 Q1019 NOSIG=
201712161200 METAR VIDP 161200Z 25005KT 2500 FU NSC 16/05 Q1020 NOSIG=
201712161230 METAR VIDP 161230Z 26004KT 2500 FU NSC 15/06 Q1020 NOSIG=
201712161300 METAR VIDP 161300Z 28006KT 2500 FU NSC 14/06 Q1020 NOSIG=
201712161330 METAR VIDP 161330Z 26005KT 2500 FU NSC 13/06 Q1020 NOSIG=
201712161400 METAR VIDP 161400Z 25005KT 2100 FU NSC 13/07 Q1021 NOSIG=
201712161405 METAR VIDP NIL=
201712161430 METAR VIDP 161430Z 27007KT 2100 FU NSC 13/07 Q1021 NOSIG=
201712161500 METAR VIDP 161500Z 26006KT 2100 FU NSC 13/07 Q1021 NOSIG=
201712161530 METAR VIDP 161530Z 25005KT 2100 FU NSC 12/06 Q1022 NOSIG=
201712161600 METAR VIDP 161600Z 26004KT 2100 FU NSC 12/06 Q1022 NOSIG=
201712161605 METAR VIDP NIL=
201712161630 METAR VIDP 161630Z 27005KT 2100 FU NSC 12/06 Q1022 NOSIG=
201712161700 METAR VIDP 161700Z 27005KT 2100 FU NSC 11/06 Q1022 NOSIG=
201712161730 METAR VIDP 161730Z 28007KT 2100 FU NSC 11/05 Q1022 NOSIG=
201712161800 METAR VIDP 161800Z 27007KT 2100 FU NSC 11/05 Q1021 NOSIG=
201712161830 METAR VIDP 161830Z 27006KT 1800 R28/P2000 R29/P2000 FU NSC 11/05 Q1021 NOSIG=
201712161900 METAR VIDP 161900Z 26004KT 1500 R28/P2000 R29/P2000 FU NSC 11/05 Q1021 NOSIG=
201712161905 METAR VIDP NIL=
201712161930 METAR VIDP 161930Z 26004KT 1500 R28/P2000 R29/P2000 FU NSC 11/05 Q1021 NOSIG=
201712162000 METAR VIDP 162000Z 25004KT 1500 R28/P2000 R29/P2000 FU NSC 10/05 Q1021 NOSIG=
201712162030 METAR VIDP 162030Z 25005KT 1200 R28/P2000 R29/P2000 BR NSC 09/05 Q1021 NOSIG=
201712162100 METAR VIDP 162100Z 26004KT 1000 R28/P2000 R29/P2000 BR NSC 08/05 Q1021 BECMG 0800 MIFG=
201712162130 METAR VIDP 162130Z 25004KT 0800 R28/P2000 R29/P2000 MIFG NSC 08/05 Q1021 BECMG 0600 MIFG=
201712162200 METAR VIDP 162200Z 25005KT 0800 R28/P2000 R29/P2000 MIFG NSC 08/05 Q1021 BECMG 0600 MIFG=
201712162205 METAR VIDP NIL=
201712162230 METAR VIDP 162230Z 25005KT 0800 R28/P2000 R29/P2000 MIFG NSC 08/05 Q1021 NOSIG=
201712162300 METAR VIDP 162300Z 24003KT 0900 R28/P2000 R29/P2000 MIFG NSC 07/04 Q1021 NOSIG=
201712162305 METAR VIDP NIL=
201712162330 METAR VIDP 162330Z 24004KT 1200 R28/P2000 R29/P2000 BR NSC 07/04 Q1021 NOSIG=
201712170000 METAR VIDP 170000Z 24006KT 1400 R28/P2000 R29/P2000 BR NSC 07/04 Q1021 BECMG 1500 BR=
201712170005 METAR VIDP NIL=
201712170030 METAR VIDP 170030Z 24005KT 1800 R28/P2000 R29/P2000 BR NSC 07/04 Q1021 NOSIG=
201712170100 METAR VIDP 170100Z 24007KT 2100 BR NSC 08/04 Q1021 NOSIG=
201712170105 METAR VIDP NIL=
201712170130 METAR VIDP 170130Z 26006KT 2500 BR NSC 08/04 Q1021 NOSIG=
201712170200 METAR VIDP 170200Z 25007KT 2100 BR NSC 08/04 Q1022 NOSIG=
201712170205 METAR VIDP NIL=
201712170230 METAR VIDP 170230Z 26007KT 2100 BR NSC 08/04 Q1022 NOSIG=
201712170300 METAR VIDP 170300Z 25007KT 2100 BR NSC 09/04 Q1022 NOSIG=
201712170305 METAR VIDP NIL=
201712170330 METAR VIDP 170330Z 26007KT 2500 BR NSC 10/04 Q1022 NOSIG=
201712170400 METAR VIDP 170400Z 25010KT 2500 FU NSC 12/05 Q1023 NOSIG=
201712170430 METAR VIDP 170430Z 24009KT 2500 FU NSC 13/05 Q1023 NOSIG=
201712170500 METAR VIDP 170500Z 25010KT 2500 FU NSC 15/04 Q1024 NOSIG=
201712170505 METAR VIDP NIL=
201712170530 METAR VIDP 170530Z 26010KT 2500 FU NSC 16/05 Q1024 NOSIG=
201712170600 METAR VIDP 170600Z 26010KT 2800 FU NSC 18/05 Q1023 BECMG 3000=
201712170630 METAR VIDP 170630Z 27011KT 3200 FU NSC 19/05 Q1023 NOSIG=
201712170700 METAR VIDP 170700Z 29012KT 3500 FU NSC 19/04 Q1022 NOSIG=
201712170730 METAR VIDP 170730Z 30012KT 3500 FU NSC 20/04 Q1022 NOSIG=
201712170800 METAR VIDP 170800Z 29013KT 3500 FU NSC 21/04 Q1022 NOSIG=
201712170830 METAR VIDP 170830Z 27012KT 3500 HZ NSC 21/04 Q1023 NOSIG=
201712170831 METAR VIDP 170831Z 27012KT 3500 HZ NSC 21/04 Q1022 NOSIG=
201712170900 METAR VIDP 170900Z 29012KT 3500 HZ NSC 22/03 Q1021 NOSIG=
201712170905 METAR VIDP NIL=
201712170930 METAR VIDP 170930Z 29012KT 3500 HZ NSC 22/03 Q1020 NOSIG=
201712171000 METAR VIDP 171000Z 29012KT 3500 HZ NSC 22/03 Q1020 NOSIG=
201712171030 METAR VIDP 171030Z 29011KT 3500 HZ NSC 21/03 Q1020 NOSIG=
201712171100 METAR VIDP 171100Z 29010KT 3500 HZ NSC 21/03 Q1020 NOSIG=
201712171105 METAR VIDP NIL=
201712171130 METAR VIDP 171130Z 28008KT 3500 HZ NSC 21/04 Q1020 NOSIG=
201712171200 METAR VIDP 171200Z 28008KT 3500 HZ NSC 19/04 Q1020 NOSIG=
201712171230 METAR VIDP 171230Z 28007KT 3500 HZ NSC 17/06 Q1019 NOSIG=
201712171300 METAR VIDP 171300Z 27006KT 3500 HZ NSC 16/05 Q1019 NOSIG=
201712171305 METAR VIDP NIL=
201712171330 METAR VIDP 171330Z 27006KT 3500 HZ NSC 15/05 Q1020 NOSIG=
201712171400 METAR VIDP 171400Z 26005KT 3500 HZ NSC 15/06 Q1020 NOSIG=
201712171430 METAR VIDP 171430Z 26005KT 3200 HZ NSC 14/06 Q1020 BECMG 3000 HZ=
201712171500 METAR VIDP 171500Z 26005KT 2800 HZ NSC 14/06 Q1020 NOSIG=
201712171530 METAR VIDP 171530Z 25005KT 2500 HZ NSC 14/06 Q1020 NOSIG=
201712171600 METAR VIDP 171600Z 27005KT 2500 HZ NSC 13/06 Q1021 NOSIG=
201712171630 METAR VIDP 171630Z 24006KT 2500 HZ NSC 13/06 Q1021 NOSIG=
201712171700 METAR VIDP 171700Z 26005KT 2500 HZ NSC 12/06 Q1021 NOSIG=
201712171730 METAR VIDP 171730Z 26006KT 2500 HZ NSC 12/05 Q1021 NOSIG=
201712171800 METAR VIDP 171800Z 26006KT 2500 HZ NSC 12/05 Q1021 NOSIG=
201712171830 METAR VIDP 171830Z 27007KT 2500 HZ NSC 12/05 Q1021 NOSIG=
201712171900 METAR VIDP 171900Z 27007KT 2500 HZ NSC 12/05 Q1021 NOSIG=
201712171930 METAR VIDP 171930Z 26007KT 2500 HZ NSC 11/05 Q1020 NOSIG=
201712172000 METAR VIDP 172000Z 27007KT 2500 HZ NSC 10/05 Q1020 NOSIG=
201712172030 METAR VIDP 172030Z 27006KT 2500 HZ NSC 10/05 Q1020 NOSIG=
201712172100 METAR VIDP 172100Z 26005KT 2200 HZ NSC 10/05 Q1020 NOSIG=
201712172130 METAR VIDP 172130Z 25007KT 2200 HZ NSC 10/05 Q1020 NOSIG=
201712172200 METAR VIDP 172200Z 27005KT 2200 BR NSC 09/05 Q1020 NOSIG=
201712172230 METAR VIDP 172230Z 28005KT 2200 BR NSC 08/05 Q1020 NOSIG=
201712172300 METAR VIDP 172300Z 26005KT 2200 BR NSC 08/04 Q1020 NOSIG=
201712172305 METAR VIDP NIL=
201712172330 METAR VIDP 172330Z 26004KT 2200 BR NSC 08/04 Q1020 NOSIG=
201712180000 METAR VIDP 180000Z 26005KT 2200 HZ NSC 07/04 Q1020 NOSIG=
201712180005 METAR VIDP NIL=
201712180030 METAR VIDP 180030Z 25003KT 2200 BR NSC 08/08 Q1020 NOSIG=
201712180100 METAR VIDP 180100Z 25004KT 2200 BR NSC 08/04 Q1020 NOSIG=
201712180105 METAR VIDP NIL=
201712180130 METAR VIDP 180130Z 25006KT 1800 R28/P2000 R29/P2000 BR NSC 08/04 Q1020 NOSIG=
201712180200 METAR VIDP 180200Z 24006KT 1600 R28/2000 R29/1800 BR NSC 08/04 Q1021 BECMG VIS 1500 BR=
201712180230 METAR VIDP 180230Z 25006KT 1500 R29/P2000 R29/1800 BR NSC 09/05 Q1021 NOSIG=
201712180300 METAR VIDP 180300Z 26006KT 1500 R28/P2000 R29/P2000 FU NSC 10/05 Q1021 NOSIG=
201712180330 METAR VIDP 180330Z 26007KT 1500 R28/1700 R29/P2000 FU NSC 11/05 Q1021 NOSIG=
201712180400 METAR VIDP 180400Z 26008KT 1500 R28/1300 R29/P2000 FU NSC 13/05 Q1022 NOSIG=
201712180430 METAR VIDP NIL=
201712180500 METAR VIDP 180500Z 28008KT 2000 HZ NSC 16/05 Q1021 NOSIG=
201712180530 METAR VIDP 180530Z 28008KT 2200 HZ NSC 17/05 Q1021 NOSIG=
201712180600 METAR VIDP 180600Z 28009KT 2500 HZ NSC 18/05 Q1021 BECMG 3000 HZ=
201712180630 METAR VIDP 180630Z 29009KT 3000 HZ NSC 20/05 Q1021 NOSIG=
201712180700 METAR VIDP 180700Z 28009KT 3000 HZ NSC 21/05 Q1020 NOSIG=
201712180730 METAR VIDP 180730Z 27009KT 3200 HZ NSC 21/05 Q1020 NOSIG=
201712180800 METAR VIDP 180800Z 28008KT 3500 HZ NSC 23/05 Q1019 NOSIG=
201712180830 METAR VIDP 180830Z 28010KT 3500 HZ NSC 24/05 Q1019 NOSIG=
201712180900 METAR VIDP 180900Z 28010KT 3500 HZ NSC 24/05 Q1018 NOSIG=
201712180905 METAR VIDP NIL=
201712180930 METAR VIDP 180930Z 28011KT 3500 HZ NSC 24/05 Q1018 NOSIG=
201712181000 METAR VIDP 181000Z 28010KT 4000 HZ NSC 24/05 Q1018 NOSIG=
201712181030 METAR VIDP 181030Z 28010KT 4000 HZ NSC 24/06 Q1018 NOSIG=
201712181100 METAR VIDP 181100Z 27010KT 4000 HZ NSC 23/06 Q1018 NOSIG=
201712181105 METAR VIDP NIL=
201712181130 METAR VIDP 181130Z 27008KT 4000 HZ NSC 23/06 Q1018 NOSIG=
201712181200 METAR VIDP 181200Z 27008KT 4000 HZ NSC 22/06 Q1019 NOSIG=
201712181230 METAR VIDP 181230Z 26007KT 3500 HZ FEW040 20/07 Q1019 BECMG 3000 HZ=
201712181300 METAR VIDP 181300Z 27007KT 3000 HZ FEW040 19/07 Q1019 NOSIG=
201712181305 METAR VIDP NIL=
201712181330 METAR VIDP 181330Z 27007KT 2500 HZ FEW040 18/07 Q1019 NOSIG=
201712181400 METAR VIDP 181400Z 26005KT 2200 HZ FEW100 17/07 Q1020 NOSIG=
201712181430 METAR VIDP 181430Z 25004KT 2100 HZ FEW040 17/07 Q1020 NOSIG=
201712181500 METAR VIDP 181500Z 24003KT 1800 R28/P2000 R29/P2000 FU FEW100 16/07 Q1020 BECMG 1500 FU=
201712181530 METAR VIDP 181530Z 25004KT 1600 R28/P2000 R29/P2000 FU FEW100 16/06 Q1021 BECMG 1500 FU=
201712181600 METAR VIDP 181600Z 24003KT 1500 R28/P2000 R29/P2000 FU FEW100 15/06 Q1021 NOSIG=
201712181630 METAR VIDP 181630Z 27004KT 1500 R28/P2000 R29/P2000 FU FEW100 14/06 Q1021 NOSIG=
201712181700 METAR VIDP 181700Z 27003KT 1500 R28/P2000 R29/P2000 FU FEW100 14/06 Q1021 NOSIG=
201712181730 METAR VIDP 181730Z 28003KT 1500 R28/P2000 R29/P2000 FU FEW100 14/06 Q1021 NOSIG=
201712181800 METAR VIDP 181800Z 00000KT 1500 R28/P2000 R29/P2000 FU FEW100 13/06 Q1020 NOSIG=
201712181830 METAR VIDP 181830Z 25004KT 1500 R28/P2000 R29/P2000 FU FEW100 12/06 Q1020 NOSIG=
201712181900 METAR VIDP 181900Z 23005KT 1500 R28/P2000 R29/P2000 FU FEW100 12/05 Q1020 NOSIG=
201712181930 METAR VIDP 181930Z 25003KT 1500 R28/P2000 R29/P2000 FU FEW100 12/05 Q1020 NOSIG=
201712182000 METAR VIDP 182000Z 26004KT 1500 R28/P2000 R29/P2000 FU FEW100 12/05 Q1020 NOSIG=
201712182030 METAR VIDP 182030Z 26004KT 1500 R28/P2000 R29/P2000 FU FEW100 11/05 Q1020 NOSIG=
201712182100 METAR VIDP 182100Z 25004KT 1500 R28/P2000 R29/P2000 FU FEW100 11/05 Q1019 NOSIG=
201712182130 METAR VIDP 182130Z 26004KT 1500 R28/P2000 R29/P2000 FU FEW100 11/05 Q1019 NOSIG=
201712182200 METAR VIDP 182200Z 26004KT 1500 R28/P2000 R29/P2000 FU FEW100 11/05 Q1019 NOSIG=
201712182205 METAR VIDP NIL=
201712182230 METAR VIDP 182230Z 25004KT 1500 R28/P2000 R29/P2000 FU FEW100 10/05 Q1019 NOSIG=
201712182300 METAR VIDP 182300Z 26005KT 1200 R28/P2000 R29/P2000 FU FEW100 10/05 Q1019 NOSIG=
201712182330 METAR VIDP 182330Z 26005KT 1200 R28/P2000 R29/P2000 FU FEW100 10/05 Q1019 NOSIG=
201712190000 METAR VIDP 190000Z 24005KT 1200 R28/P2000 R29/P2000 FU FEW100 10/05 Q1019 NOSIG=
201712190030 METAR VIDP 190030Z 23005KT 1200 R28/P2000 R29/P2000 BR FEW100 09/05 Q1019 NOSIG=
201712190100 METAR VIDP 190100Z 24005KT 1200 R28/P2000 R29/P2000 BR FEW100 09/05 Q1019 NOSIG=
201712190130 METAR VIDP 190130Z 26005KT 1200 R28/P2000 R29/P2000 BR FEW040 SCT100 09/05 Q1020 NOSIG=
201712190200 METAR VIDP 190200Z 26004KT 1200 R28/P2000 R29/P2000 BR FEW040 SCT100 09/05 Q1020 NOSIG=
201712190230 METAR VIDP 190230Z 26003KT 1200 R28/1700 R29/2000 BR SCT040 BKN100 09/05 Q1021 NOSIG=
201712190300 METAR VIDP 190300Z 25004KT 1200 R28/1700 R29/2000 BR SCT040 BKN100 10/06 Q1021 NOSIG=
201712190330 METAR VIDP 190330Z 25004KT 1200 R28/1600 R29/2000 BR SCT040 BKN100 10/06 Q1021 NOSIG=
201712190400 METAR VIDP 190400Z 26005KT 1000 R28/1400 R29/2000 FU SCT100 11/06 Q1021 NOSIG=
201712190430 METAR VIDP 190430Z 26006KT 1000 R28/1200 R29/1500 FU SCT100 14/06 Q1022 NOSIG=
201712190500 METAR VIDP 190500Z 26006KT 1000 R28/1200 R29/1500 FU SCT100 14/06 Q1022 NOSIG=
201712190530 METAR VIDP 190530Z 30005KT 1000 R28/1300 R29/2000 FU SCT100 16/06 Q1021 NOSIG=
201712190600 METAR VIDP 190600Z 30006KT 1100 R28/1400 R29/2000 FU SCT100 17/07 Q1021 NOSIG=
201712190630 METAR VIDP 190630Z 30006KT 1200 R28/1400 R29/2000 FU SCT100 18/07 Q1021 BECMG 1500 FU=
201712190700 METAR VIDP 190700Z 30006KT 1500 R28/1500 R29/2000 FU SCT100 20/08 Q1020 NOSIG=
201712190730 METAR VIDP 190730Z 30008KT 1700 R28/P2000 R29/P2000 FU SCT100 21/07 Q1019 NOSIG=
201712190800 METAR VIDP 190800Z 30008KT 1800 R28/P2000 R29/P2000 FU SCT100 22/06 Q1019 NOSIG=
201712190805 METAR VIDP NIL=
201712190830 METAR VIDP 190830Z 32008KT 2000 FU SCT100 22/07 Q1019 NOSIG=
201712190900 METAR VIDP 190900Z 28008KT 2500 HZ SCT100 23/06 Q1018 NOSIG=
201712190905 METAR VIDP NIL=
201712190930 METAR VIDP 190930Z 28008KT 2500 HZ SCT100 23/07 Q1018 BECMG 3000 HZ=
201712191000 METAR VIDP 191000Z 29007KT 3000 HZ SCT100 23/05 Q1018 NOSIG=
201712191030 METAR VIDP 191030Z 27007KT 3500 HZ SCT100 23/05 Q1018 NOSIG=
201712191100 METAR VIDP 191100Z 29008KT 3500 HZ SCT100 22/07 Q1018 NOSIG=
201712191105 METAR VIDP NIL=
201712191130 METAR VIDP 191130Z 27005KT 3500 HZ SCT100 21/07 Q1018 NOSIG=
201712191200 METAR VIDP 191200Z 25003KT 3200 HZ FEW100 20/07 Q1018 BECMG 3000 HZ=
201712191205 METAR VIDP NIL=
201712191230 METAR VIDP 191230Z 26003KT 3000 HZ FEW100 19/08 Q1019 NOSIG=
201712191300 METAR VIDP 191300Z 24004KT 2200 HZ FEW100 18/08 Q1019 NOSIG=
201712191305 METAR VIDP NIL=
201712191330 METAR VIDP 191330Z 24004KT 1800 R28/P2000 R29/P2000 HZ FEW100 17/09 Q1019 NOSIG=
201712191400 METAR VIDP 191400Z 23004KT 1700 R28/P2000 R29/P2000 FU FEW100 17/09 Q1019 BECMG 1500 FU=
201712191405 METAR VIDP NIL=
201712191430 METAR VIDP 191430Z 24003KT 1500 R28/P2000 R29/P2000 FU FEW100 17/09 Q1019 NOSIG=
201712191500 METAR VIDP 191500Z 00000KT 1500 R28/P2000 R29/P2000 FU FEW100 17/09 Q1020 NOSIG=
201712191530 METAR VIDP 191530Z 00000KT 1500 R28/P2000 R29/P2000 FU FEW040 SCT100 16/09 Q1020 NOSIG=
201712191600 METAR VIDP 191600Z 00000KT 1500 R28/P2000 R29/P2000 FU FEW040 SCT100 16/08 Q1020 NOSIG=
201712191630 METAR VIDP 191630Z 00000KT 1500 R28/P2000 R29/P2000 FU FEW040 SCT100 16/08 Q1020 NOSIG=
201712191700 METAR VIDP 191700Z 00000KT 1500 R28/P2000 R29/P2000 FU FEW040 SCT100 15/08 Q1020=
201712191730 METAR VIDP 191730Z 00000KT 1500 R28/P2000 R29/P2000 FU FEW040 SCT100 15/08 Q1020 NOSIG=
201712191800 METAR COR VIDP 191800Z 00000KT 1500 R28/P2000 R29/P2000 FU FEW040 SCT100 15/08 Q1020 NOSIG=
201712191805 METAR VIDP NIL=
201712191830 METAR VIDP 191830Z 00000KT 1500 R28/P2000 R29/P2000 FU SCT100 15/08 Q1020 NOSIG=
201712191900 METAR VIDP 191900Z 25003KT 1500 R28/P2000 R29/P2000 FU SCT100 14/08 Q1021 NOSIG=
201712191905 METAR VIDP NIL=
201712191930 METAR VIDP 191930Z 00000KT 1500 R28/P2000 R29/P2000 FU FEW040 SCT100 13/08 Q1021 NOSIG=
201712192000 METAR VIDP 192000Z 00000KT 1500 R28/P2000 R29/P2000 FU SCT100 13/08 Q1020 NOSIG=
201712192030 METAR VIDP 192030Z 00000KT 1500 R28/P2000 R29/P2000 FU SCT100 13/08 Q1020 NOSIG=
201712192100 METAR VIDP 192100Z 28003KT 1500 R28/P2000 R29/P2000 FU SCT100 13/08 Q1020 NOSIG=
201712192130 METAR VIDP 192130Z 27003KT 1500 R28/P2000 R29/P2000 FU SCT100 13/08 Q1020 NOSIG=
201712192200 METAR VIDP 192200Z 27004KT 1500 R28/P2000 R29/1900 FU SCT100 12/07 Q1020 NOSIG=
201712192230 METAR VIDP 192230Z 27005KT 1500 R28/1700 R29/P2000 BR SCT100 11/08 Q1020 NOSIG=
201712192300 METAR VIDP 192300Z 26004KT 1500 R28/1900 R29/P2000 BR SCT100 11/08 Q1020 NOSIG=
201712192330 METAR VIDP 192330Z 24004KT 1500 R28/P2000 R29/P2000 BR SCT100 11/08 Q1020 NOSIG=
201712200000 METAR VIDP 200000Z 23004KT 1500 R28/P2000 R29/P2000 BR SCT100 11/08 Q1020 NOSIG=
201712200030 METAR VIDP 200030Z 18004KT 1500 R28/P2000 R29/P2000 BR SCT100 11/07 Q1020 NOSIG=
201712200100 METAR VIDP 200100Z 25003KT 1300 R28/P2000 R29/P2000 BR SCT100 11/07 Q1020 NOSIG=
201712200130 METAR VIDP 200130Z 27003KT 1000 R28/P2000 R29/1600 BR SCT100 11/07 Q1021 BECMG 0800 MIFG=
201712200200 METAR VIDP 200200Z 26004KT 0800 R28/1300 R29/1150 MIFG SCT100 11/07 Q1021 NOSIG=
201712200230 METAR VIDP 200230Z 27003KT 0800 R28/1200 R29/1500 MIFG SCT100 12/08 Q1021 NOSIG=
201712200300 METAR VIDP 200300Z 00000KT 0800 R28/1000 R29/1200 MIFG FEW100 12/08 Q1021 NOSIG=
201712200330 METAR VIDP 200330Z 00000KT 1000 R28/1300 R29/1500 BR FEW100 13/09 Q1022 NOSIG=
201712200400 METAR VIDP 200400Z 25004KT 1000 R28/1200 R29/1800 FU FEW100 14/08 Q1023 NOSIG=
201712200405 METAR VIDP NIL=
201712200430 METAR VIDP 200430Z 30003KT 1000 R28/1200 R29/2000 FU FEW100 15/08 Q1023 NOSIG=
201712200500 METAR VIDP 200500Z 28003KT 1000 R28/1200 R29/1900 FU SCT100 16/08 Q1023 NOSIG=
201712200505 METAR VIDP NIL=
201712200530 METAR VIDP 200530Z 32002KT 1000 R28/1100 R29/2000 FU FEW100 17/09 Q1023 NOSIG=
201712200600 METAR VIDP 200600Z 28003KT 1000 R28/2000 R29/1900 FU SCT100 18/09 Q1023 NOSIG=
201712200605 METAR VIDP NIL=
201712200630 METAR VIDP 200630Z 25004KT 1000 R28/2000 R29/1800 FU FEW100 18/09 Q1022 NOSIG=
201712200700 METAR VIDP 200700Z 24003KT 1200 R28/2000 R29/1800 FU SCT100 20/10 Q1021 BECMG 1500 FU=
201712200705 METAR VIDP NIL=
201712200730 METAR VIDP 200730Z 26004KT 1500 R28/2000 R29/1800 FU SCT100 20/10 Q1021 NOSIG=
201712200800 METAR VIDP 200800Z 29006KT 1500 R28/2000 R29/1600 FU SCT100 20/11 Q1021 NOSIG=
201712200805 METAR VIDP NIL=
201712200830 METAR VIDP 200830Z 28006KT 1500 R28/2000 R29/1600 FU SCT100 20/11 Q1021 NOSIG=
201712200900 METAR VIDP 200900Z 29005KT 1100 R28/2000 R29/1300 FU SCT100 20/12 Q1020 NOSIG=
201712200905 METAR VIDP NIL=
201712200930 METAR VIDP 200930Z 28005KT 1100 R28/2000 R29/1300 FU SCT100 21/12 Q1020 NOSIG=
201712201000 METAR VIDP 201000Z 29005KT 1100 R28/1800 R29/1400 FU SCT100 21/12 Q1019 NOSIG=
201712201005 METAR VIDP NIL=
201712201030 METAR VIDP 201030Z 32005KT 1100 R28/1800 R29/1400 FU SCT100 21/12 Q1019 NOSIG=
201712201100 METAR VIDP 201100Z 31004KT 1000 R28/2000 R29/1700 FU SCT100 21/13 Q1019 NOSIG=
201712201105 METAR VIDP NIL=
201712201130 METAR VIDP 201130Z 31004KT 1000 R28/2000 R29/1700 FU SCT100 21/13 Q1019 NOSIG=
201712201200 METAR VIDP 201200Z VRB02KT 1200 R28/2000 R29/2000 FU SCT100 20/13 Q1019 NOSIG=
201712201230 METAR VIDP 201230Z 00000KT 1200 R28/2000 R29/2000 FU SCT100 19/13 Q1020 NOSIG=
201712201300 METAR VIDP 201300Z 00000KT 1200 R28/P2000 R29/P2000 FU SCT100 19/14 Q1020 NOSIG=
201712201305 METAR VIDP NIL=
201712201330 METAR VIDP 201330Z 30006KT 1200 R28/P2000 R29/P2000 FU SCT100 19/14 Q1021 NOSIG=
201712201400 METAR VIDP 201400Z 32006KT 1200 R28/P2000 R29/P2000 BR SCT100 18/14 Q1021 NOSIG=
201712201430 METAR VIDP 201430Z 31003KT 1000 R28/1700 R29/2000 BR SCT100 18/14 Q1021 BECMG 0800 MIFG=
201712201500 METAR VIDP 201500Z 32003KT 0800 R28/1600 R29/1900 MIFG FEW040 SCT100 18/14 Q1021 NOSIG=
201712201530 METAR VIDP 201530Z 34003KT 0800 R28/1500 R29/1800 MIFG FEW040 SCT100 18/14 Q1021 NOSIG=
201712201600 METAR VIDP 201600Z 09003KT 0700 R28/1500 R29/2000 MIFG FEW040 SCT100 18/14 Q1020 BECMG 0600 MIFG=
201712201630 METAR VIDP 201630Z 09004KT 0600 R28/1600 R29/2000 MIFG FEW040 SCT100 18/14 Q1020 NOSIG=
201712201700 METAR VIDP 201700Z 10003KT 0500 R28/1500 R29/2000 FG FEW040 SCT100 18/14 Q1020=
201712201730 METAR VIDP 201730Z 10003KT 0500 R28/1500 R29/2000 FG FEW040 SCT100 17/14 Q1021 NOSIG=
201712201800 METAR VIDP 201800Z 29006KT 0400 R28/1400 R29/1300 MIFG FEW040 SCT100 17/14 Q1021 NOSIG=
201712201830 METAR VIDP 201830Z 27008KT 0500 R28/1500 R29/1700 MIFG FEW040 SCT100 16/14 Q1022 NOSIG=
201712201900 METAR VIDP 201900Z 27004KT 0400 R28/1200 R29/1400 FG FEW040 SCT100 16/14 Q1021 NOSIG=
201712201930 METAR VIDP 201930Z 00000KT 0400 R28/1300 R29/1600 FG FEW040 SCT100 15/13 Q1021 BECMG 0350 FG=
201712202000 METAR VIDP 202000Z 00000KT 0300 R28/1700 R29/1300 FG FEW040 SCT100 15/13 Q1020 NOSIG=
201712202030 METAR VIDP 202030Z 00000KT 0300 R28/1700 R29/1200 FG FEW040 SCT100 15/13 Q1020 NOSIG=
201712202100 METAR VIDP 202100Z 00000KT 0300 R28/1300 R29/1500 FG FEW040 SCT100 15/13 Q1020 NOSIG=
201712202130 METAR VIDP 202130Z 00000KT 0300 R28/1500 R29/1300 FG FEW040 SCT100 15/13 Q1020 NOSIG=
201712202200 METAR VIDP 202200Z 27004KT 0300 R28/1500 R29/1100 FG FEW040 SCT100 14/13 Q1020 NOSIG=
201712202230 METAR VIDP 202230Z 26003KT 0300 R28/1300 R29/1400 FG FEW040 SCT100 14/13 Q1020 NOSIG=
201712202300 METAR VIDP 202300Z 00000KT 0300 R28/1400 R29/1600 FG FEW040 SCT100 14/13 Q1020 NOSIG=
201712202305 METAR VIDP NIL=
201712202330 METAR VIDP 202330Z 00000KT 0300 R28/1300 R29/1300 FG FEW040 SCT100 13/12 Q1020 NOSIG=
201712210000 METAR VIDP 210000Z 25004KT 0250 R28/1200 R29/1200 FG FEW040 SCT100 13/12 Q1021 NOSIG=
201712210030 METAR VIDP 210030Z 23003KT 0250 R28/1300 R29/1300 FG FEW040 SCT100 13/12 Q1021 NOSIG=
201712210100 METAR VIDP 210100Z 26003KT 0250 R28/1200 R29/1200 FG FEW040 SCT100 12/11 Q1021 NOSIG=
201712210130 METAR VIDP 210130Z 27003KT 0200 R28/1000 R29/1000 FG VV/// 12/11 Q1021 BECMG 0150 FG=
201712210200 METAR VIDP 210200Z 00000KT 0150 R28/0700 R29/0700 FG VV/// 12/11 Q1022 NOSIG=
201712210230 METAR VIDP 210230Z 23003KT 0200 R28/0700 R29/0700 FG FEW040 SCT100 13/11 Q1022 TEMPO 0350 FG=
201712210300 METAR VIDP 210300Z 23004KT 0350 R28/0800 R29/0700 FG FEW040 SCT100 13/11 Q1023 NOSIG=
201712210305 METAR VIDP NIL=
201712210330 METAR VIDP 210330Z 25003KT 0400 R28/0700 R29/0700 FG FEW040 SCT100 14/11 Q1023 TEMPO 0600 MIFG=
201712210400 METAR VIDP 210400Z 00000KT 0500 R28/0800 R29/0800 FG FEW040 SCT100 15/11 Q1023 BECMG 0600=
201712210430 METAR VIDP 210430Z 26003KT 0600 R28/0800 R29/0800 MIFG FEW040 SCT100 16/11 Q1023 NOSIG=
201712210500 METAR VIDP 210500Z 29003KT 0700 R28/0900 R29/0900 FU FEW040 SCT100 17/11 Q1023 BECMG 0800 FU=
201712210505 METAR VIDP NIL=
201712210530 METAR VIDP 210530Z 26004KT 0700 R28/0800 R29/1000 FU FEW040 SCT100 19/12 Q1023 BECMG 0800 FU=
201712210600 METAR VIDP 210600Z 26004KT 0700 R28/0800 R29/1000 FU FEW040 SCT100 20/13 Q1023 BECMG 0800 FU=
201712210630 METAR VIDP 210630Z 28005KT 0800 R28/0900 R29/0900 FU FEW040 SCT100 21/13 Q1022 NOSIG=
201712210700 METAR VIDP 210700Z 27005KT 0800 R28/1000 R29/1000 FU FEW040 SCT100 22/13 Q1022 NOSIG=
201712210730 METAR VIDP 210730Z 29006KT 1000 R28/1100 R29/1400 FU FEW040 SCT100 22/13 Q1021 NOSIG=
201712210800 METAR VIDP 210800Z 28006KT 1000 R28/1200 R29/1400 FU FEW040 SCT100 23/13 Q1021 NOSIG=
201712210830 METAR VIDP 210830Z 29007KT 1200 R28/1200 R29/1600 FU FEW040 SCT100 24/13 Q1020 NOSIG=
201712210900 METAR VIDP 210900Z 27007KT 1300 R28/1300 R29/1800 FU FEW100 24/13 Q1020 BECMG 1500 FU=
201712210930 METAR COR VIDP 210930Z 28007KT 1300 R28/1300 R29/1700 FU FEW100 24/12 Q1020 BECMG 1500 FU=
201712211000 METAR VIDP 211000Z 28008KT 1500 R28/1500 R29/P2000 FU FEW100 24/11 Q1020 NOSIG=
201712211030 METAR VIDP 211030Z 30008KT 1500 R28/1600 R29/P2000 FU FEW100 24/11 Q1020 NOSIG=
201712211100 METAR VIDP 211100Z 29007KT 1500 R28/1800 R29/P2000 FU FEW100 23/10 Q1020 NOSIG=
201712211130 METAR VIDP 211130Z 28005KT 1500 R28/P2000 R29/P2000 FU FEW100 22/10 Q1020 NOSIG=
201712211200 METAR VIDP 211200Z 28004KT 1500 R28/P2000 R29/P2000 FU FEW100 21/11 Q1019 NOSIG=
201712211230 METAR VIDP 211230Z 28005KT 1500 R28/P2000 R29/P2000 FU FEW100 21/11 Q1019 NOSIG=
201712211300 METAR VIDP 211300Z 27005KT 1500 R28/P2000 R29/P2000 FU FEW100 20/10 Q1020 NOSIG=
201712211330 METAR VIDP 211330Z 28005KT 1500 R28/P2000 R29/P2000 FU FEW100 19/10 Q1020 NOSIG=
201712211400 METAR VIDP 211400Z 27004KT 1500 R28/P2000 R29/P2000 FU FEW100 18/10 Q1020 NOSIG=
201712211430 METAR VIDP 211430Z 26003KT 1500 R28/P2000 R29/P2000 FEW100 17/10 Q1020 NOSIG=
201712211500 METAR VIDP 211500Z 28004KT 1500 R28/P2000 R29/P2000 FEW100 17/09 Q1020 NOSIG=
201712211505 METAR VIDP NIL=
201712211530 METAR VIDP 211530Z 26004KT 1500 R28/P2000 R29/P2000 FU 17/10 Q1020 NOSIG=
201712211600 METAR VIDP 211600Z 27006KT 1500 R28/P2000 R29/P2000 FU FEW100 17/10 Q1020 NOSIG=
201712211630 METAR VIDP 211630Z 24002KT 1500 R28/P2000 R29/P2000 FU FEW100 17/09 Q1020 NOSIG=
201712211700 METAR VIDP 211700Z 24003KT 1500 R28/P2000 R29/P2000 FU FEW100 16/08 Q1020 NOSIG=
201712211730 METAR VIDP 211730Z 28003KT 1500 R28/P2000 R29/P2000 FU FEW100 14/09 Q1020 NOSIG=
201712211800 METAR VIDP 211800Z 25003KT 1500 R28/P2000 R29/P2000 FU FEW100 14/09 Q1020 NOSIG=
201712211805 METAR VIDP NIL=
201712211830 METAR VIDP 211830Z 26003KT 1500 R28/P2000 R29/P2000 FU FEW100 13/09 Q1020 NOSIG=
201712211900 METAR VIDP 211900Z 24003KT 1500 R28/P2000 R29/P2000 BR FEW100 13/09 Q1020 NOSIG=
201712211905 METAR VIDP NIL=
201712211930 METAR VIDP 211930Z 27003KT 1200 R28/P2000 R29/P2000 BR FEW100 12/09 Q1020 NOSIG=
201712212000 METAR VIDP 212000Z 25003KT 1000 R28/1500 R29/1600 BR FEW100 12/09 Q1020 NOSIG=
201712212030 METAR VIDP 212030Z 26003KT 1000 R28/1900 R29/1600 BR FEW100 12/09 Q1019 NOSIG=
201712212100 METAR VIDP 212100Z 26003KT 1000 R28/1900 R29/1400 BR FEW100 12/10 Q1019 NOSIG=
201712212130 METAR VIDP 212130Z 27003KT 1000 R28/1600 R29/1900 BR FEW100 12/10 Q1019 NOSIG=
201712212200 METAR COR VIDP 212200Z 24004KT 0900 R28/1600 R29/2000 MIFG FEW100 11/10 Q1019 BECMG 0800 MIFG=
201712212205 METAR VIDP NIL=
201712212230 METAR VIDP 212230Z 25004KT 0700 R28/1900 R29/1900 MIFG FEW100 11/10 Q1019 BECMG 0600 MIFG=
201712212300 METAR VIDP 212300Z 24004KT 0600 R28/1600 R29/1600 MIFG FEW100 11/10 Q1019 NOSIG=
201712212330 METAR VIDP 212330Z 23004KT 0400 R28/1500 R29/1600 FG FEW100 11/10 Q1019 BECMG 0350 FG=
201712220000 METAR VIDP 220000Z 22004KT 0350 R28/1400 R29/1600 FG FEW100 11/10 Q1019 NOSIG=
201712220030 METAR VIDP 220030Z 23004KT 0350 R28/1300 R29/1600 FG FEW100 11/10 Q1019 NOSIG=
201712220100 METAR VIDP 220100Z 25003KT 0350 R28/1500 R29/1300 FG FEW100 11/10 Q1019 NOSIG=
201712220105 METAR VIDP NIL=
201712220130 METAR VIDP 220130Z 26003KT 0300 R28/1500 R29/1600 10/09 Q1020 NOSIG=
201712220200 METAR VIDP 220200Z 25003KT 0250 R28/1500 R29/1200 FG FEW100 10/09 Q1020 NOSIG=
201712220230 METAR VIDP 220230Z 26003KT 0250 R28/1000 R29/0900 FG FEW100 10/09 Q1020 NOSIG=
201712220300 METAR VIDP 220300Z 25003KT 0300 R28/1000 R29/1200 FG FEW100 12/10 Q1020 NOSIG=
201712220330 METAR VIDP 220330Z 26004KT 0400 R28/1150 R29/1600 FG FEW100 12/10 Q1020 BECMG 0600 MIFG=
201712220400 METAR VIDP 220400Z 26005KT 0500 R28/1100 R29/1800 FG FEW100 13/10 Q1021 BECMG 0600 MIFG=
201712220430 METAR VIDP 220430Z 26006KT 0600 R28/1200 R29/P2000 MIFG FEW100 14/10 Q1021 NOSIG=
201712220500 METAR VIDP 220500Z 27006KT 0600 R28/1150 R29/P2000 MIFG FEW100 16/10 Q1021 BECMG 0800 MIFG=
201712220530 METAR VIDP 220530Z 28008KT 0900 R28/1200 R29/P2000 FU FEW100 18/11 Q1021 NOSIG=
201712220600 METAR VIDP 220600Z 28007KT 1000 R28/1200 R29/P2000 FU FEW100 19/11 Q1020 NOSIG=
201712220605 METAR VIDP NIL=
201712220630 METAR VIDP 220630Z 28008KT 1300 R28/1400 R29/P2000 FU FEW100 21/10 Q1020 BECMG 1500 FU=
201712220700 METAR VIDP 220700Z 28008KT 1500 R28/1500 R29/P2000 FU FEW100 22/10 Q1019 NOSIG=
201712220730 METAR VIDP 220730Z 28009KT 1600 R28/1600 R29/P2000 HZ FEW100 23/10 Q1019 NOSIG=
201712220800 METAR VIDP 220800Z 27010KT 1600 R28/1600 R29/P2000 HZ FEW100 23/10 Q1018 NOSIG=
201712220830 METAR VIDP 220830Z 30013KT 1800 R28/2000 R29/P2000 HZ FEW100 24/06 Q1018 NOSIG=
201712220900 METAR VIDP 220900Z 29008G18KT 2200 HZ FEW100 25/06 Q1017 NOSIG=
201712220905 METAR VIDP NIL=
201712220930 METAR VIDP 220930Z 30008G18KT 2500 HZ FEW100 25/06 Q1017 NOSIG=
201712221000 METAR VIDP 221000Z 30008G18KT 2500 HZ FEW100 25/06 Q1017 NOSIG=
201712221005 METAR VIDP NIL=
201712221030 METAR VIDP 221030Z 30008G18KT 2800 HZ FEW100 24/07 Q1017 BECMG 3000 HZ=
201712221100 METAR VIDP 221100Z 30010KT 3500 HZ FEW100 24/06 Q1017 NOSIG=
201712221130 METAR VIDP 221130Z 29008KT 3500 HZ FEW100 23/06 Q1017 NOSIG=
201712221200 METAR VIDP 221200Z 28007KT 3500 HZ FEW100 21/06 Q1017 NOSIG=
201712221230 METAR VIDP 221230Z 27006KT 3500 HZ FEW100 20/06 Q1017 NOSIG=
201712221300 METAR VIDP 221300Z 26006KT 3500 HZ FEW100 19/06 Q1017 BECMG 3000 HZ=
201712221305 METAR VIDP NIL=
201712221330 METAR VIDP 221330Z 26006KT 3000 HZ FEW100 18/07 Q1017 NOSIG=
201712221400 METAR VIDP 221400Z 25005KT 3000 HZ FEW100 17/07 Q1018 NOSIG=
201712221430 METAR VIDP 221430Z 27005KT 2500 HZ FEW100 16/07 Q1018 NOSIG=
201712221500 METAR VIDP 221500Z 26004KT 2100 HZ FEW100 16/08 Q1018 NOSIG=
201712221530 METAR VIDP 221530Z 26005KT 2000 HZ FEW100 16/08 Q1018 NOSIG=
201712221600 METAR VIDP 221600Z 26005KT 2000 HZ FEW100 15/08 Q1018 NOSIG=
201712221630 METAR VIDP 221630Z 26004KT 1800 R28/P2000 R29/P2000 FU FEW100 14/08 Q1018 NOSIG=
201712221700 METAR VIDP 221700Z 26005KT 1800 R28/P2000 R29/P2000 FU FEW100 14/08 Q1018 NOSIG=
201712221705 METAR VIDP NIL=
201712221730 METAR VIDP 221730Z 27004KT 1600 R28/P2000 R29/P2000 FU FEW100 14/08 Q1018 BECMG 1500 FU=
201712221800 METAR VIDP 221800Z 26004KT 1500 R28/P2000 R29/P2000 FU FEW100 14/08 Q1018 NOSIG=
201712221805 METAR VIDP NIL=
201712221830 METAR VIDP 221830Z 26004KT 1500 R28/P2000 R29/P2000 FU FEW100 13/08 Q1018 NOSIG=
201712221900 METAR VIDP 221900Z 26006KT 1500 R28/P2000 R29/P2000 FU FEW100 13/08 Q1017 NOSIG=
201712221930 METAR VIDP 221930Z 25006KT 1400 R28/P2000 R29/P2000 FU FEW100 13/08 Q1017 NOSIG=
201712222000 METAR VIDP 222000Z 26007KT 1300 R28/P2000 R29/P2000 BR FEW100 12/08 Q1017 NOSIG=
201712222005 METAR VIDP NIL=
201712222030 METAR VIDP 222030Z 26006KT 1200 R28/P2000 R29/P2000 BR FEW100 11/08 Q1016 NOSIG=
201712222100 METAR VIDP 222100Z 25006KT 1200 R28/P2000 R29/P2000 BR FEW100 11/08 Q1016 NOSIG=
201712222130 METAR VIDP 222130Z 26006KT 1000 R28/P2000 R29/P2000 BR FEW100 11/08 Q1016 NOSIG=
201712222200 METAR VIDP 222200Z 26005KT 1000 R28/P2000 R29/P2000 BR FEW100 10/06 Q1016 NOSIG=
201712222230 METAR VIDP 222230Z 25005KT 1000 R28/P2000 R29/P2000 BR FEW100 10/06 Q1016 NOSIG=
201712222300 METAR VIDP 222300Z 25005KT 1000 R28/P2000 R29/P2000 BR FEW100 10/06 Q1016 NOSIG=
201712222330 METAR VIDP 222330Z 26005KT 1000 R28/P2000 R29/P2000 BR NSC 10/06 Q1015 NOSIG=
201712230000 METAR VIDP 230000Z 26005KT 0900 R28/P2000 R29/P2000 BR MIFG 10/06 Q1015 NOSIG=
201712230030 METAR VIDP 230030Z 24004KT 0900 R28/P2000 R29/P2000 MIFG NSC 09/06 Q1015 BECMG 0800 MIFG=
201712230100 METAR VIDP 230100Z 24004KT 0900 R28/P2000 R29/P2000 MIFG NSC 09/06 Q1015 BECMG 0800 MIFG=
201712230130 METAR VIDP 230130Z 25005KT 0800 R28/P2000 R29/P2000 MIFG NSC 09/06 Q1015 NOSIG=
201712230200 METAR VIDP 230200Z 24005KT 0800 R28/P2000 R29/1700 MIFG NSC 09/06 Q1016 NOSIG=
201712230205 METAR VIDP NIL=
201712230230 METAR VIDP 230230Z 24005KT 0800 R28/P2000 R29/1700 MIFG NSC 09/06 Q1016 NOSIG=
201712230300 METAR VIDP 230300Z 27005KT 0800 R28/1300 R29/1700 MIFG NSC 10/07 Q1016 NOSIG=
201712230330 METAR VIDP 230330Z 27006KT 0900 R28/1300 R29/1800 MIFG NSC 11/07 Q1016 NOSIG=
201712230400 METAR VIDP 230400Z 26007KT 1000 R28/1300 R29/2000 FU NSC 13/07 Q1017 NOSIG=
201712230405 METAR VIDP NIL=
201712230430 METAR VIDP 230430Z 27007KT 1200 R28/1400 R29/2000 FU NSC 14/07 Q1017 BECMG 1500 HZ=
201712230500 METAR VIDP 230500Z 27007KT 1300 R28/1400 R29/2000 FU NSC 16/07 Q1017 BECMG 1500 HZ=
201712230505 METAR VIDP NIL=
201712230530 METAR VIDP 230530Z 28008KT 1500 R28/1700 R29/P2000 HZ NSC 18/08 Q1016 NOSIG=
201712230600 METAR VIDP 230600Z 27007KT 1500 R28/1800 R29/P2000 HZ NSC 19/08 Q1016 NOSIG=
201712230630 METAR VIDP 230630Z 25007KT 1500 R28/1800 R29/P2000 HZ NSC 20/08 Q1016 NOSIG=
201712230700 METAR VIDP 230700Z 29009KT 2000 R28/P2000 R29/P2000 HZ NSC 22/07 Q1015 NOSIG=
201712230730 METAR VIDP 230730Z 29009KT 2000 R28/P2000 R29/P2000 HZ NSC 23/07 Q1015 NOSIG=
201712230800 METAR VIDP 230800Z 29009KT 2000 HZ NSC 23/06 Q1014 NOSIG=
201712230830 METAR VIDP 230830Z 28010KT 2200 HZ NSC 24/08 Q1014 NOSIG=
201712230900 METAR VIDP 230900Z 28010KT 2200 HZ NSC 24/09 Q1014 NOSIG=
201712230905 METAR VIDP NIL=
201712230930 METAR VIDP 230930Z 27010KT 2200 HZ NSC 24/08 Q1013 NOSIG=
201712231000 METAR COR VIDP 231000Z 26011KT 2200 HZ NSC 24/07 Q1013 NOSIG=
201712231005 METAR VIDP NIL=
201712231030 METAR VIDP 231030Z 29010KT 2200 HZ NSC 24/07 Q1013 NOSIG=
201712231100 METAR VIDP 231100Z 28009KT 2200 HZ NSC 23/07 Q1013 NOSIG=
201712231105 METAR VIDP NIL=
201712231130 METAR VIDP 231130Z 28007KT 2200 HZ NSC 23/07 Q1013 NOSIG=
201712231200 METAR VIDP 231200Z 28006KT 2200 HZ NSC 21/07 Q1013 NOSIG=
201712231205 METAR VIDP NIL=
201712231230 METAR VIDP 231230Z 28004KT 2100 HZ NSC 20/07 Q1014 NOSIG=
201712231300 METAR VIDP 231300Z 25004KT 2100 HZ NSC 20/07 Q1014 NOSIG=
201712231305 METAR VIDP NIL=
201712231330 METAR VIDP 231330Z 25005KT 2100 HZ NSC 19/07 Q1014 NOSIG=
201712231400 METAR VIDP 231400Z 23005KT 2100 HZ NSC 18/08 Q1014 NOSIG=
201712231430 METAR VIDP 231430Z 00000KT 2100 HZ NSC 16/08 Q1014 NOSIG=
201712231500 METAR VIDP 231500Z 00000KT 2100 FU NSC 16/08 Q1015 NOSIG=
201712231530 METAR VIDP 231530Z 00000KT 2100 FU NSC 16/08 Q1015 NOSIG=
201712231600 METAR VIDP 231600Z 00000KT 2100 FU NSC 15/08 Q1015 NOSIG=
201712231605 METAR VIDP NIL=
201712231630 METAR VIDP 231630Z 00000KT 2100 FU NSC 15/08 Q1015 NOSIG=
201712231700 METAR VIDP 231700Z 00000KT 2100 FU NSC 14/07 Q1015 NOSIG=
201712231730 METAR VIDP 231730Z 00000KT 2100 FU NSC 14/07 Q1015 NOSIG=
201712231800 METAR VIDP 231800Z 00000KT 2100 FU NSC 13/06 Q1015 NOSIG=
201712231830 METAR VIDP 231830Z 00000KT 2100 FU NSC 13/07 Q1015 NOSIG=
201712231900 METAR VIDP 231900Z 00000KT 2100 FU NSC 12/07 Q1015 NOSIG=
201712231930 METAR VIDP 231930Z 00000KT 2000 FU NSC 12/07 Q1015 NOSIG=
201712232000 METAR VIDP 232000Z 00000KT 2000 FU NSC 11/06 Q1015 NOSIG=
201712232005 METAR VIDP NIL=
201712232030 METAR VIDP 232030Z 00000KT 2000 BR NSC 11/07 Q1015 NOSIG=
201712232100 METAR VIDP 232100Z 00000KT 2000 BR NSC 11/07 Q1015 NOSIG=
201712232130 METAR VIDP 232130Z 00000KT 2000 BR NSC 11/07 Q1015 NOSIG=
201712232200 METAR VIDP 232200Z 00000KT 1800 R28/P2000 R29/P2000 BR NSC 11/07 Q1015 NOSIG=
201712232230 METAR VIDP 232230Z 00000KT 1600 R28/P2000 R29/P2000 BR NSC 10/07 Q1014 BECMG 1500 BR=
201712232300 METAR VIDP 232300Z 00000KT 1500 R28/P2000 R29/P2000 BR NSC 10/07 Q1014 NOSIG=
201712232330 METAR VIDP 232330Z 00000KT 1200 R28/P2000 R29/P2000 BR NSC 10/07 Q1014 NOSIG=
201712240000 METAR VIDP 240000Z 00000KT 1000 R28/P2000 R29/P2000 BR NSC 09/07 Q1014 BECMG 0800 MIFG=
201712240030 METAR VIDP 240030Z 00000KT 1000 R28/P2000 R29/P2000 BR NSC 09/07 Q1014 BECMG 0800 MIFG=
201712240100 METAR VIDP 240100Z 00000KT 1000 R28/P2000 R29/P2000 BR NSC 09/07 Q1015 BECMG 0800 MIFG=
201712240105 METAR VIDP NIL=
201712240130 METAR VIDP 240130Z 00000KT 0800 R28/P2000 R29/P1500 MIFG NSC 09/07 Q1015 NOSIG=
201712240200 METAR VIDP 240200Z 00000KT 0700 R28/P2000 R29/P1500 MIFG NSC 10/07 Q1015 NOSIG=
201712240230 METAR VIDP 240230Z 00000KT 0700 R28/1600 R29/1200 MIFG NSC 10/08 Q1016 NOSIG=
201712240300 METAR VIDP 240300Z 00000KT 0700 R28/1500 R29/1200 MIFG NSC 10/08 Q1016 BECMG 0800=
201712240305 METAR VIDP NIL=
201712240330 METAR VIDP 240330Z 00000KT 0800 R28/1500 R29/1300 MIFG NSC 14/10 Q1017 NOSIG=
201712240400 METAR VIDP 240400Z 00000KT 1000 R28/1700 R29/2000 FU NSC 18/09 Q1017 NOSIG=
201712240430 METAR VIDP 240430Z 15004KT 1400 R28/P2000 R29/P2000 FU NSC 19/07 Q1017 BECMG 1500 HZ=
201712240500 METAR VIDP 240500Z 16004KT 1700 R28/P2000 R29/P2000 FU FEW100 20/06 Q1017 NOSIG=
201712240505 METAR VIDP NIL=
201712240530 METAR VIDP 240530Z 24004KT 2500 HZ NSC 21/06 Q1017 BECMG 3000 HZ=
201712240600 METAR VIDP 240600Z 18004KT 3000 HZ NSC 22/06 Q1017 NOSIG=
201712240605 METAR VIDP NIL=
201712240630 METAR VIDP 240630Z 23004KT 3000 HZ NSC 22/06 Q1017 NOSIG=
201712240700 METAR VIDP 240700Z 25005KT 3500 HZ SCT100 23/06 Q1017 NOSIG=
201712240730 METAR VIDP 240730Z 28004KT 3500 HZ SCT100 23/05 Q1016 NOSIG=
201712240800 METAR VIDP 240800Z 25004KT 3500 HZ SCT100 24/05 Q1016 NOSIG=
201712240830 METAR VIDP 240830Z 30006KT 3500 HZ NSC 25/04 Q1015 NOSIG=
201712240900 METAR VIDP 240900Z 31005KT 3500 HZ NSC 24/04 Q1014 NOSIG=
201712240930 METAR VIDP 240930Z 31005KT 3500 HZ NSC 23/04 Q1014 NOSIG=
201712241000 METAR VIDP 241000Z 32005KT 3500 HZ NSC 23/04 Q1014 NOSIG=
201712241030 METAR VIDP 241030Z 34005KT 3500 HZ NSC 23/04 Q1014 NOSIG=
201712241100 METAR VIDP 241100Z 33004KT 3500 HZ NSC 22/04 Q1014 NOSIG=
201712241105 METAR VIDP NIL=
201712241130 METAR VIDP 241130Z 32005KT 3500 HZ NSC 22/04 Q1014 NOSIG=
201712241200 METAR VIDP 241200Z 32005KT 3500 HZ NSC 21/05 Q1014 NOSIG=
201712241230 METAR VIDP 241230Z 32003KT 3500 HZ NSC 19/06 Q1014 BECMG 3000 FU=
201712241300 METAR VIDP 241300Z 30003KT 3200 FU NSC 18/06 Q1015 BECMG 3000 FU=
201712241330 METAR VIDP 241330Z 00000KT 3000 FU NSC 17/07 Q1015 NOSIG=
201712241400 METAR VIDP 241400Z 00000KT 3000 FU NSC 17/07 Q1015 NOSIG=
201712241405 METAR VIDP NIL=
201712241430 METAR VIDP 241430Z 00000KT 2500 FU NSC 15/07 Q1016 NOSIG=
201712241500 METAR VIDP 241500Z 00000KT 3000 FU NSC 17/07 Q1015 NOSIG=
201712241530 METAR VIDP 241530Z 00000KT 2500 FU NSC 14/07 Q1016 NOSIG=
201712241600 METAR VIDP 241600Z 00000KT 2500 FU NSC 14/07 Q1016 NOSIG=
201712241630 METAR VIDP 241630Z 00000KT 2200 FU NSC 14/07 Q1016 NOSIG=
201712241700 METAR VIDP 241700Z 00000KT 1700 R28/P2000 R29/P2000 FU NSC 14/07 Q1016 NOSIG=
201712241705 METAR VIDP NIL=
201712241730 METAR VIDP 241730Z 00000KT 1700 R28/P2000 R29/P2000 FU NSC 14/07 Q1016 BECMG 1500 FU=
201712241800 METAR VIDP 241800Z 00000KT 1500 R28/P2000 R29/P2000 FU NSC 13/07 Q1016 NOSIG=
201712241805 METAR VIDP NIL=
201712241830 METAR VIDP 241830Z 00000KT 1500 R28/P2000 R29/P2000 FU NSC 13/07 Q1016 NOSIG=
201712241900 METAR VIDP 241900Z 00000KT 1500 R28/P2000 R29/P2000 FU NSC 13/07 Q1016 NOSIG=
201712241930 METAR VIDP 241930Z 00000KT 1500 R28/P2000 R29/P2000 FU NSC 13/07 Q1016 NOSIG=
201712242000 METAR VIDP 242000Z 00000KT 1200 R28/P2000 R29/P2000 BR NSC 12/08 Q1016 NOSIG=
201712242030 METAR VIDP 242030Z 00000KT 1000 R28/P2000 R29/P2000 BR NSC 12/08 Q1016 BECMG 0800 MIFG=
201712242100 METAR VIDP 242100Z 00000KT 0800 R28/P2000 R29/P2000 MIFG NSC 12/08 Q1016 NOSIG=
201712242130 METAR VIDP 242130Z 00000KT 0800 R28/P2000 R29/P2000 MIFG NSC 11/08 Q1016 NOSIG=
201712242200 METAR VIDP 242200Z 24003KT 0700 R28/P2000 R29/1500 MIFG NSC 11/09 Q1016 BECMG 0600=
201712242230 METAR VIDP 242230Z 23003KT 0700 R28/P2000 R29/1800 MIFG NSC 11/08 Q1016 BECMG 0600=
201712242300 METAR VIDP 242300Z 00000KT 0600 R28/P2000 R29/1800 MIFG NSC 11/08 Q1016 NOSIG=
201712242330 METAR VIDP 242330Z 22004KT 0500 R28/1800 R29/1800 FG NSC 10/08 Q1016 NOSIG=
201712250000 METAR VIDP 250000Z 22004KT 0400 R28/1800 R29/1000 FG NSC 10/08 Q1016 BECMG 0350 FG=
201712250030 METAR VIDP 250030Z 00000KT 0500 R28/1600 R29/1600 FG NSC 10/07 Q1016 NOSIG=
201712250100 METAR VIDP 250100Z 00000KT 0400 R28/1600 R29/1400 FG NSC 09/07 Q1017 NOSIG=
201712250130 METAR VIDP 250130Z 25003KT 0400 R28/1500 R29/1200 FG NSC 09/07 Q1017 NOSIG=
201712250200 METAR VIDP 250200Z 21003KT 0300 R28/1000 R29/0700 FG NSC 09/07 Q1018 NOSIG=
201712250205 METAR VIDP NIL=
201712250230 METAR VIDP 250230Z 23003KT 0300 R28/0800 R29/0700 FG NSC 09/07 Q1018 NOSIG=
201712250300 METAR VIDP 250300Z 00000KT 0400 R28/0800 R29/0700 FG NSC 10/08 Q1018 BECMG VIS 0600=
201712250330 METAR VIDP 250330Z 23003KT 0600 R28/0850 R29/0700 MIFG NSC 11/08 Q1018 NOSIG=
201712250400 METAR VIDP 250400Z 26002KT 0600 R28/0900 R29/0700 MIFG NSC 12/09 Q1018 NOSIG=
201712250430 METAR VIDP 250430Z 25003KT 0600 R28/1000 R29/0750 MIFG NSC 15/10 Q1019 BECMG VIS 0800=
201712250500 METAR VIDP 250500Z 25005KT 0700 R28/1000 R29/0800 MIFG NSC 16/12 Q1019 BECMG 0800 FU=
201712250505 METAR VIDP NIL=
201712250530 METAR VIDP 250530Z 27005KT 0800 R28/1100 R29/0900 MIFG NSC 17/11 Q1019 NOSIG=
201712250600 METAR VIDP 250600Z 27006KT 0800 R28/1100 R29/1000 FU NSC 18/11 Q1019 NOSIG=
201712250630 METAR VIDP 250630Z 29007KT 0900 R28/1600 R29/1500 FU NSC 19/10 Q1018 NOSIG=
201712250700 METAR VIDP 250700Z 25007KT 1000 R28/1500 R29/1400 FU NSC 20/11 Q1018 NOSIG=
201712250730 METAR VIDP 250730Z 29008KT 1200 R28/1500 R29/1600 FU NSC 21/09 Q1017 NOSIG=
201712250800 METAR VIDP 250800Z 28009KT 1300 R28/1600 R29/1600 FU NSC 21/09 Q1017 NOSIG=
201712250805 METAR VIDP NIL=
201712250830 METAR VIDP 250830Z 28009KT 1400 R28/P2000 R29/P2000 FU NSC 22/08 Q1017 BECMG 1500=
201712250900 METAR VIDP 250900Z 29010KT 2000 FU NSC 22/08 Q1016 NOSIG=
201712250930 METAR VIDP 250930Z 30008KT 2200 FU NSC 22/09 Q1016 NOSIG=
201712251000 METAR VIDP 251000Z 29007KT 2200 FU NSC 22/08 Q1016 NOSIG=
201712251005 METAR VIDP NIL=
201712251030 METAR VIDP 251030Z 29008KT 2200 FU NSC 22/08 Q1016 NOSIG=
201712251100 METAR VIDP 251100Z 29008KT 2200 FU NSC 22/08 Q1016 NOSIG=
201712251130 METAR VIDP 251130Z 31006KT 2200 FU NSC 21/08 Q1016 NOSIG=
201712251200 METAR VIDP 251200Z 30005KT 2200 FU NSC 20/08 Q1017 NOSIG=
201712251230 METAR VIDP 251230Z 27003KT 2200 FU NSC 19/08 Q1017 NOSIG=
201712251300 METAR VIDP 251300Z 25003KT 2200 FU NSC 18/08 Q1017 NOSIG=
201712251330 METAR VIDP 251330Z 26003KT 2200 FU NSC 17/08 Q1017 NOSIG=
201712251400 METAR VIDP 251400Z 28003KT 2200 FU NSC 16/09 Q1017 NOSIG=
201712251405 METAR VIDP NIL=
201712251430 METAR VIDP 251430Z 00000KT 2200 FU NSC 16/09 Q1018 NOSIG=
201712251500 METAR VIDP 251500Z 00000KT 2200 FU NSC 15/09 Q1018 NOSIG=
201712251530 METAR VIDP 251530Z 00000KT 2100 FU NSC 15/09 Q1018 NOSIG=
201712251600 METAR VIDP 251600Z 00000KT 2100 FU NSC 14/09 Q1018 NOSIG=
201712251630 METAR VIDP 251630Z 00000KT 2100 FU NSC 14/09 Q1018 NOSIG=
201712251700 METAR VIDP 251700Z 00000KT 2000 FU NSC 14/09 Q1019 NOSIG=
201712251730 METAR VIDP 251730Z 00000KT 1700 R28/P2000 R29/P2000 BR NSC 13/10 Q1018 NOSIG=
201712251800 METAR VIDP 251800Z 00000KT 1600 R28/P2000 R29/P2000 BR NSC 12/09 Q1018 BECMG VIS 1500 BR=
201712251830 METAR VIDP 251830Z 00000KT 1500 R28/P2000 R29/P2000 BR NSC 12/09 Q1018 NOSIG=
201712251900 METAR VIDP 251900Z 00000KT 1500 R28/2000 R29/1800 BR NSC 11/09 Q1018 NOSIG=
201712251905 METAR VIDP NIL=
201712251930 METAR VIDP 251930Z 00000KT 1200 R28/2000 R29/1900 BR NSC 11/09 Q1018 NOSIG=
201712252000 METAR VIDP 252000Z 00000KT 1200 R28/2000 R29/1800 BR NSC 11/09 Q1018 NOSIG=
201712252030 METAR VIDP 252030Z 00000KT 1000 R28/1900 R29/1400 BR NSC 10/08 Q1018 BECMG VIS 0800 MIFG=
201712252100 METAR VIDP 252100Z 00000KT 0800 R28/2000 R29/1600 MIFG NSC 10/08 Q1018 NOSIG=
201712252130 METAR VIDP 252130Z 00000KT 0800 R28/2000 R29/1600 MIFG NSC 10/08 Q1018 NOSIG=
201712252200 METAR VIDP 252200Z 00000KT 0700 R28/1800 R29/1800 MIFG NSC 10/08 Q1017 NOSIG=
201712252205 METAR VIDP NIL=
201712252230 METAR VIDP 252230Z 00000KT 0700 R28/1700 R29/1400 MIFG NSC 10/08 Q1017 NOSIG=
201712252300 METAR VIDP 252300Z 00000KT 0700 R28/1700 R29/1100 MIFG NSC 10/08 Q1017 NOSIG=
201712252305 METAR VIDP NIL=
201712252330 METAR VIDP 252330Z 00000KT 0650 R28/1500 R29/0700 MIFG NSC 09/08 Q1017 BECMG 0600 MIFG=
201712260000 METAR VIDP 260000Z 00000KT 0600 R28/1200 R29/1000 MIFG NSC 09/08 Q1017 NOSIG=
201712260005 METAR VIDP NIL=
201712260030 METAR VIDP 260030Z 25004KT 0600 R28/1400 R29/0900 MIFG NSC 09/07 Q1017 NOSIG=
201712260100 METAR VIDP 260100Z 00000KT 0600 R28/1600 R29/1100 MIFG NSC 09/07 Q1017 NOSIG=
201712260105 METAR VIDP NIL=
201712260130 METAR VIDP 260130Z 24004KT 0400 R28/1700 R29/0750 FG VV/// 09/07 Q1018 NOSIG=
201712260200 METAR VIDP 260200Z 21003KT 0400 R28/0900 R29/1100 FG NSC 09/08 Q1018 NOSIG=
201712260205 METAR VIDP NIL=
201712260230 METAR VIDP 260230Z 25004KT 0400 R28/0800 R29/0600 FG NSC 09/08 Q1018 NOSIG=
201712260300 METAR VIDP 260300Z 26004KT 0400 R28/0900 R29/0800 FG NSC 10/08 Q1019 NOSIG=
201712260330 METAR VIDP 260330Z 24004KT 0500 R28/1000 R29/1300 FG NSC 11/08 Q1019 BECMG 0600 MIFG=
201712260400 METAR VIDP 260400Z 25004KT 0700 R28/1400 R29/1800 MIFG NSC 12/09 Q1020 BECMG 0800 MIFG=
201712260430 METAR VIDP 260430Z 24004KT 1000 R28/1500 R29/P2000 FU NSC 14/09 Q1020 NOSIG=
201712260500 METAR VIDP 260500Z 24005KT 1100 R28/1800 R29/P2000 FU NSC 15/09 Q1020 NOSIG=
201712260530 METAR VIDP 260530Z 26005KT 1200 R28/1900 R29/P2000 FU NSC 17/09 Q1020 BECMG 1500 FU=
201712260600 METAR VIDP 260600Z 26005KT 1500 R28/1900 R29/P2000 FU NSC 18/09 Q1020 NOSIG=
201712260605 METAR VIDP NIL=
201712260630 METAR VIDP 260630Z 27006KT 1500 R28/P2000 R29/P2000 FU NSC 19/10 Q1019 NOSIG=
201712260700 METAR VIDP 260700Z 26007KT 1800 R28/P2000 R29/P2000 FU NSC 20/10 Q1019 NOSIG=
201712260730 METAR VIDP 260730Z 28007KT 1800 R28/P2000 R29/P2000 FU NSC 21/09 Q1018 NOSIG=
201712260800 METAR VIDP 260800Z 29007KT 1800 R28/P2000 R29/P2000 FU NSC 21/09 Q1018 NOSIG=
201712260830 METAR VIDP 260830Z 28007KT 2000 FU NSC 22/10 Q1017 NOSIG=
201712260900 METAR VIDP 260900Z 28007KT 2200 FU NSC 22/09 Q1017 NOSIG=
201712260930 METAR VIDP 260930Z 28007KT 2200 FU NSC 23/09 Q1016 NOSIG=
201712261000 METAR VIDP 261000Z 28007KT 2200 FU NSC 23/09 Q1016 NOSIG=
201712261030 METAR VIDP 261030Z 28007KT 2500 FU NSC 22/09 Q1016 NOSIG=
201712261100 METAR VIDP 261100Z 27007KT 2500 FU NSC 22/09 Q1016 NOSIG=
201712261130 METAR VIDP 261130Z 26005KT 2200 FU NSC 21/10 Q1016 NOSIG=
201712261200 METAR VIDP 261200Z 26004KT 2200 FU NSC 20/10 Q1017 NOSIG=
201712261230 METAR VIDP 261230Z 26004KT 2200 FU NSC 19/10 Q1017 NOSIG=
201712261300 METAR VIDP 261300Z 27004KT 2200 FU NSC 18/10 Q1017 NOSIG=
201712261330 METAR VIDP 261330Z 27003KT 2200 FU NSC 18/10 Q1017 NOSIG=
201712261400 METAR VIDP 261400Z 27003KT 2200 FU NSC 17/10 Q1017 NOSIG=
201712261430 METAR VIDP 261430Z 00000KT 2200 FU NSC 17/10 Q1017 NOSIG=
201712261500 METAR VIDP 261500Z 00000KT 2200 FU NSC 16/10 Q1018 NOSIG=
201712261530 METAR VIDP 261530Z 00000KT 2200 FU NSC 14/09 Q1018 NOSIG=
201712261600 METAR VIDP 261600Z 00000KT 2200 FU NSC 14/09 Q1018 NOSIG=
201712261630 METAR VIDP 261630Z 00000KT 2200 FU NSC 14/09 Q1018 NOSIG=
201712261700 METAR VIDP 261700Z 00000KT 2200 BR NSC 13/09 Q1018 NOSIG=
201712261705 METAR VIDP NIL=
201712261730 METAR VIDP 261730Z 00000KT 2200 BR NSC 13/10 Q1018 NOSIG=
201712261800 METAR VIDP 261800Z 00000KT 2100 BR NSC 12/09 Q1018 NOSIG=
201712261830 METAR VIDP 261830Z 00000KT 2100 BR NSC 12/09 Q1018 NOSIG=
201712261900 METAR VIDP 261900Z 00000KT 1600 BR NSC 12/09 Q1017 BECMG 1500=
201712261930 METAR VIDP 261930Z 00000KT 1000 R28/2000 R29/1400 BR NSC 11/09 Q1017 NOSIG=
201712262000 METAR VIDP 262000Z 00000KT 1000 R28/2000 R29/1700 BR NSC 11/09 Q1016 BECMG 0800=
201712262005 METAR VIDP NIL=
201712262030 METAR VIDP 262030Z 00000KT 0700 R28/2000 R29/1200 MIFG NSC 10/08 Q1016 NOSIG=
201712262100 METAR VIDP 262100Z 00000KT 0700 R28/1800 R29/1400 MIFG NSC 10/08 Q1016 NOSIG=
201712262130 METAR VIDP 262130Z 00000KT 0700 R28/1800 R29/1400 MIFG NSC 10/08 Q1016 BECMG 0600=
201712262200 METAR VIDP 262200Z 00000KT 0600 R28/2000 R29/1500 MIFG NSC 10/09 Q1016 NOSIG=
201712262230 METAR VIDP 262230Z 00000KT 0600 R28/2000 R29/1000 MIFG NSC 10/09 Q1016 NOSIG=
201712262300 METAR VIDP 262300Z 00000KT 0600 R28/2000 R29/1000 MIFG NSC 10/09 Q1016 NOSIG=
201712262330 METAR VIDP 262330Z 00000KT 0600 R28/P2000 R29/1000 MIFG NSC 10/09 Q1016 NOSIG=
201712270000 METAR VIDP 270000Z 00000KT 0600 R28/2000 R29/1200 MIFG NSC 10/09 Q1016 NOSIG=
201712270030 METAR VIDP 270030Z 00000KT 0500 R28/2000 R29/1200 FG NSC 10/08 Q1016 NOSIG=
201712270100 METAR VIDP 270100Z 00000KT 0400 R28/2000 R29/1700 FG NSC 09/08 Q1017 NOSIG=
201712270130 METAR VIDP 270130Z 00000KT 0400 R28/1900 R29/1400 FG NSC 09/08 Q1017 NOSIG=
201712270200 METAR VIDP 270200Z 23004KT 0400 R28/1000 R29/1000 FG FEW100 09/08 Q1018 NOSIG=
201712270230 METAR VIDP 270230Z 25004KT 0500 R28/1000 R29/1000 FG FEW100 09/08 Q1018 NOSIG=
201712270300 METAR VIDP 270300Z 25003KT 0500 R28/0800 R29/1000 FG NSC 11/09 Q1018 BECMG 0600 MIFG=
201712270305 METAR VIDP NIL=
201712270330 METAR VIDP 270330Z 26003KT 0500 R28/0900 R29/1200 FG NSC 12/09 Q1018 BECMG VIS 0600 MIFG=
201712270400 METAR VIDP 270400Z 25003KT 0800 R28/1000 R29/1500 MIFG 13/10 Q1019 NOSIG=
201712270405 METAR VIDP NIL=
201712270430 METAR VIDP 270430Z 25003KT 1200 R28/1400 R29/2000 BR 15/10 Q1019 NOSIG=
201712270500 METAR VIDP 270500Z 25003KT 1400 R28/1500 R29/2000 FU NSC 17/10 Q1019 BECMG 1500 FU=
201712270505 METAR VIDP NIL=
201712270530 METAR VIDP 270530Z 26006KT 1700 R28/P2000 R29/P2000 FU NSC 19/10 Q1019 NOSIG=
201712270600 METAR VIDP 270600Z 27006KT 1800 R28/P2000 R29/P2000 FU NSC 20/10 Q1019 NOSIG=
201712270605 METAR VIDP NIL=
201712270630 METAR VIDP 270630Z 27006KT 2000 FU NSC 21/09 Q1018 NOSIG=
201712270700 METAR VIDP 270700Z 27006KT 2500 FU NSC 22/09 Q1018 NOSIG=
201712270730 METAR VIDP 270730Z 26005KT 2500 FU NSC 23/09 Q1017 BECMG VIS 3000 FU=
201712270800 METAR VIDP 270800Z 27006KT 3500 HZ NSC 23/08 Q1017 NOSIG=
201712270805 METAR VIDP NIL=
201712270830 METAR VIDP 270830Z 27006KT 3500 HZ NSC 24/06 Q1016 NOSIG=
201712270900 METAR VIDP 270900Z 27006KT 3500 HZ NSC 24/06 Q1016 NOSIG=
201712270930 METAR VIDP 270930Z 29005KT 3000 HZ NSC 25/06 Q1016 NOSIG=
201712271000 METAR VIDP 271000Z 29008KT 3500 HZ FEW100 25/07 Q1016 NOSIG=
201712271030 METAR VIDP 271030Z 31006KT 3500 HZ FEW100 24/07 Q1016 NOSIG=
201712271100 METAR VIDP 271100Z 33006KT 3500 HZ FEW100 24/06 Q1016 NOSIG=
201712271105 METAR VIDP NIL=
201712271130 METAR VIDP 271130Z 32004KT 3500 HZ SCT100 23/07 Q1016 NOSIG=
201712271200 METAR VIDP 271200Z 27004KT 3500 HZ SCT100 23/07 Q1016 NOSIG=
201712271205 METAR VIDP NIL=
201712271230 METAR VIDP 271230Z 00000KT 3400 HZ FEW100 21/07 Q1016 NOSIG=
201712271300 METAR VIDP 271300Z 00000KT 3300 HZ FEW100 20/07 Q1016 NOSIG=
201712271330 METAR VIDP 271330Z 00000KT 3100 HZ NSC 18/07 Q1016 BECMG 3000 HZ=
201712271400 METAR VIDP 271400Z 00000KT 2500 HZ NSC 17/07 Q1016 NOSIG=
201712271430 METAR VIDP 271430Z 00000KT 2500 HZ NSC 17/07 Q1017 NOSIG=
201712271500 METAR VIDP 271500Z 00000KT 2500 HZ NSC 17/07 Q1017 NOSIG=
201712271530 METAR VIDP 271530Z 00000KT 2500 HZ NSC 16/07 Q1017 NOSIG=
201712271600 METAR VIDP 271600Z 00000KT 2200 HZ NSC 16/07 Q1017 NOSIG=
201712271630 METAR VIDP 271630Z 00000KT 2200 HZ NSC 16/08 Q1017 NOSIG=
201712271700 METAR VIDP 271700Z 00000KT 2000 HZ NSC 15/07 Q1017 NOSIG=
201712271730 METAR VIDP 271730Z 00000KT 2000 FU NSC 14/07 Q1017 NOSIG=
201712271800 METAR VIDP 271800Z 00000KT 2000 FU NSC 14/08 Q1017 NOSIG=
201712271830 METAR VIDP 271830Z 00000KT 2000 FU NSC 14/08 Q1017 NOSIG=
201712271900 METAR VIDP 271900Z 00000KT 2000 FU NSC 13/07 Q1017 NOSIG=
201712271930 METAR VIDP 271930Z 00000KT 1800 R28/P2000 R29/P2000 FU NSC 13/07 Q1017 NOSIG=
201712272000 METAR VIDP 272000Z 00000KT 1600 R28/P2000 R29/P2000 FU NSC 13/07 Q1017 BECMG 1500 FU=
201712272030 METAR VIDP 272030Z 00000KT 1600 R28/P2000 R29/P2000 FU NSC 13/07 Q1017 BECMG 1500 FU=
201712272100 METAR VIDP 272100Z 00000KT 1500 R28/P2000 R29/P2000 FU NSC 12/07 Q1017 NOSIG=
201712272130 METAR VIDP 272130Z 00000KT 1500 R28/P2000 R29/P2000 FU NSC 12/07 Q1017 NOSIG=
201712272200 METAR VIDP 272200Z 00000KT 1500 R28/P2000 R29/P2000 FU NSC 12/07 Q1016 NOSIG=
201712272230 METAR VIDP 272230Z 00000KT 1200 R28/P2000 R29/P2000 BR NSC 12/09 Q1016 NOSIG=
201712272300 METAR VIDP 272300Z 00000KT 1200 R28/P2000 R29/P2000 BR NSC 10/08 Q1016 NOSIG=
201712272305 METAR VIDP NIL=
201712272330 METAR VIDP 272330Z 00000KT 1200 R28/P2000 R29/P2000 BR NSC 10/08 Q1016 NOSIG=
201712280000 METAR VIDP 280000Z 00000KT 1200 R28/P2000 R29/P2000 BR NSC 11/09 Q1016 NOSIG=
201712280030 METAR VIDP 280030Z 00000KT 1200 R28/P2000 R29/P1700 BR NSC 11/08 Q1016 NOSIG=
201712280100 METAR VIDP 280100Z 00000KT 1000 R28/P2000 R29/P2000 BR NSC 11/09 Q1016 BECMG 0800 MIFG=
201712280105 METAR VIDP NIL=
201712280130 METAR VIDP 280130Z 00000KT 1000 R28/P2000 R29/P2000 BR NSC 11/09 Q1017 BECMG 0800 MIFG=
201712280200 METAR VIDP 280200Z 00000KT 0800 R28/P2000 R29/1300 MIFG NSC 11/08 Q1017 NOSIG=
201712280205 METAR VIDP NIL=
201712280230 METAR VIDP 280230Z 00000KT 0800 R28/2000 R29/1200 MIFG 11/09 Q1017 NOSIG=
201712280300 METAR VIDP 280300Z 00000KT 0800 R28/P2000 R29/1400 MIFG NSC 12/09 Q1018 NOSIG=
201712280330 METAR VIDP 280330Z 00000KT 0800 R28/P2000 R29/1800 MIFG NSC 14/10 Q1018 NOSIG=
201712280400 METAR VIDP 280400Z 00000KT 1000 R28/P2000 R29/1600 MIFG NSC 15/10 Q1019 NOSIG=
201712280430 METAR VIDP 280430Z 00000KT 1000 R28/P2000 R29/1400 FU NSC 16/09 Q1019 NOSIG=
201712280500 METAR VIDP 280500Z 00000KT 1000 R28/P2000 R29/2000 FU NSC 18/09 Q1019 NOSIG=
201712280505 METAR VIDP NIL=
201712280530 METAR VIDP 280530Z 00000KT 1000 R28/P2000 R29/2000 FU NSC 18/09 Q1019 NOSIG=
201712280600 METAR VIDP 280600Z 00000KT 1200 R28/P2000 R29/2000 FU NSC 22/06 Q1019 BECMG 1500 FU=
201712280630 METAR VIDP 280630Z 30004KT 1500 R28/P2000 R29/2000 FU NSC 23/06 Q1018=
201712280700 METAR VIDP 280700Z 29005KT 1500 R28/P2000 R29/2000 FU NSC 23/05 Q1017 NOSIG=
201712280730 METAR VIDP 280730Z 30006KT 1500 R28/P2000 R29/2000 FU NSC 23/05 Q1017 NOSIG=
201712280800 METAR VIDP 280800Z 32006KT 1500 R28/1800 R29/2000 FU NSC 24/06 Q1017 NOSIG=
201712280830 METAR VIDP 280830Z 32007KT 1800 R28/P2000 R29/2000 FU NSC 24/07 Q1016 NOSIG=
201712280900 METAR VIDP 280900Z 31006KT 1800 R28/P2000 R29/2000 FU NSC 24/07 Q1016 NOSIG=
201712280930 METAR VIDP 280930Z 32006KT 1800 R28/2000 R29/2000 FU NSC 24/06 Q1015 NOSIG=
201712281000 METAR VIDP 281000Z 32007KT 1800 R28/P2000 R29/P2000 FU NSC 24/05 Q1015 NOSIG=
201712281005 METAR VIDP NIL=
201712281030 METAR VIDP 281030Z 32007KT 2200 FU NSC 24/06 Q1015 NOSIG=
201712281100 METAR VIDP 281100Z 31007KT 2200 FU NSC 24/06 Q1015 NOSIG=
201712281130 METAR VIDP 281130Z 32003KT 2200 FU NSC 22/06 Q1015 NOSIG=
201712281200 METAR VIDP 281200Z 30003KT 2200 FU NSC 21/06 Q1015 NOSIG=
201712281205 METAR VIDP NIL=
201712281230 METAR VIDP 281230Z 31003KT 2200 FU NSC 20/07 Q1015 NOSIG=
201712281300 METAR VIDP 281300Z 31002KT 2200 FU NSC 20/08 Q1016 NOSIG=
201712281330 METAR VIDP 281330Z 00000KT 2200 FU NSC 18/08 Q1016 NOSIG=
201712281400 METAR VIDP 281400Z 00000KT 2200 FU NSC 17/08 Q1017 NOSIG=
201712281430 METAR VIDP 281430Z 00000KT 2200 FU NSC 16/07 Q1017 NOSIG=
201712281500 METAR VIDP 281500Z 00000KT 2000 FU NSC 15/07 Q1017 NOSIG=
201712281530 METAR VIDP 281530Z 00000KT 1600 R28/P2000 R29/P2000 FU NSC 15/08 Q1017 NOSIG=
201712281600 METAR VIDP 281600Z 00000KT 1500 R28/P2000 R29/P2000 FU NSC 15/09 Q1017 NOSIG=
201712281605 METAR VIDP NIL=
201712281630 METAR VIDP 281630Z 00000KT 1200 R28/P2000 R29/P2000 FU NSC 14/08 Q1017 NOSIG=
201712281700 METAR VIDP 281700Z 00000KT 1000 R28/P2000 R29/P2000 BR NSC 13/09 Q1017 NOSIG=
201712281705 METAR VIDP NIL=
201712281730 METAR VIDP 281730Z 00000KT 1000 R28/P2000 R29/P2000 BR NSC 13/09 Q1017 NOSIG=
201712281800 METAR VIDP 281800Z 00000KT 1000 R28/P2000 R29/P2000 BR NSC 13/09 Q1017 NOSIG=
201712281830 METAR VIDP 281830Z 00000KT 1000 R28/P2000 R29/P2000 BR NSC 13/09 Q1017 NOSIG=
201712281900 METAR VIDP 281900Z 00000KT 1000 R28/P2000 R29/P2000 BR NSC 13/09 Q1017 NOSIG=
201712281930 METAR VIDP 281930Z 00000KT 1000 R28/P2000 R29/P2000 BR NSC 13/09 Q1017 BECMG 0800 MIFG=
201712282000 METAR VIDP 282000Z 00000KT 0800 R28/P2000 R29/P2000 MIFG NSC 12/09 Q1016 NOSIG=
201712282030 METAR VIDP 282030Z 00000KT 0800 R28/P2000 R29/P2000 MIFG NSC 12/09 Q1016 NOSIG=
201712282100 METAR VIDP 282100Z 00000KT 0700 R28/P2000 R29/P2000 MIFG NSC 12/09 Q1016 BECMG 0600 MIFG=
201712282130 METAR VIDP 282130Z 00000KT 0600 R28/P2000 R29/P2000 MIFG NSC 11/09 Q1016 NOSIG=
201712282200 METAR VIDP 282200Z 00000KT 0500 R28/P2000 R29/P2000 MIFG NSC 11/09 Q1016 NOSIG=
201712282230 METAR VIDP 282230Z 00000KT 0400 R28/P2000 R29/1500 FG NSC 11/09 Q1016 BECMG 0350 FG=
201712282300 METAR VIDP 282300Z 00000KT 0400 R28/P2000 R29/P2000 FG NSC 10/07 Q1016 NOSIG=
201712282305 METAR VIDP NIL=
201712282330 METAR VIDP 282330Z 00000KT 0400 R28/P2000 R29/1900 FG NSC 10/07 Q1016 NOSIG=
201712290000 METAR VIDP 290000Z 00000KT 0400 R28/P2000 R29/1200 FG NSC 10/07 Q1016 NOSIG=
201712290030 METAR VIDP 290030Z 25004KT 0400 R28/P2000 R29/1000 FG NSC 10/07 Q1017 TEMPO 0350 FG=
201712290100 METAR VIDP 290100Z 00000KT 0300 R28/1900 R29/1700 FG NSC 10/07 Q1017 NOSIG=
201712290105 METAR VIDP NIL=
201712290130 METAR VIDP 290130Z 25004KT 0300 R28/1900 R29/1100 FG NSC 09/07 Q1017 NOSIG=
201712290200 METAR VIDP 290200Z 23003KT 0300 R28/1000 R29/0800 FG NSC 09/07 Q1018 NOSIG=
201712290230 METAR VIDP 290230Z 21003KT 0300 R28/0700 R29/0700 FG NSC 10/07 Q1018 NOSIG=
201712290300 METAR VIDP 290300Z 20003KT 0350 R28/0600 R29/0700 FG NSC 10/08 Q1018 NOSIG=
201712290305 METAR VIDP NIL=
201712290330 METAR VIDP 290330Z 25003KT 0400 R28/0800 R29/0700 FG NSC 11/09 Q1018 NOSIG=
201712290400 METAR VIDP 290400Z 23003KT 0500 R28/0800 R29/0700 FG NSC 12/09 TEMPO 0600 MIFG=
201712290405 METAR VIDP NIL=
201712290430 METAR VIDP 290430Z 26003KT 0600 R28/0900 R29/0700 FG NSC 15/09 TEMPO 0800 FU=
201712290500 METAR VIDP 290500Z 24003KT 0800 R28/1100 R29/1200 FU NSC 17/09 Q1019 NOSIG=
201712290505 METAR VIDP NIL=
201712290530 METAR VIDP 290530Z 30003KT 1000 R28/1200 R29/1500 FU NSC 18/09 Q1019 NOSIG=
201712290600 METAR VIDP 290600Z 27005KT 1100 R28/1300 R29/2000 FU NSC 19/10 Q1019 NOSIG=
201712290605 METAR VIDP NIL=
201712290630 METAR VIDP 290630Z 30005KT 1200 R28/1600 R29/2000 FU NSC 20/09 Q1018 NOSIG=
201712290700 METAR VIDP 290700Z 29005KT 1300 R28/1500 R29/2000 FU NSC 21/09 Q1018 NOSIG=
201712290730 METAR VIDP 290730Z 29005KT 1400 R28/2000 R29/2000 FU NSC 22/09 Q1018 BECMG 1500 FU=
201712290800 METAR VIDP 290800Z 29006KT 1500 R28/1900 R29/1500 FU NSC 22/08 Q1018 NOSIG=
201712290830 METAR VIDP 290830Z 28005KT 1500 R28/P2000 R29/P2000 FU NSC 23/07 Q1017 NOSIG=
201712290900 METAR VIDP 290900Z 29005KT 1500 R28/P2000 R29/P2000 FU NSC 23/08 Q1017 NOSIG=
201712290930 METAR VIDP 290930Z 28005KT 1600 R28/P2000 R29/P2000 FU NSC 24/08 Q1017 NOSIG=
201712291000 METAR VIDP 291000Z 29005KT 1600 R28/P2000 R29/P2000 FU NSC 23/08 Q1016 NOSIG=
201712291030 METAR VIDP 291030Z 30005KT 2000 FU NSC 23/07 Q1016 NOSIG=
201712291100 METAR VIDP 291100Z 29006KT 2000 FU NSC 23/06 Q1016 NOSIG=
201712291105 METAR VIDP NIL=
201712291130 METAR VIDP 291130Z 28005KT 2000 FU NSC 22/07 Q1016 NOSIG=
201712291200 METAR VIDP 291200Z 00000KT 2000 FU NSC 21/07 Q1016 NOSIG=
201712291230 METAR VIDP 291230Z 00000KT 2000 FU NSC 20/08 Q1016 NOSIG=
201712291300 METAR VIDP 291300Z 00000KT 2000 FU NSC 19/07 Q1017 NOSIG=
201712291330 METAR VIDP 291330Z 00000KT 2000 FU NSC 18/08 Q1017 NOSIG=
201712291400 METAR VIDP 291400Z 00000KT 2000 FU NSC 18/08 Q1017 NOSIG=
201712291430 METAR VIDP 291430Z 00000KT 2000 FU NSC 17/08 Q1017 NOSIG=
201712291500 METAR VIDP 291500Z 00000KT 1800 R28/P2000 R29/1800 FU NSC 16/08 Q1018 BECMG 1500 FU=
201712291530 METAR VIDP 291530Z 00000KT 1800 R28/P2000 R29/1800 FU NSC 16/08 Q1018 BECMG 1500 FU=
201712291600 METAR VIDP 291600Z 00000KT 1500 R28/P2000 R29/P2000 FU NSC 16/08 Q1018 NOSIG=
201712291630 METAR VIDP 291630Z 00000KT 1500 R28/P2000 R29/P2000 FU NSC 16/08 Q1018 NOSIG=
201712291700 METAR VIDP 291700Z 00000KT 1500 R28/P2000 R29/P2000 FU NSC 15/10 Q1018 NOSIG=
201712291705 METAR VIDP NIL=
201712291730 METAR VIDP 291730Z 00000KT 1500 R28/P2000 R29/P2000 FU NSC 15/10 Q1018 NOSIG=
201712291800 METAR VIDP 291800Z 00000KT 1500 R28/P2000 R29/P2000 FU NSC 14/09 Q1018 NOSIG=
201712291805 METAR VIDP NIL=
201712291830 METAR VIDP 291830Z 00000KT 1300 R28/P2000 R29/P2000 BR NSC 13/09 Q1018 NOSIG=
201712291900 METAR VIDP 291900Z 00000KT 1000 R28/P2000 R29/P1900 BR NSC 13/09 Q1018 TEMPO 0800 MIFG=
201712291930 METAR VIDP 291930Z 00000KT 1000 R28/P2000 R29/P1900 BR NSC 12/08 Q1017 TEMPO 0800 MIFG=
201712292000 METAR VIDP 292000Z 00000KT 0800 R28/P2000 R29/P1600 MIFG NSC 12/08 Q1017 NOSIG=
201712292005 METAR VIDP NIL=
201712292030 METAR VIDP NIL=
201712292105 METAR VIDP NIL=
201712292130 METAR VIDP NIL=
201712292205 METAR VIDP NIL=
201712292230 METAR VIDP NIL=
201712292305 METAR VIDP NIL=
201712292330 METAR VIDP NIL=
201712300000 METAR VIDP 300000Z 00000KT 0800 R28/1900 R29/P1300 MIFG NSC 10/08 Q1017 NOSIG=
201712300005 METAR VIDP NIL=
201712300030 METAR VIDP 300030Z 00000KT 0800 R28/P2000 R29/1100 MIFG NSC 10/08 Q1017 NOSIG=
201712300100 METAR VIDP 300100Z 00000KT 0700 R28/1800 R29/1000 MIFG NSC 09/07 Q1017 BECMG 0600 MIFG=
201712300105 METAR VIDP NIL=
201712300130 METAR VIDP 300130Z 00000KT 0500 R28/1700 R29/0800 FG NSC 09/08 Q1018 NOSIG=
201712300200 METAR VIDP 300200Z 00000KT 0400 R28/1200 R29/0500 FG NSC 09/08 Q1018 BECMG 0350 FG=
201712300205 METAR VIDP NIL=
201712300230 METAR VIDP 300230Z 00000KT 0400 R28/0800 R29/0700 FG NSC 09/08 Q1018 NOSIG=
201712300300 METAR VIDP 300300Z 00000KT 0400 R28/0800 R29/0700 FG NSC 10/08 Q1019 NOSIG=
201712300305 METAR VIDP NIL=
201712300330 METAR VIDP 300330Z 00000KT 0400 R28/0800 R29/0700 FG NSC 11/09 Q1019 BECMG 0600 MIFG=
201712300400 METAR VIDP 300400Z 00000KT 0400 R28/0800 R29/0800 FG NSC 12/10 Q1019 BECMG 0600 MIFG=
201712300405 METAR VIDP NIL=
201712300430 METAR VIDP 300430Z 00000KT 0500 R28/0900 R29/0800 FG NSC 14/10 Q1020 BECMG 0600 MIFG=
201712300500 METAR VIDP 300500Z 27003KT 0600 R28/0900 R29/0800 FU NSC 16/11 Q1020 NOSIG=
201712300530 METAR VIDP 300530Z 28003KT 0600 R28/1000 R29/1100 FU NSC 17/11 Q1020 BECMG 0800 FU=
201712300600 METAR VIDP 300600Z 29005KT 0700 R28/1200 R29/1400 FU NSC 18/11 Q1019 BECMG 0800 FU=
201712300605 METAR VIDP NIL=
201712300630 METAR VIDP 300630Z 28005KT 1000 R28/1300 R29/1800 FU NSC 19/11 Q1019 NOSIG=
201712300700 METAR VIDP 300700Z 28006KT 1100 R28/1400 R29/2000 FU NSC 21/11 Q1018 NOSIG=
201712300705 METAR VIDP NIL=
201712300730 METAR VIDP 300730Z 29006KT 1300 R28/2000 R29/2000 FU NSC 21/11 Q1018 BECMG 1500 FU=
201712300800 METAR VIDP 300800Z 29006KT 1300 R28/2000 R29/2000 FU NSC 21/11 Q1018 BECMG 1500 FU=
201712300830 METAR VIDP 300830Z 31004KT 1500 R28/2000 R29/2000 FU NSC 22/09 Q1017 NOSIG=
201712300900 METAR VIDP 300900Z 28005KT 2000 FU NSC 22/08 Q1017 NOSIG=
201712300905 METAR VIDP NIL=
201712300930 METAR VIDP 300930Z 31006KT 2200 FU NSC 22/08 Q1016 NOSIG=
201712301000 METAR VIDP 301000Z 31006KT 2200 FU NSC 22/08 Q1016 NOSIG=
201712301005 METAR VIDP NIL=
201712301030 METAR VIDP 301030Z 30006KT 2500 FU NSC 22/07 Q1015 NOSIG=
201712301100 METAR VIDP 301100Z 27006KT 2500 FU NSC 21/07 Q1015 NOSIG=
201712301130 METAR VIDP 301130Z 27006KT 2500 FU NSC 21/07 Q1015 NOSIG=
201712301200 METAR VIDP 301200Z 30005KT 2500 FU NSC 21/07 Q1015 NOSIG=
201712301230 METAR VIDP 301230Z 27004KT 2500 FU NSC 19/08 Q1015 NOSIG=
201712301300 METAR VIDP 301300Z 26002KT 2200 FU NSC 18/08 Q1016 NOSIG=
201712301305 METAR VIDP NIL=
201712301330 METAR VIDP 301330Z 26002KT 2100 FU NSC 17/09 Q1016 NOSIG=
201712301400 METAR VIDP 301400Z 00000KT 1800 R28/P2000 R29/P2000 FU NSC 16/09 Q1016 NOSIG=
201712301405 METAR VIDP NIL=
201712301430 METAR VIDP 301430Z 00000KT 1600 R28/P2000 R29/P2000 FU NSC 15/09 Q1016 BECMG 1500 FU=
201712301500 METAR VIDP 301500Z 00000KT 1200 R28/P2000 R29/P2000 FU NSC 15/09 Q1017 NOSIG=
201712301505 METAR VIDP NIL=
201712301530 METAR VIDP 301530Z 00000KT 1000 R28/2000 R29/2000 FU NSC 14/09 Q1017 BECMG 0800 MIFG=
201712301600 METAR VIDP 301600Z 00000KT 1600 R28/P2000 R29/P2000 FU NSC 13/09 Q1017 NOSIG=
201712301605 METAR VIDP NIL=
201712301630 METAR VIDP 301630Z 00000KT 1000 R28/2000 R29/2000 BR NSC 13/09 Q1017 NOSIG=
201712301700 METAR VIDP 301700Z 00000KT 1000 R28/2000 R29/2000 BR NSC 12/09 Q1017 NOSIG=
201712301730 METAR VIDP 301730Z 00000KT 1000 R28/2000 R29/1800 BR NSC 12/09 Q1017 NOSIG=
201712301800 METAR VIDP 301800Z 00000KT 0900 R28/2000 R29/1800 MIFG NSC 12/09 Q1017 BECMG 0800 MIFG=
201712301801 METAR VIDP 301801Z 00000KT 0900 R28/2000 R29/1800 MIFG NSC 12/09 Q1017 BECMG 0800 MIFG=
201712301805 METAR VIDP NIL=
201712301830 METAR VIDP 301830Z 00000KT 0700 R28/2000 R29/1700 MIFG NSC 11/08 Q1017 NOSIG=
201712301900 METAR VIDP 301900Z 00000KT 0700 R28/2000 R29/1600 MIFG NSC 11/08 Q1017 BECMG 0600=
201712301930 METAR VIDP 301930Z 00000KT 0600 R28/2000 R29/1600 MIFG NSC 10/08 Q1017 NOSIG=
201712302000 METAR VIDP 302000Z 00000KT 0600 R28/2000 R29/1500 MIFG NSC 10/08 Q1017 NOSIG=
201712302030 METAR VIDP 302030Z 00000KT 0600 R28/2000 R29/1400 MIFG NSC 10/08 Q1017 NOSIG=
201712302100 METAR VIDP 302100Z 00000KT 0600 R28/2000 R29/1200 MIFG NSC 10/08 Q1017 NOSIG=
201712302130 METAR VIDP 302130Z 00000KT 0600 R28/2000 R29/1400 MIFG NSC 10/08 Q1017 NOSIG=
201712302200 METAR VIDP 302200Z 00000KT 0500 R28/1800 R29/1800 FG NSC 10/08 Q1017 NOSIG=
201712302205 METAR VIDP NIL=
201712302230 METAR VIDP 302230Z 00000KT 0400 R28/1800 R29/1300 FG NSC 10/08 Q1017 BECMG 0350 FG=
201712302300 METAR VIDP 302300Z 00000KT 0300 R28/1800 R29/1000 FG NSC 10/08 Q1016 NOSIG=
201712302305 METAR VIDP NIL=
201712302330 METAR VIDP 302330Z 00000KT 0300 R28/1500 R29/1000 FG NSC 10/09 Q1016 NOSIG=
