##########################################################
# Query made at 12/13/2025 04:32:06 UTC
# Time interval: from 12/10/2018 00:00  to 12/30/2018 23:59  UTC
##########################################################

##########################################################
# VIDP, New Delhi / Palam (India)
# WMO index: 42181. WIGOS ID: 0-20000-0-42181
# Latitude 28-34-00N. Longitude 077-07-00E. Altitude 225 m.
##########################################################

###################################
#  METAR/SPECI from VIDP
###################################
201812100000 METAR VIDP 100000Z 00000KT 1000 R28/P2000 R29/P2000 BR NSC 11/08 Q1014 NOSIG=
201812100030 METAR VIDP 100030Z 00000KT 1000 R28/P2000 R29/P2000 BR NSC 11/08 Q1014 NOSIG=
201812100100 METAR VIDP 100100Z 00000KT 1000 R28/P2000 R29/P2000 BR NSC 11/08 Q1014 NOSIG=
201812100130 METAR VIDP 100130Z 08005KT 1000 R28/P2000 R29/P2000 BR NSC 10/08 Q1014 BECMG 0800 MIFG=
201812100200 METAR VIDP 100200Z 11003KT 0800 R28/1800 R29/1900 MIFG NSC 11/08 Q1015 NOSIG=
201812100230 METAR VIDP 100230Z 09004KT 0800 R28/1800 R29/1800 MIFG NSC 11/08 Q1015 NOSIG=
201812100300 METAR VIDP 100300Z 09004KT 1000 R28/1500 R29/2000 BR NSC 14/08 Q1015 NOSIG=
201812100330 METAR VIDP 100330Z 11003KT 1100 R28/1700 R29/2000 FU NSC 16/10 Q1016 BECMG 1500 FU=
201812100400 METAR VIDP 100400Z 11004KT 1200 R28/1500 R29/2000 FU NSC 17/10 Q1016 BECMG 1500 FU=
201812100405 METAR VIDP NIL=
201812100430 METAR VIDP 100430Z 13004KT 1500 R28/1900 R29/P2000 FU NSC 18/11 Q1016 NOSIG=
201812100500 METAR VIDP 100500Z 14006KT 1500 R28/1800 R29/P2000 HZ NSC 19/11 Q1016 NOSIG=
201812100530 METAR VIDP 100530Z 13006KT 1500 R28/2000 R29/2000 FU NSC 21/11 Q1016 NOSIG=
201812100600 METAR VIDP 100600Z 13006KT 1700 R28/2000 R29/2000 HZ NSC 21/11 Q1015 NOSIG=
201812100630 METAR VIDP 100630Z 15006KT 2000 R28/P2000 R29/P2000 HZ NSC 21/11 Q1015 NOSIG=
201812100700 METAR COR VIDP 100700Z 15006KT 2200 HZ NSC 22/10 Q1015 NOSIG=
201812100705 METAR VIDP NIL=
201812100730 METAR VIDP 100730Z 15005KT 2200 HZ NSC 22/10 Q1014 NOSIG=
201812100800 METAR VIDP 100800Z 14006KT 2500 HZ NSC 23/10 Q1014 NOSIG=
201812100805 METAR VIDP NIL=
201812100830 METAR VIDP 100830Z 13005KT 2500 HZ NSC 23/10 Q1013 NOSIG=
201812100900 METAR VIDP 100900Z 14005KT 2500 HZ NSC 23/10 Q1013 NOSIG=
201812100930 METAR VIDP 100930Z 13004KT 2500 HZ NSC 23/10 Q1013 NOSIG=
201812101000 METAR VIDP 101000Z 10005KT 2500 HZ NSC 23/10 Q1013 NOSIG=
201812101030 METAR VIDP 101030Z 11006KT 2200 FU FEW100 22/11 Q1013 NOSIG=
201812101100 METAR VIDP 101100Z 10006KT 1800 R28/P2000 R29/P2000 FU FEW100 22/11 Q1013 NOSIG=
201812101130 METAR VIDP 101130Z 09005KT 1800 R28/P2000 R29/P2000 FU FEW100 21/11 Q1013 NOSIG=
201812101200 METAR VIDP 101200Z 09004KT 2000 FU FEW100 20/11 Q1013 NOSIG=
201812101230 METAR VIDP 101230Z 10004KT 2200 FU FEW100 20/11 Q1013 NOSIG=
201812101300 METAR VIDP 101300Z 10004KT 2500 FU FEW100 19/11 Q1014 NOSIG=
201812101330 METAR VIDP 101330Z 11004KT 2500 FU FEW100 19/11 Q1014 NOSIG=
201812101400 METAR VIDP 101400Z 10004KT 2500 FU FEW100 18/11 Q1014 NOSIG=
201812101430 METAR VIDP 101430Z 09003KT 2500 FU FEW100 17/11 Q1015 NOSIG=
201812101500 METAR VIDP 101500Z 09003KT 2500 FU FEW100 17/12 Q1015 NOSIG=
201812101530 METAR VIDP 101530Z 09003KT 2500 BR FEW100 16/12 Q1015 NOSIG=
201812101600 METAR VIDP 101600Z 08003KT 2200 BR FEW100 16/12 Q1015 NOSIG=
201812101630 METAR VIDP 101630Z 10004KT 2200 BR FEW100 16/12 Q1015 NOSIG=
201812101700 METAR VIDP 101700Z 09004KT 2200 BR FEW100 16/12 Q1015 NOSIG=
201812101730 METAR VIDP 101730Z 10004KT 2200 BR FEW100 16/12 Q1015 NOSIG=
201812101800 METAR VIDP 101800Z 09003KT 2200 BR FEW100 15/12 Q1015 NOSIG=
201812101830 METAR VIDP 101830Z 00000KT 2000 BR FEW100 15/11 Q1015 NOSIG=
201812101900 METAR VIDP 101900Z 00000KT 1600 R28/P2000 R29/P2000 BR FEW100 14/11 Q1015 BECMG 1500 BR=
201812101930 METAR VIDP 101930Z 00000KT 1500 R28/P2000 R29/P2000 BR FEW100 13/11 Q1015 NOSIG=
201812102000 METAR VIDP 102000Z 00000KT 1500 R28/P2000 R29/P2000 BR FEW100 13/11 Q1015 NOSIG=
201812102030 METAR VIDP 102030Z 00000KT 1200 R28/P2000 R29/P2000 BR FEW100 13/11 Q1015 NOSIG=
201812102100 METAR VIDP 102100Z 00000KT 1000 R28/P2000 R29/P2000 BR FEW100 13/11 Q1015 NOSIG=
201812102130 METAR VIDP 102130Z 00000KT 1000 R28/P2000 R29/P2000 BR FEW100 13/11 Q1015 NOSIG=
201812102200 METAR VIDP 102200Z 08004KT 1000 R28/P2000 R29/P2000 BR FEW100 12/10 Q1014 NOSIG=
201812102230 METAR VIDP 102230Z 09003KT 1000 R28/P2000 R29/P2000 BR FEW100 12/10 Q1014 NOSIG=
201812102300 METAR VIDP 102300Z 00000KT 1000 R28/P2000 R29/P2000 BR FEW100 12/10 Q1014 NOSIG=
201812102330 METAR VIDP 102330Z 00000KT 1000 R28/P2000 R29/P2000 BR FEW100 13/11 Q1014 NOSIG=
201812110000 METAR VIDP 110000Z 00000KT 0900 R28/P2000 R29/P2000 MIFG FEW100 13/10 Q1014 BECMG 0800 MIFG=
201812110030 METAR VIDP 110030Z 10004KT 0800 R28/P2000 R29/P2000 MIFG FEW100 12/10 Q1015 NOSIG=
201812110100 METAR VIDP 110100Z 10005KT 0800 R28/P2000 R29/P2000 MIFG FEW100 12/10 Q1015 NOSIG=
201812110130 METAR VIDP 110130Z 00000KT 0800 R28/1700 R29/P2000 MIFG FEW100 12/11 Q1015 NOSIG=
201812110200 METAR VIDP 110200Z 09004KT 0800 R28/1300 R29/1200 MIFG FEW100 13/10 Q1016 NOSIG=
201812110230 METAR VIDP 110230Z 09004KT 0800 R28/1200 R29/1200 MIFG FEW100 14/11 Q1016 NOSIG=
201812110300 METAR VIDP 110300Z 09004KT 0800 R28/1200 R29/1200 MIFG FEW100 14/12 Q1017 NOSIG=
201812110330 METAR VIDP 110330Z 10004KT 0800 R28/1100 R29/1300 MIFG NSC 15/12 Q1017 NOSIG=
201812110400 METAR VIDP 110400Z 09004KT 0900 R28/1200 R29/1300 MIFG NSC 16/12 Q1018 NOSIG=
201812110430 METAR VIDP 110430Z 09004KT 1000 R28/1300 R29/1700 FU NSC 17/12 Q1018 NOSIG=
201812110500 METAR VIDP 110500Z 13003KT 1200 R28/1500 R29/1900 FU NSC 18/11 Q1018 NOSIG=
201812110530 METAR VIDP 110530Z 10003KT 1200 R28/1500 R29/1800 FU NSC 19/11 Q1018 NOSIG=
201812110600 METAR VIDP 110600Z 11003KT 1300 R28/1700 R29/P2000 FU SCT100 19/11 Q1018 BECMG 1500 FU=
201812110630 METAR VIDP 110630Z 11003KT 1500 R28/1800 R29/P2000 FU SCT100 19/11 Q1017 NOSIG=
201812110700 METAR VIDP 110700Z 08004KT 1500 R28/1600 R29/P2000 FU SCT100 20/11 Q1017 NOSIG=
201812110730 METAR VIDP 110730Z 07004KT 1500 R28/1900 R29/P2000 FU SCT100 21/11 Q1016 NOSIG=
201812110800 METAR VIDP 110800Z 07004KT 1600 R28/P2000 R29/P2000 FU SCT100 21/10 Q1016 NOSIG=
201812110830 METAR VIDP 110830Z 05006KT 1600 R28/2000 R29/2000 FU SCT100 22/14 Q1015 NOSIG=
201812110900 METAR VIDP 110900Z 03004KT 1800 R28/2000 R29/2000 FU SCT100 22/11 Q1015 NOSIG=
201812110930 METAR VIDP 110930Z 10004KT 1800 R28/2000 R29/2000 FU SCT100 21/11 Q1015 NOSIG=
201812111000 METAR VIDP 111000Z 09005KT 1600 R28/P2000 R29/P2000 FU SCT100 21/11 Q1014 NOSIG=
201812111030 METAR VIDP 111030Z 12005KT 1600 R28/P2000 R29/P2000 FU SCT100 21/11 Q1014 NOSIG=
201812111100 METAR VIDP 111100Z 11004KT 1600 R28/2000 R29/2000 FU SCT100 21/11 Q1014 NOSIG=
201812111105 METAR VIDP NIL=
201812111130 METAR VIDP 111130Z 13004KT 1600 R28/2000 R29/2000 FU SCT100 20/11 Q1014 NOSIG=
201812111200 METAR VIDP 111200Z 14005KT 1600 R28/2000 R29/2000 FU SCT100 20/12 Q1014 NOSIG=
201812111230 METAR VIDP 111230Z 13004KT 1600 R28/2000 R29/2000 FU SCT100 19/11 Q1014 NOSIG=
201812111300 METAR VIDP 111300Z 13003KT 1600 R28/2000 R29/2000 FU SCT100 19/11 Q1015 NOSIG=
201812111330 METAR VIDP 111330Z 14003KT 1600 R28/2000 R29/2000 FU SCT100 19/11 Q1015 NOSIG=
201812111400 METAR VIDP 111400Z 15003KT 1600 R28/2000 R29/2000 FU SCT100 18/11 Q1015 NOSIG=
201812111430 METAR VIDP 111430Z 16003KT 1600 R28/2000 R29/2000 FU SCT100 18/11 Q1015 BECMG 1500 FU=
201812111500 METAR VIDP 111500Z 14003KT 1500 R28/2000 R29/2000 FU SCT100 18/11 Q1016 NOSIG=
201812111530 METAR VIDP 111530Z 08003KT 1500 R28/2000 R29/2000 FU SCT100 17/11 Q1016 NOSIG=
201812111600 METAR VIDP 111600Z 00000KT 1500 R28/2000 R29/2000 FU SCT100 16/11 Q1016 NOSIG=
201812111630 METAR VIDP 111630Z 00000KT 1500 R28/2000 R29/2000 FU SCT100 16/11 Q1016 NOSIG=
201812111700 METAR VIDP 111700Z 08003KT 1500 R28/P2000 R29/P2000 FU SCT100 16/11 Q1016 NOSIG=
201812111730 METAR VIDP 111730Z 08004KT 1200 R28/P2000 R29/P2000 FU FEW040 SCT100 16/12 Q1016 NOSIG=
201812111800 METAR VIDP 111800Z 09004KT 1200 R28/P2000 R29/P2000 FU FEW040 SCT100 16/12 Q1015 NOSIG=
201812111830 METAR VIDP 111830Z 09004KT 1200 R28/P2000 R29/P2000 FU FEW040 SCT100 16/12 Q1015 NOSIG=
201812111900 METAR VIDP 111900Z 09003KT 1100 R28/P2000 R29/P2000 FU FEW040 SCT100 15/12 Q1015 NOSIG=
201812111930 METAR COR VIDP 111930Z 00000KT 1000 R28/P2000 R29/P2000 BR FEW040 SCT100 15/13 Q1015 NOSIG=
201812112000 METAR VIDP 112000Z 00000KT 1000 R28/P2000 R29/P2000 BR FEW040 SCT100 15/13 Q1014 BECMG 0800 MIFG=
201812112030 METAR VIDP 112030Z 10005KT 1000 R28/P2000 R29/P2000 BR FEW040 SCT100 15/13 Q1014 BECMG 0800 MIFG=
201812112100 METAR VIDP 112100Z 12005KT 0800 R28/P2000 R29/P2000 MIFG FEW040 SCT100 15/13 Q1014 NOSIG=
201812112130 METAR VIDP 112130Z 09006KT 0800 R28/P2000 R29/P2000 MIFG FEW040 SCT100 15/13 Q1014 NOSIG=
201812112200 METAR VIDP 112200Z 09006KT 0800 R28/P2000 R29/P2000 MIFG FEW040 SCT100 15/13 Q1014 NOSIG=
201812112230 METAR VIDP 112230Z 10006KT 0800 R28/P2000 R29/P2000 MIFG FEW040 SCT100 15/13 Q1014 NOSIG=
201812112300 METAR VIDP 112300Z 12003KT 0800 R28/P2000 R29/P2000 MIFG FEW040 SCT100 15/13 Q1015 NOSIG=
201812112305 METAR VIDP NIL=
201812112330 METAR VIDP 112330Z 28003KT 1000 R28/P2000 R29/P2000 BR FEW040 SCT100 15/12 Q1015 NOSIG=
201812120000 METAR VIDP 120000Z 13003KT 1000 R28/P2000 R29/P2000 BR FEW040 SCT100 15/13 Q1015 NOSIG=
201812120005 METAR VIDP NIL=
201812120030 METAR VIDP 120030Z 12003KT 1000 R28/P2000 R29/P2000 BR FEW040 SCT100 14/12 Q1016 NOSIG=
201812120100 METAR VIDP 120100Z 09003KT 1000 R28/P2000 R29/P2000 BR FEW040 SCT100 14/12 Q1016 NOSIG=
201812120130 METAR VIDP 120130Z 10003KT 1000 R28/P2000 R29/P2000 BR FEW040 SCT100 14/12 Q1016 NOSIG=
201812120200 METAR VIDP 120200Z 09003KT 0800 R28/1700 R29/2000 MIFG FEW040 SCT100 14/12 Q1017 NOSIG=
201812120230 METAR VIDP 120230Z 08003KT 0700 R28/1500 R29/1700 MIFG FEW040 SCT100 14/12 Q1018 NOSIG=
201812120300 METAR VIDP 120300Z 09004KT 0700 R28/1200 R29/1500 MIFG FEW040 SCT100 14/13 Q1018 NOSIG=
201812120330 METAR VIDP 120330Z 11004KT 0700 R28/1200 R29/1600 MIFG FEW040 SCT100 15/13 Q1018 NOSIG=
201812120400 METAR VIDP 120400Z 11005KT 1000 R28/1400 R29/1700 FU FEW040 SCT100 16/13 Q1018 NOSIG=
201812120430 METAR VIDP 120430Z 11007KT 1200 R28/1600 R29/2000 FU SCT040 BKN100 17/13 Q1019 NOSIG=
201812120500 METAR VIDP 120500Z 11007KT 1300 R28/1800 R29/2000 FU SCT040 BKN100 18/12 Q1019 BECMG 1500 FU=
201812120530 METAR VIDP 120530Z 12007KT 1500 R28/P2000 R29/P2000 FU SCT040 BKN100 18/12 Q1019 NOSIG=
201812120600 METAR VIDP 120600Z 12006KT 1500 R28/P2000 R29/P2000 FU FEW040 SCT100 19/12 Q1018 NOSIG=
201812120630 METAR VIDP 120630Z 11006KT 1600 R28/P2000 R29/P2000 FU FEW040 SCT100 20/12 Q1018 NOSIG=
201812120700 METAR VIDP 120700Z 13006KT 2200 HZ FEW040 SCT100 20/11 Q1017 NOSIG=
201812120730 METAR VIDP 120730Z 13006KT 2500 HZ FEW040 SCT100 20/11 Q1017 BECMG 3000 HZ=
201812120800 METAR VIDP 120800Z 13006KT 3000 HZ FEW040 SCT100 20/11 Q1017 NOSIG=
201812120830 METAR VIDP 120830Z 13008KT 4000 HZ FEW040 SCT100 20/10 Q1016 NOSIG=
201812120900 METAR VIDP 120900Z 12009KT 4000 HZ FEW040 SCT100 21/10 Q1016 NOSIG=
201812120930 METAR VIDP 120930Z 12007KT 4000 HZ SCT035 BKN100 21/09 Q1016 NOSIG=
201812121000 METAR VIDP 121000Z 13008KT 4000 HZ SCT035 BKN100 21/09 Q1016 NOSIG=
201812121030 METAR VIDP 121030Z 14007KT 4000 HZ SCT035 BKN100 20/09 Q1016 NOSIG=
201812121100 METAR VIDP 121100Z 14006KT 4000 HZ SCT035 SCT100 20/09 Q1016 NOSIG=
201812121105 METAR VIDP NIL=
201812121130 METAR VIDP 121130Z 11005KT 4000 HZ SCT035 SCT100 19/09 Q1016 NOSIG=
201812121200 METAR VIDP 121200Z 11003KT 3500 HZ SCT035 BKN100 19/10 Q1016 NOSIG=
201812121230 METAR VIDP 121230Z 11004KT 3500 HZ SCT035 BKN100 19/10 Q1016 NOSIG=
201812121300 METAR VIDP 121300Z 11003KT 3500 HZ SCT035 BKN100 18/10 Q1017 NOSIG=
201812121330 METAR VIDP 121330Z 10004KT 3200 HZ SCT035 BKN100 17/10 Q1017 BECMG 3000 HZ=
201812121400 METAR VIDP 121400Z 09004KT 3000 HZ SCT035 BKN100 17/11 Q1017 NOSIG=
201812121430 METAR VIDP 121430Z 00000KT 3000 HZ SCT035 BKN100 17/11 Q1018 NOSIG=
201812121500 METAR VIDP 121500Z 00000KT 2500 HZ SCT035 FEW040CB BKN100 17/12 Q1018 NOSIG=
201812121530 METAR VIDP 121530Z 00000KT 2400 BR SCT035 FEW040CB BKN100 16/12 Q1018 NOSIG=
201812121600 METAR VIDP 121600Z 28005KT 2400 BR SCT035 FEW040CB BKN100 16/12 Q1019 NOSIG=
201812121630 METAR VIDP 121630Z 30003KT 2400 BR SCT035 FEW040CB BKN100 16/12 Q1019 NOSIG=
201812121700 METAR VIDP 121700Z 17003KT 2500 BR SCT030 BKN100 16/12 Q1018 NOSIG=
201812121730 METAR VIDP 121730Z 00000KT 2500 BR SCT030 BKN100 16/13 Q1018 NOSIG=
201812121800 METAR VIDP 121800Z 29004KT 2500 BR SCT030 BKN100 16/13 Q1018 NOSIG=
201812121830 METAR VIDP 121830Z 34004KT 2000 BR FEW035 SCT100 15/13 Q1019 NOSIG=
201812121900 METAR VIDP 121900Z 01004KT 2000 BR FEW035 SCT100 15/13 Q1019 NOSIG=
201812121930 METAR VIDP 121930Z 36005KT 2000 BR FEW035 SCT100 15/13 Q1018 NOSIG=
201812122000 METAR VIDP 122000Z 35006KT 2000 BR FEW040 SCT100 14/12 Q1018 NOSIG=
201812122030 METAR VIDP 122030Z 01005KT 2200 BR FEW040 SCT100 14/12 Q1019 NOSIG=
201812122100 METAR VIDP 122100Z 02005KT 2200 BR FEW100 14/12 Q1019 NOSIG=
201812122130 METAR VIDP 122130Z 03005KT 2200 BR FEW100 14/12 Q1019 NOSIG=
201812122200 METAR VIDP 122200Z 04003KT 2200 BR FEW100 13/10 Q1019 NOSIG=
201812122230 METAR VIDP 122230Z 02005KT 2200 BR FEW100 13/10 Q1018 NOSIG=
201812122300 METAR VIDP 122300Z 03005KT 2200 BR FEW100 13/10 Q1018 NOSIG=
201812122330 METAR VIDP 122330Z 05003KT 2200 BR FEW100 13/10 Q1018 NOSIG=
201812130000 METAR VIDP 130000Z 09003KT 2200 BR FEW040 SCT100 13/10 Q1019 NOSIG=
201812130030 METAR VIDP 130030Z 10003KT 2200 BR SCT040 BKN100 13/10 Q1019 NOSIG=
201812130100 METAR VIDP 130100Z 00000KT 2200 BR SCT035 FEW040CB BKN100 13/10 Q1019 NOSIG=
201812130130 METAR VIDP 130130Z 29004KT 2200 BR SCT035 FEW040CB BKN100 12/10 Q1020 NOSIG=
201812130200 METAR VIDP 130200Z 29004KT 2200 BR FEW040 SCT100 12/10 Q1020 NOSIG=
201812130230 METAR VIDP 130230Z 28005KT 1800 R28/P2000 R29/P2000 BR FEW040 SCT100 13/10 Q1021 NOSIG=
201812130300 METAR VIDP 130300Z 25005KT 1200 R28/P2000 R29/1900 BR FEW040 SCT100 13/11 Q1021 NOSIG=
201812130330 METAR VIDP 130330Z 27006KT 1000 R28/1700 R29/1500 BR FEW040 SCT100 13/11 Q1021 NOSIG=
201812130400 METAR VIDP 130400Z 25005KT 1000 R28/1400 R29/1200 BR FEW040 SCT100 14/11 Q1022 NOSIG=
201812130430 METAR VIDP 130430Z 26004KT 1200 R28/1700 R29/P2000 HZ FEW040 SCT100 16/12 Q1022 BECMG 1500 HZ=
201812130500 METAR VIDP 130500Z 28003KT 1500 R28/P2000 R29/P2000 HZ FEW040 SCT100 16/12 Q1022 NOSIG=
201812130530 METAR VIDP 130530Z 29005KT 2000 HZ FEW040 SCT100 17/11 Q1022 NOSIG=
201812130600 METAR VIDP 130600Z 30005KT 2200 HZ FEW040 SCT100 18/11 Q1022 NOSIG=
201812130630 METAR VIDP 130630Z 31005KT 2300 HZ SCT100 18/11 Q1022 NOSIG=
201812130700 METAR VIDP 130700Z 32007KT 2500 HZ SCT100 19/10 Q1021 BECMG 3000 HZ=
201812130705 METAR VIDP NIL=
201812130730 METAR VIDP 130730Z 32007KT 3000 HZ FEW100 20/09 Q1020 NOSIG=
201812130800 METAR VIDP 130800Z 33006KT 3500 HZ FEW100 20/10 Q1020 NOSIG=
201812130830 METAR VIDP 130830Z 31007KT 3500 HZ FEW100 20/10 Q1020 NOSIG=
201812130900 METAR VIDP 130900Z 32007KT 3500 HZ FEW100 20/10 Q1019 NOSIG=
201812130930 METAR VIDP 130930Z 31008KT 3500 HZ FEW100 20/10 Q1019 NOSIG=
201812131000 METAR VIDP 131000Z 32007KT 3500 HZ FEW100 20/10 Q1019 NOSIG=
201812131030 METAR VIDP 131030Z 33007KT 3500 HZ FEW100 20/10 Q1019 NOSIG=
201812131100 METAR VIDP 131100Z 32006KT 3500 HZ NSC 19/10 Q1019 NOSIG=
201812131130 METAR VIDP 131130Z 31006KT 3200 HZ NSC 19/10 Q1019 BECMG 3000 HZ=
201812131200 METAR VIDP 131200Z 31005KT 3000 HZ NSC 18/10 Q1019 NOSIG=
201812131230 METAR VIDP 131230Z 32005KT 3000 HZ NSC 18/10 Q1019 NOSIG=
201812131300 METAR VIDP 131300Z 28003KT 2800 HZ NSC 17/10 Q1020 NOSIG=
201812131330 METAR VIDP 131330Z 29004KT 2800 HZ NSC 16/10 Q1020 NOSIG=
201812131400 METAR VIDP 131400Z 26003KT 2800 HZ NSC 16/11 Q1020 NOSIG=
201812131430 METAR VIDP 131430Z 27004KT 2500 BR NSC 15/11 Q1021 NOSIG=
201812131500 METAR VIDP 131500Z 30005KT 2200 BR NSC 15/11 Q1021 NOSIG=
201812131530 METAR VIDP 131530Z 30005KT 2200 BR NSC 15/11 Q1021 NOSIG=
201812131600 METAR VIDP 131600Z 30005KT 2200 BR NSC 14/11 Q1021 NOSIG=
201812131630 METAR VIDP 131630Z 31005KT 2200 BR NSC 14/11 Q1021 NOSIG=
201812131700 METAR VIDP 131700Z 30005KT 2200 BR NSC 14/11 Q1021 NOSIG=
201812131730 METAR VIDP 131730Z 31004KT 2200 BR NSC 14/11 Q1021 NOSIG=
201812131800 METAR VIDP 131800Z 31004KT 2200 BR NSC 14/11 Q1021 NOSIG=
201812131830 METAR VIDP 131830Z 29004KT 2200 BR NSC 14/11 Q1021 NOSIG=
201812131900 METAR VIDP 131900Z 29004KT 1800 R28/P2000 R29/P2000 BR NSC 13/11 Q1021 BECMG 1500 BR=
201812131930 METAR VIDP 131930Z 32003KT 1500 R28/P2000 R29/P2000 BR NSC 13/11 Q1021 NOSIG=
201812132000 METAR VIDP 132000Z 32004KT 1200 R28/P2000 R29/P2000 BR NSC 13/11 Q1021 BECMG 0800 MIFG=
201812132030 METAR VIDP 132030Z 29004KT 1200 R28/P2000 R29/P2000 BR NSC 13/11 Q1021 BECMG 0800 MIFG=
201812132100 METAR VIDP 132100Z 26004KT 1000 R28/P2000 R29/P2000 BR NSC 12/11 Q1021 BECMG 0800 MIFG=
201812132130 METAR VIDP 132130Z 23003KT 1000 R28/P2000 R29/P2000 BR NSC 12/10 Q1021 BECMG 0800 MIFG=
201812132200 METAR VIDP 132200Z 26004KT 0800 R28/P2000 R29/P2000 MIFG NSC 11/10 Q1021 NOSIG=
201812132230 METAR VIDP 132230Z 25004KT 0650 R28/P2000 R29/P2000 MIFG NSC 11/10 Q1021 BECMG 0600 MIFG=
201812132300 METAR VIDP 132300Z 26005KT 0500 R28/2000 R29/1200 FG NSC 11/10 Q1021 BECMG 0350 FG=
201812132330 METAR VIDP 132330Z 26003KT 0350 R28/2000 R29/1000 FG NSC 10/10 Q1021 NOSIG=
201812140000 METAR VIDP 140000Z 25003KT 0350 R28/2000 R29/1000 FG NSC 10/10 Q1021 NOSIG=
201812140030 METAR VIDP 140030Z 25004KT 0300 R28/2000 R29/1200 FG NSC 10/10 Q1021 NOSIG=
201812140100 METAR VIDP 140100Z 24004KT 0200 R28/2000 R29/0200 FG VV/// 09/09 Q1022 BECMG 0150 FG=
201812140105 METAR VIDP NIL=
201812140130 METAR VIDP 140130Z 24005KT 0050 R28/1000 R29/0200 FG VV/// 09/09 Q1022 NOSIG=
201812140200 METAR VIDP 140200Z 26005KT 0000 R28/0200 R29/0150 FG VV/// 09/09 Q1022 NOSIG=
201812140205 METAR VIDP NIL=
201812140230 METAR VIDP 140230Z 23004KT 0050 R28/0300 R29/0150 FG VV/// 09/09 Q1023 NOSIG=
201812140300 METAR COR VIDP 140300Z 23006KT 0100 R28/0350 R29/0150 FG VV/// 10/10 Q1023 BECMG 0150 FG=
201812140305 METAR VIDP NIL=
201812140330 METAR VIDP 140330Z 25003KT 0100 R28/0350 R29/0200 FG VV/// 10/10 Q1024 BECMG 0150 FG=
201812140400 METAR VIDP 140400Z 25004KT 0150 R28/0575 R29/0525 FG NSC 10/10 Q1024 NOSIG=
201812140405 METAR VIDP NIL=
201812140430 METAR VIDP 140430Z 23003KT 0300 R28/1000 R29/0575 FG NSC 11/11 Q1024 BECMG 0350 FG=
201812140500 METAR VIDP 140500Z 23003KT 0450 R28/1700 R29/1700 FG NSC 12/11 Q1024 BECMG 0600 MIFG=
201812140505 METAR VIDP NIL=
201812140530 METAR VIDP 140530Z 25005KT 0700 R28/1600 R29/2000 MIFG NSC 13/11 Q1024 BECMG 0800 MIFG=
201812140600 METAR VIDP 140600Z 27004KT 1000 R28/1800 R29/P2000 MIFG NSC 15/12 Q1024 NOSIG=
201812140630 METAR VIDP 140630Z 29005KT 1300 R28/P2000 R29/P2000 BR NSC 16/12 Q1023 BECMG 1500 HZ=
201812140700 METAR VIDP 140700Z 29006KT 1800 R28/P2000 R29/P2000 HZ NSC 18/12 Q1023 NOSIG=
201812140730 METAR VIDP 140730Z 29008KT 2500 HZ NSC 19/12 Q1022 NOSIG=
201812140800 METAR VIDP 140800Z 29007KT 2500 HZ NSC 19/11 Q1022 NOSIG=
201812140830 METAR VIDP 140830Z 27006KT 2800 HZ NSC 20/11 Q1022 NOSIG=
201812140900 METAR VIDP 140900Z 27008KT 2800 HZ FEW100 20/11 Q1021 BECMG 3000 HZ=
201812140930 METAR VIDP 140930Z 28007KT 3000 HZ FEW100 21/10 Q1021 NOSIG=
201812141000 METAR VIDP 141000Z 27008KT 3500 HZ FEW100 21/10 Q1021 NOSIG=
201812141030 METAR VIDP 141030Z 28008KT 3500 HZ FEW100 20/10 Q1021 NOSIG=
201812141100 METAR VIDP 141100Z 29008KT 3500 HZ FEW100 20/10 Q1021 NOSIG=
201812141130 METAR VIDP 141130Z 28007KT 3500 HZ FEW100 19/10 Q1021 NOSIG=
201812141200 METAR VIDP 141200Z 27007KT 3500 HZ NSC 18/10 Q1021 NOSIG=
201812141230 METAR VIDP 141230Z 28007KT 3500 HZ NSC 17/09 Q1021 NOSIG=
201812141300 METAR VIDP 141300Z 27006KT 3500 HZ NSC 16/09 Q1022 NOSIG=
201812141330 METAR VIDP 141330Z 27005KT 3500 HZ NSC 16/09 Q1022 NOSIG=
201812141400 METAR VIDP 141400Z 27006KT 3500 HZ NSC 16/10 Q1022 NOSIG=
201812141405 METAR VIDP NIL=
201812141430 METAR VIDP 141430Z 26005KT 3500 HZ NSC 15/10 Q1023 NOSIG=
201812141500 METAR VIDP 141500Z 27006KT 3500 HZ NSC 14/10 Q1023 NOSIG=
201812141530 METAR VIDP 141530Z 27005KT 3500 BR NSC 14/10 Q1023 NOSIG=
201812141600 METAR VIDP 141600Z 28004KT 3500 BR NSC 14/10 Q1023 NOSIG=
201812141630 METAR VIDP 141630Z 27004KT 3500 BR NSC 14/10 Q1023 NOSIG=
201812141700 METAR VIDP 141700Z 26004KT 3200 BR NSC 14/10 Q1023 BECMG 3000 BR=
201812141730 METAR VIDP 141730Z 26003KT 3000 BR NSC 13/10 Q1023 NOSIG=
201812141800 METAR VIDP 141800Z 25003KT 3000 BR NSC 13/10 Q1023 NOSIG=
201812141830 METAR VIDP 141830Z 23003KT 3000 BR NSC 13/10 Q1023 NOSIG=
201812141900 METAR VIDP 141900Z 24004KT 2500 BR NSC 12/10 Q1022 NOSIG=
201812141930 METAR VIDP 141930Z 00000KT 2200 BR NSC 12/10 Q1022 NOSIG=
201812142000 METAR VIDP 142000Z 22004KT 1600 R28/P2000 R29/P2000 BR NSC 11/10 Q1022 BECMG 1500 BR=
201812142030 METAR VIDP 142030Z 24004KT 1500 R28/P2000 R29/P2000 BR NSC 11/09 Q1022 NOSIG=
201812142100 METAR VIDP 142100Z 25003KT 1200 R28/P2000 R29/P2000 BR NSC 10/09 Q1022 NOSIG=
201812142130 METAR VIDP 142130Z 25003KT 1000 R28/P2000 R29/P2000 BR NSC 10/09 Q1021 NOSIG=
201812142200 METAR VIDP 142200Z 22004KT 1000 R28/P2000 R29/P2000 BR NSC 10/09 Q1021 NOSIG=
201812142205 METAR VIDP NIL=
201812142230 METAR VIDP 142230Z 22004KT 1000 R28/P2000 R29/P2000 BR NSC 10/09 Q1021 NOSIG=
201812142300 METAR VIDP 142300Z 24005KT 1000 R28/P2000 R29/P2000 BR NSC 10/09 Q1021 BECMG 0800 MIFG=
201812142330 METAR VIDP 142330Z 26003KT 0900 R28/P2000 R29/P2000 MIFG NSC 09/09 Q1021 BECMG 0800 MIFG=
201812150000 METAR VIDP 150000Z 24004KT 0800 R28/P2000 R29/1500 MIFG NSC 09/09 Q1021 NOSIG=
201812150030 METAR VIDP 150030Z 25004KT 0700 R28/2000 R29/1500 MIFG NSC 09/09 Q1021 NOSIG=
201812150100 METAR VIDP 150100Z 24004KT 0700 R28/2000 R29/1800 MIFG NSC 09/08 Q1021 BECMG 0600 MIFG=
201812150130 METAR VIDP 150130Z 24005KT 0600 R28/2000 R29/1500 MIFG NSC 09/08 Q1021 NOSIG=
201812150200 METAR VIDP 150200Z 24005KT 0600 R28/1300 R29/1100 MIFG NSC 09/08 Q1022 NOSIG=
201812150230 METAR VIDP 150230Z 23004KT 0700 R28/1300 R29/1300 MIFG NSC 09/09 Q1022 BECMG 0800 MIFG=
201812150300 METAR VIDP 150300Z 24004KT 0800 R28/1400 R29/1400 MIFG NSC 09/09 Q1023 NOSIG=
201812150330 METAR VIDP 150330Z 27005KT 1000 R28/1600 R29/2000 BR NSC 11/10 Q1023 NOSIG=
201812150400 METAR VIDP 150400Z 27006KT 1000 R28/1700 R29/2000 BR NSC 11/09 Q1023 NOSIG=
201812150430 METAR VIDP 150430Z 27005KT 1000 R28/2000 R29/2000 BR NSC 13/10 Q1024 NOSIG=
201812150500 METAR VIDP 150500Z 27005KT 1200 R28/P2000 R29/P2000 BR NSC 14/10 Q1024 NOSIG=
201812150530 METAR VIDP 150530Z 27005KT 1300 R28/P2000 R29/P2000 BR NSC 15/11 Q1024 BECMG 1500 BR=
201812150600 METAR VIDP 150600Z 27006KT 1500 R28/P2000 R29/P2000 FU NSC 17/11 Q1023 NOSIG=
201812150630 METAR VIDP 150630Z 26007KT 1500 R28/P2000 R29/P2000 FU NSC 18/11 Q1023 NOSIG=
201812150700 METAR VIDP 150700Z 27008KT 1500 R28/P2000 R29/P2000 FU NSC 18/11 Q1022 NOSIG=
201812150730 METAR VIDP 150730Z 28008KT 1500 R28/P2000 R29/P2000 FU NSC 19/11 Q1021 NOSIG=
201812150800 METAR VIDP 150800Z 28008KT 1500 R28/P2000 R29/P2000 FU NSC 20/11 Q1021 NOSIG=
201812150830 METAR VIDP 150830Z 29008KT 1800 R28/P2000 R29/P2000 FU NSC 21/10 Q1021 NOSIG=
201812150900 METAR VIDP 150900Z 29008KT 2500 FU NSC 21/09 Q1020 NOSIG=
201812150930 METAR VIDP 150930Z 30010KT 2500 FU NSC 21/08 Q1020 NOSIG=
201812151000 METAR VIDP 151000Z 30008KT 2800 HZ NSC 22/08 Q1020 BECMG 3000 HZ=
201812151030 METAR VIDP 151030Z 30008KT 3500 HZ NSC 22/08 Q1020 NOSIG=
201812151100 METAR VIDP 151100Z 30007KT 3500 HZ NSC 21/08 Q1020 NOSIG=
201812151105 METAR VIDP NIL=
201812151130 METAR VIDP 151130Z 31006KT 3500 HZ NSC 20/08 Q1020 NOSIG=
201812151200 METAR VIDP 151200Z 29006KT 3500 HZ NSC 20/08 Q1021 NOSIG=
201812151230 METAR VIDP 151230Z 30005KT 3500 HZ NSC 19/08 Q1021 NOSIG=
201812151300 METAR VIDP 151300Z 30005KT 3200 HZ NSC 17/07 Q1021 NOSIG=
201812151330 METAR VIDP 151330Z 31005KT 3200 HZ NSC 16/07 Q1021 BECMG 3000 HZ=
201812151400 METAR VIDP 151400Z 31005KT 2800 HZ NSC 15/08 Q1022 NOSIG=
201812151430 METAR VIDP 151430Z 31005KT 2800 HZ NSC 15/08 Q1022 NOSIG=
201812151500 METAR VIDP 151500Z 32007KT 2800 HZ NSC 15/08 Q1022 NOSIG=
201812151530 METAR VIDP 151530Z 30005KT 2800 HZ NSC 15/09 Q1022 NOSIG=
201812151600 METAR VIDP 151600Z 34004KT 2500 HZ NSC 15/08 Q1022 NOSIG=
201812151630 METAR VIDP 151630Z 29004KT 2500 HZ NSC 14/08 Q1022 NOSIG=
201812151700 METAR VIDP 151700Z 29003KT 2500 HZ NSC 14/08 Q1022 NOSIG=
201812151730 METAR VIDP 151730Z 26004KT 2200 HZ NSC 14/08 Q1022 NOSIG=
201812151800 METAR VIDP 151800Z 25005KT 2200 HZ NSC 13/08 Q1022 NOSIG=
201812151830 METAR VIDP 151830Z 26005KT 2200 HZ NSC 13/08 Q1022 NOSIG=
201812151900 METAR VIDP 151900Z 27004KT 2200 HZ NSC 13/08 Q1022 NOSIG=
201812151930 METAR VIDP 151930Z 23005KT 2200 BR NSC 12/08 Q1022 NOSIG=
201812152000 METAR VIDP 152000Z 24005KT 2200 BR NSC 11/09 Q1022 NOSIG=
201812152030 METAR VIDP 152030Z 23003KT 2200 BR NSC 11/09 Q1022 NOSIG=
201812152100 METAR VIDP 152100Z 26004KT 1800 R28/P2000 R29/P2000 BR NSC 10/08 Q1022 BECMG 1500 BR=
201812152130 METAR VIDP 152130Z 25004KT 1500 R28/P2000 R29/P2000 BR NSC 10/08 Q1022 NOSIG=
201812152200 METAR VIDP 152200Z 27005KT 1200 R28/P2000 R29/P2000 BR NSC 10/07 Q1022 NOSIG=
201812152230 METAR VIDP 152230Z 26005KT 1200 R28/P2000 R29/P2000 BR NSC 09/07 Q1022 NOSIG=
201812152300 METAR VIDP 152300Z 25004KT 1200 R28/P2000 R29/P2000 BR NSC 09/07 Q1022 NOSIG=
201812152330 METAR VIDP 152330Z 26003KT 1200 R28/P2000 R29/P2000 BR NSC 09/07 Q1022 NOSIG=
201812160000 METAR VIDP 160000Z 27005KT 1200 R28/P2000 R29/P2000 BR NSC 09/07 Q1022 NOSIG=
201812160005 METAR VIDP NIL=
201812160030 METAR VIDP 160030Z 26003KT 1200 R28/P2000 R29/P2000 BR NSC 09/07 Q1022 NOSIG=
201812160100 METAR VIDP 160100Z 24005KT 1200 R28/P2000 R29/P2000 BR NSC 08/06 Q1022 NOSIG=
201812160130 METAR VIDP 160130Z 24004KT 1200 R28/P2000 R29/P2000 BR NSC 08/06 Q1022 NOSIG=
201812160200 METAR VIDP 160200Z 26004KT 1000 R28/P2000 R29/P2000 BR NSC 08/06 Q1023 NOSIG=
201812160230 METAR VIDP 160230Z 23004KT 1000 R28/P2000 R29/P2000 BR NSC 08/06 Q1023 NOSIG=
201812160300 METAR VIDP 160300Z 26004KT 1200 R28/1900 R29/2000 BR NSC 09/08 Q1023 NOSIG=
201812160330 METAR VIDP 160330Z 27005KT 1200 R28/P2000 R29/P2000 BR NSC 11/08 Q1024 NOSIG=
201812160400 METAR VIDP 160400Z 27005KT 1300 R28/P2000 R29/P2000 FU NSC 12/08 Q1024 BECMG 1500 FU=
201812160430 METAR VIDP 160430Z 26005KT 1500 R28/P2000 R29/P2000 FU NSC 14/09 Q1024 NOSIG=
201812160500 METAR VIDP 160500Z 23006KT 1500 R28/P2000 R29/P2000 FU NSC 15/08 Q1025 NOSIG=
201812160505 METAR VIDP NIL=
201812160530 METAR VIDP 160530Z 28006KT 1600 R28/P2000 R29/P2000 FU NSC 16/08 Q1025 NOSIG=
201812160600 METAR VIDP 160600Z 28004KT 1800 R28/P2000 R29/P2000 FU NSC 17/09 Q1024 NOSIG=
201812160630 METAR VIDP 160630Z 29004KT 1800 R28/P2000 R29/P2000 FU NSC 18/09 Q1023 NOSIG=
201812160700 METAR VIDP 160700Z 28005KT 1800 R28/P2000 R29/P2000 FU NSC 19/10 Q1023 NOSIG=
201812160730 METAR VIDP 160730Z 29004KT 2200 FU NSC 20/09 Q1022 NOSIG=
201812160800 METAR VIDP 160800Z 30005KT 2500 HZ NSC 21/09 Q1022 NOSIG=
201812160830 METAR VIDP 160830Z 29007KT 2800 HZ NSC 22/07 Q1021 BECMG 3000 HZ=
201812160900 METAR VIDP 160900Z 30006KT 3000 HZ NSC 22/08 Q1021 NOSIG=
201812160930 METAR VIDP 160930Z 31007KT 4000 HZ NSC 22/05 Q1020 NOSIG=
201812161000 METAR VIDP 161000Z 30006KT 4000 HZ NSC 22/06 Q1020 NOSIG=
201812161030 METAR VIDP 161030Z 32006KT 4000 HZ NSC 22/07 Q1020 NOSIG=
201812161100 METAR VIDP 161100Z 32005KT 4000 HZ NSC 21/08 Q1020 NOSIG=
201812161105 METAR VIDP NIL=
201812161130 METAR VIDP 161130Z 32004KT 4000 HZ NSC 21/08 Q1020 NOSIG=
201812161200 METAR VIDP 161200Z 31004KT 3500 HZ NSC 20/08 Q1020 NOSIG=
201812161230 METAR VIDP 161230Z 28004KT 3200 HZ NSC 19/08 Q1020 BECMG 3000 HZ=
201812161300 METAR VIDP 161300Z 26004KT 3000 HZ FEW100 17/09 Q1021 NOSIG=
201812161330 METAR VIDP 161330Z 27005KT 3000 HZ FEW100 16/08 Q1021 NOSIG=
201812161400 METAR VIDP 161400Z 26003KT 3000 HZ NSC 15/07 Q1021 NOSIG=
201812161430 METAR VIDP 161430Z 30004KT 3000 HZ NSC 15/07 Q1021 NOSIG=
201812161500 METAR VIDP 161500Z 32005KT 3000 HZ NSC 15/07 Q1022 NOSIG=
201812161530 METAR VIDP 161530Z 30004KT 3000 HZ NSC 15/07 Q1022 NOSIG=
201812161600 METAR VIDP 161600Z 00000KT 3000 HZ NSC 15/08 Q1022 NOSIG=
201812161630 METAR VIDP 161630Z 00000KT 3000 HZ NSC 15/08 Q1022 NOSIG=
201812161700 METAR VIDP 161700Z 00000KT 2800 HZ NSC 14/08 Q1022 NOSIG=
201812161730 METAR VIDP 161730Z 00000KT 2800 HZ NSC 14/08 Q1022 NOSIG=
201812161800 METAR VIDP 161800Z 00000KT 2500 HZ NSC 13/08 Q1022 NOSIG=
201812161830 METAR VIDP 161830Z 00000KT 2500 BR NSC 13/09 Q1021 NOSIG=
201812161900 METAR VIDP 161900Z 00000KT 2500 BR NSC 13/09 Q1021 NOSIG=
201812161930 METAR VIDP 161930Z 00000KT 2200 BR NSC 12/09 Q1021 NOSIG=
201812162000 METAR VIDP 162000Z 00000KT 2100 BR NSC 12/09 Q1021 NOSIG=
201812162030 METAR VIDP 162030Z 00000KT 2000 BR NSC 12/09 Q1021 NOSIG=
201812162100 METAR VIDP 162100Z 00000KT 2000 BR NSC 11/08 Q1021 NOSIG=
201812162130 METAR VIDP 162130Z 00000KT 2000 BR NSC 11/08 Q1021 NOSIG=
201812162200 METAR VIDP 162200Z 00000KT 1800 R28/P2000 R29/P2000 BR NSC 10/08 Q1021 NOSIG=
201812162230 METAR VIDP 162230Z 00000KT 1600 R28/P2000 R29/P2000 BR NSC 09/07 Q1021 BECMG 1500 BR=
201812162300 METAR VIDP 162300Z 00000KT 1500 R28/P2000 R29/P2000 BR NSC 09/07 Q1021 NOSIG=
201812162330 METAR VIDP 162330Z 00000KT 1500 R28/P2000 R29/P2000 BR NSC 08/07 Q1021 NOSIG=
201812170000 METAR VIDP 170000Z 27003KT 1500 R28/P2000 R29/P2000 BR NSC 08/07 Q1021 NOSIG=
201812170030 METAR VIDP 170030Z 24004KT 1500 R28/P2000 R29/P2000 BR NSC 08/07 Q1021 NOSIG=
201812170100 METAR VIDP 170100Z 25003KT 1500 R28/P2000 R29/P2000 BR NSC 08/07 Q1021 NOSIG=
201812170130 METAR VIDP 170130Z 26005KT 1200 R28/P2000 R29/P2000 BR FEW100 07/06 Q1022 NOSIG=
201812170200 METAR VIDP 170200Z 27005KT 1000 R28/1400 R29/1600 BR SCT100 08/07 Q1022 NOSIG=
201812170230 METAR VIDP 170230Z 24004KT 1000 R28/1400 R29/1400 BR SCT100 09/07 Q1022 NOSIG=
201812170300 METAR VIDP 170300Z 24004KT 1000 R28/1400 R29/1400 BR SCT100 09/07 Q1022 NOSIG=
201812170330 METAR VIDP 170330Z 23004KT 0900 R28/1400 R29/1300 BR SCT100 10/08 Q1022 TEMPO 0800 MIFG=
201812170400 METAR VIDP 170400Z 25005KT 1000 R28/1400 R29/1500 BR SCT100 10/07 Q1023 NOSIG=
201812170405 METAR VIDP NIL=
201812170430 METAR VIDP 170430Z 26005KT 1200 R28/1500 R29/P2000 HZ SCT100 12/07 Q1023 BECMG 1500 HZ=
201812170500 METAR VIDP 170500Z 25004KT 1300 R28/1500 R29/P2000 HZ SCT100 13/07 Q1023 BECMG 1500 HZ=
201812170505 METAR VIDP NIL=
201812170530 METAR VIDP 170530Z 25005KT 1500 R28/1500 R29/P2000 HZ SCT100 15/08 Q1022 NOSIG=
201812170600 METAR VIDP 170600Z 28005KT 1500 R28/1500 R29/P2000 HZ SCT100 15/08 Q1022 NOSIG=
201812170630 METAR VIDP 170630Z 29004KT 1500 R28/1500 R29/P2000 HZ FEW040 BKN100 17/08 Q1021 NOSIG=
201812170700 METAR VIDP 170700Z 31006KT 1500 R28/1600 R29/P2000 HZ FEW040 BKN100 18/08 Q1021 NOSIG=
201812170730 METAR VIDP 170730Z 30007KT 1700 R28/P2000 R29/P2000 HZ FEW040 BKN100 19/08 Q1020 NOSIG=
201812170800 METAR VIDP 170800Z 30006KT 1700 R28/1700 R29/1800 HZ FEW040 SCT100 19/08 Q1020 NOSIG=
201812170805 METAR VIDP NIL=
201812170830 METAR VIDP 170830Z 29005KT 1700 R28/1900 R29/1800 FU FEW100 20/08 Q1020 NOSIG=
201812170900 METAR VIDP 170900Z 31006KT 1700 R28/P2000 R29/1800 FU FEW100 20/08 Q1019 NOSIG=
201812170930 METAR VIDP 170930Z 32006KT 1900 R28/P2000 R29/P2000 FU SCT100 21/06 Q1018 NOSIG=
201812171000 METAR VIDP 171000Z 32007KT 2200 FU SCT100 21/05 Q1018 NOSIG=
201812171030 METAR VIDP 171030Z 31007KT 2500 FU SCT100 21/04 Q1018 NOSIG=
201812171100 METAR VIDP 171100Z 31006KT 2500 FU SCT100 20/04 Q1018 NOSIG=
201812171105 METAR VIDP NIL=
201812171130 METAR VIDP 171130Z 30005KT 2500 FU SCT100 20/04 Q1018 NOSIG=
201812171200 METAR VIDP 171200Z 29004KT 2500 FU SCT100 19/04 Q1019 NOSIG=
201812171230 METAR VIDP 171230Z 27004KT 2500 FU SCT100 17/05 Q1019 NOSIG=
201812171300 METAR VIDP 171300Z 00000KT 2500 FU SCT100 16/06 Q1019 NOSIG=
201812171330 METAR VIDP 171330Z 00000KT 2500 FU SCT100 15/05 Q1020 NOSIG=
201812171400 METAR VIDP 171400Z 00000KT 2200 FU SCT100 14/07 Q1020 NOSIG=
201812171430 METAR VIDP 171430Z 29004KT 2200 FU SCT100 13/08 Q1020 NOSIG=
201812171500 METAR VIDP 171500Z 28003KT 2000 FU SCT100 13/08 Q1020 NOSIG=
201812171530 METAR VIDP 171530Z 28003KT 2000 FU SCT100 13/08 Q1020 NOSIG=
201812171600 METAR VIDP 171600Z 32003KT 2000 FU SCT100 13/07 Q1020 NOSIG=
201812171630 METAR VIDP 171630Z 28003KT 2000 FU SCT100 12/07 Q1020 NOSIG=
201812171700 METAR VIDP 171700Z 00000KT 2000 FU FEW100 12/07 Q1020 NOSIG=
201812171730 METAR VIDP 171730Z 00000KT 2000 FU FEW100 12/07 Q1020 NOSIG=
201812171800 METAR VIDP 171800Z 00000KT 2000 FU FEW100 11/07 Q1020 NOSIG=
201812171805 METAR VIDP NIL=
201812171830 METAR VIDP 171830Z 00000KT 2000 FU FEW100 11/07 Q1020 NOSIG=
201812171900 METAR VIDP 171900Z 00000KT 1800 R28/P2000 R29/P2000 FU SCT100 11/07 Q1020 NOSIG=
201812171930 METAR VIDP 171930Z 00000KT 1600 R28/P2000 R29/P2000 BR SCT100 09/06 Q1020 NOSIG=
201812172000 METAR VIDP 172000Z 00000KT 1600 R28/P2000 R29/P2000 BR FEW100 09/06 Q1020 NOSIG=
201812172005 METAR VIDP NIL=
201812172030 METAR VIDP 172030Z 00000KT 1600 R28/P2000 R29/P2000 BR SCT100 09/06 Q1019 BECMG 1500 BR=
201812172100 METAR VIDP 172100Z 00000KT 1500 R28/P2000 R29/P2000 BR FEW100 09/06 Q1019 NOSIG=
201812172130 METAR VIDP 172130Z 00000KT 1200 R28/P2000 R29/P2000 BR FEW100 09/06 Q1019 NOSIG=
201812172200 METAR VIDP 172200Z 00000KT 1200 R28/P2000 R29/P2000 BR FEW100 08/06 Q1019 NOSIG=
201812172205 METAR VIDP NIL=
201812172230 METAR VIDP 172230Z 00000KT 1200 R28/P2000 R29/P2000 BR FEW100 08/05 Q1019 NOSIG=
201812172300 METAR VIDP 172300Z 00000KT 1200 R28/P2000 R29/P2000 BR FEW100 08/05 Q1019 NOSIG=
201812172330 METAR VIDP 172330Z 00000KT 1200 R28/P2000 R29/P2000 BR FEW100 08/05 Q1019 NOSIG=
201812180000 METAR VIDP 180000Z 00000KT 1200 R28/P2000 R29/P2000 BR FEW100 08/05 Q1019 NOSIG=
201812180005 METAR VIDP NIL=
201812180030 METAR VIDP 180030Z 00000KT 1200 R28/P2000 R29/P2000 BR FEW100 07/05 Q1019 NOSIG=
201812180100 METAR VIDP 180100Z 00000KT 1200 R28/P2000 R29/P2000 BR NSC 07/05 Q1019 NOSIG=
201812180130 METAR VIDP 180130Z 23003KT 1000 R28/P2000 R29/P2000 BR NSC 07/05 Q1020 BECMG 0800 MIFG=
201812180200 METAR VIDP 180200Z 23003KT 0800 R28/1500 R29/1000 MIFG NSC 07/05 Q1020 NOSIG=
201812180205 METAR VIDP NIL=
201812180230 METAR VIDP 180230Z 25004KT 0800 R28/1100 R29/1000 MIFG NSC 07/06 Q1020 NOSIG=
201812180300 METAR VIDP 180300Z 26004KT 0800 R28/1000 R29/1000 MIFG NSC 08/06 Q1020 NOSIG=
201812180330 METAR VIDP 180330Z 24004KT 0800 R28/1100 R29/1200 MIFG NSC 09/07 Q1021 NOSIG=
201812180400 METAR VIDP 180400Z 26005KT 1000 R28/1200 R29/1800 BR NSC 10/07 Q1021 NOSIG=
201812180430 METAR VIDP 180430Z 25005KT 1000 R28/1400 R29/2000 FU NSC 12/07 Q1021 BECMG 1500 FU=
201812180500 METAR VIDP 180500Z 27005KT 1300 R28/1500 R29/2000 FU NSC 13/07 Q1021 BECMG 1500 FU=
201812180530 METAR VIDP 180530Z 27006KT 1500 R28/1500 R29/2000 FU NSC 15/07 Q1021 NOSIG=
201812180600 METAR VIDP 180600Z 31006KT 1800 R28/1900 R29/2000 HZ NSC 17/07 Q1020 NOSIG=
201812180630 METAR VIDP 180630Z 30007KT 1800 R28/1700 R29/2000 HZ NSC 18/07 Q1020 NOSIG=
201812180700 METAR VIDP 180700Z 30007KT 1800 R28/1800 R29/P2000 HZ NSC 19/06 Q1019 NOSIG=
201812180730 METAR VIDP 180730Z 28008KT 240V320 1800 R28/1900 R29/P2000 HZ NSC 20/08 Q1019 NOSIG=
201812180800 METAR VIDP 180800Z 29008KT 2200 HZ NSC 20/07 Q1018 NOSIG=
201812180830 METAR VIDP 180830Z 28009KT 2500 HZ NSC 20/07 Q1018 NOSIG=
201812180900 METAR VIDP 180900Z 29008KT 2500 HZ NSC 21/07 Q1018 NOSIG=
201812180930 METAR VIDP 180930Z 29009KT 2500 HZ NSC 21/07 Q1017 NOSIG=
201812181000 METAR VIDP 181000Z 29007KT 2500 HZ NSC 21/07 Q1017 BECMG 3000 HZ=
201812181030 METAR VIDP 181030Z 28008KT 3000 HZ NSC 21/06 Q1017 NOSIG=
201812181100 METAR VIDP 181100Z 28007KT 3500 HZ NSC 20/06 Q1017 NOSIG=
201812181105 METAR VIDP NIL=
201812181130 METAR VIDP 181130Z 27006KT 3500 HZ NSC 19/07 Q1017 NOSIG=
201812181200 METAR VIDP 181200Z 27006KT 3500 HZ NSC 18/07 Q1017 NOSIG=
201812181230 METAR VIDP 181230Z 27005KT 3500 HZ NSC 17/07 Q1017 NOSIG=
201812181300 METAR VIDP 181300Z 26005KT 3500 HZ NSC 16/07 Q1018 NOSIG=
201812181330 METAR VIDP 181330Z 27005KT 3500 HZ NSC 15/07 Q1018 NOSIG=
201812181400 METAR VIDP 181400Z 27006KT 3500 HZ NSC 15/07 Q1018 NOSIG=
201812181430 METAR VIDP 181430Z 27005KT 3500 HZ NSC 14/07 Q1018 NOSIG=
201812181500 METAR VIDP 181500Z 27004KT 3500 HZ NSC 14/06 Q1019 NOSIG=
201812181530 METAR VIDP 181530Z 28005KT 3500 HZ NSC 14/06 Q1019 NOSIG=
201812181600 METAR VIDP 181600Z 25004KT 3500 HZ NSC 13/06 Q1019 NOSIG=
201812181630 METAR VIDP 181630Z 26003KT 3500 HZ NSC 12/06 Q1019 NOSIG=
201812181700 METAR VIDP 181700Z 26004KT 3500 HZ NSC 12/06 Q1019 NOSIG=
201812181730 METAR VIDP 181730Z 00000KT 3200 HZ NSC 12/06 Q1018 BECMG 3000 HZ=
201812181800 METAR VIDP 181800Z 00000KT 3000 FU NSC 11/06 Q1018 NOSIG=
201812181830 METAR VIDP 181830Z 00000KT 2500 FU NSC 11/06 Q1018 NOSIG=
201812181900 METAR VIDP 181900Z 00000KT 2500 FU NSC 11/06 Q1018 NOSIG=
201812181930 METAR VIDP 181930Z 00000KT 2200 BR NSC 10/06 Q1017 NOSIG=
201812182000 METAR VIDP 182000Z 00000KT 2200 BR NSC 10/06 Q1017 NOSIG=
201812182030 METAR VIDP 182030Z 27004KT 1600 R28/P2000 R29/P2000 BR NSC 09/06 Q1017 BECMG 1500 BR=
201812182100 METAR VIDP 182100Z 00000KT 1500 R28/P2000 R29/P2000 BR NSC 09/06 Q1017 NOSIG=
201812182130 METAR VIDP 182130Z 00000KT 1200 R28/P2000 R29/P2000 BR NSC 09/06 Q1017 NOSIG=
201812182200 METAR VIDP 182200Z 24003KT 1200 R28/P2000 R29/P2000 BR NSC 09/06 Q1017 NOSIG=
201812182230 METAR VIDP 182230Z 00000KT 1200 R28/P2000 R29/P2000 BR NSC 09/06 Q1017 NOSIG=
201812182300 METAR VIDP 182300Z 00000KT 1200 R28/P2000 R29/P2000 BR NSC 09/06 Q1017 NOSIG=
201812182305 METAR VIDP NIL=
201812182330 METAR VIDP 182330Z 00000KT 1100 R28/P2000 R29/P2000 BR NSC 09/06 Q1017 NOSIG=
201812190000 METAR VIDP 190000Z 23004KT 1000 R28/P2000 R29/P2000 BR NSC 09/06 Q1017 NOSIG=
201812190030 METAR VIDP 190030Z 20004KT 0900 R28/P2000 R29/P2000 MIFG NSC 08/05 Q1017 BECMG 0800 MIFG=
201812190100 METAR VIDP 190100Z 00000KT 0800 R28/P2000 R29/P2000 MIFG NSC 08/05 Q1018 NOSIG=
201812190105 METAR VIDP NIL=
201812190130 METAR VIDP 190130Z 23004KT 0700 R28/P2000 R29/P2000 MIFG NSC 08/05 Q1018 NOSIG=
201812190200 METAR VIDP 190200Z 26003KT 0700 R28/1300 R29/1400 MIFG NSC 08/05 Q1018 NOSIG=
201812190230 METAR VIDP 190230Z 00000KT 0700 R28/1300 R29/1800 MIFG NSC 08/06 Q1019 NOSIG=
201812190300 METAR VIDP 190300Z 24003KT 0700 R28/1400 R29/2000 MIFG NSC 09/06 Q1019 BECMG 0800 MIFG=
201812190330 METAR VIDP 190330Z 24004KT 0800 R28/1500 R29/2000 MIFG NSC 10/07 Q1019 NOSIG=
201812190400 METAR VIDP 190400Z 25005KT 0900 R28/1500 R29/2000 MIFG NSC 11/07 Q1020 NOSIG=
201812190430 METAR VIDP 190430Z 24004KT 1100 R28/1700 R29/2000 FU NSC 13/07 Q1020 NOSIG=
201812190500 METAR VIDP 190500Z 28003KT 1300 R28/1900 R29/2000 FU NSC 14/07 Q1020 BECMG 1500 FU=
201812190530 METAR VIDP 190530Z 27004KT 1500 R28/P2000 R29/P2000 FU NSC 16/07 Q1020 NOSIG=
201812190600 METAR VIDP 190600Z 29005KT 1800 R28/P2000 R29/P2000 FU NSC 17/07 Q1019 NOSIG=
201812190630 METAR VIDP 190630Z 30007KT 2100 FU NSC 18/07 Q1019 NOSIG=
201812190700 METAR VIDP 190700Z 32006KT 2200 FU NSC 19/07 Q1019 NOSIG=
201812190730 METAR VIDP 190730Z 30005KT 2200 FU NSC 20/06 Q1018 NOSIG=
201812190800 METAR VIDP 190800Z 31005KT 2500 FU NSC 20/06 Q1018 NOSIG=
201812190830 METAR VIDP 190830Z 31007KT 2500 FU NSC 21/06 Q1017 NOSIG=
201812190900 METAR VIDP 190900Z 31007KT 2800 HZ NSC 21/06 Q1017 NOSIG=
201812190930 METAR VIDP 190930Z 30007KT 2800 HZ NSC 21/06 Q1017 NOSIG=
201812191000 METAR VIDP 191000Z 30007KT 2800 HZ NSC 21/06 Q1017 NOSIG=
201812191030 METAR VIDP 191030Z 29005KT 2800 HZ NSC 21/06 Q1017 NOSIG=
201812191100 METAR VIDP 191100Z 26005KT 2800 HZ NSC 21/07 Q1017 NOSIG=
201812191130 METAR VIDP 191130Z 24003KT 2800 HZ NSC 20/07 Q1017 NOSIG=
201812191200 METAR VIDP 191200Z 24004KT 2800 HZ NSC 18/08 Q1017 NOSIG=
201812191230 METAR VIDP 191230Z 25004KT 2800 HZ NSC 16/08 Q1017 NOSIG=
201812191300 METAR VIDP 191300Z 23004KT 2800 HZ NSC 16/08 Q1018 NOSIG=
201812191330 METAR VIDP 191330Z 26004KT 2800 HZ NSC 16/08 Q1018 NOSIG=
201812191400 METAR VIDP 191400Z 24004KT 2500 HZ NSC 15/07 Q1018 NOSIG=
201812191430 METAR VIDP 191430Z 27004KT 2500 HZ NSC 15/08 Q1018 NOSIG=
201812191500 METAR VIDP 191500Z 24004KT 2500 HZ NSC 15/07 Q1018 NOSIG=
201812191530 METAR VIDP 191530Z 23003KT 2200 HZ NSC 14/08 Q1018 NOSIG=
201812191600 METAR VIDP 191600Z 19003KT 2200 HZ NSC 13/07 Q1018 NOSIG=
201812191630 METAR VIDP 191630Z 00000KT 1800 R28/P2000 R29/P2000 FU NSC 13/07 Q1019 NOSIG=
201812191700 METAR VIDP 191700Z 00000KT 1800 R28/P2000 R29/P2000 FU NSC 12/07 Q1019 BECMG 1500 FU=
201812191705 METAR VIDP NIL=
201812191730 METAR VIDP 191730Z 00000KT 1600 R28/P2000 R29/P2000 BR NSC 11/07 Q1019 BECMG 1500 BR=
201812191800 METAR VIDP 191800Z 00000KT 1500 R28/P2000 R29/P2000 BR NSC 11/07 Q1018 NOSIG=
201812191830 METAR VIDP 191830Z 00000KT 1200 R28/P2000 R29/P2000 BR NSC 10/07 Q1018 NOSIG=
201812191900 METAR VIDP 191900Z 00000KT 1000 R28/P2000 R29/P2000 BR NSC 10/07 Q1018 BECMG 0800 MIFG=
201812191930 METAR VIDP 191930Z 00000KT 1000 R28/P2000 R29/P2000 BR NSC 10/07 Q1018 BECMG 0800 MIFG=
201812192000 METAR VIDP 192000Z 00000KT 1000 R28/P2000 R29/P2000 BR NSC 09/07 Q1018 BECMG 0800 MIFG=
201812192030 METAR VIDP 192030Z 00000KT 0800 R28/P2000 R29/P2000 MIFG NSC 09/07 Q1018 NOSIG=
201812192100 METAR VIDP 192100Z 00000KT 0800 R28/P2000 R29/P2000 MIFG NSC 09/07 Q1018 NOSIG=
201812192130 METAR VIDP 192130Z 00000KT 0700 R28/P2000 R29/P2000 MIFG NSC 08/06 Q1018 BECMG 0600 MIFG=
201812192200 METAR VIDP 192200Z 00000KT 0600 R28/P2000 R29/P2000 MIFG NSC 08/06 Q1018 NOSIG=
201812192230 METAR VIDP 192230Z 00000KT 0600 R28/P2000 R29/P2000 MIFG NSC 08/06 Q1018 NOSIG=
201812192300 METAR VIDP 192300Z 00000KT 0600 R28/P2000 R29/P2000 MIFG NSC 08/06 Q1018 NOSIG=
201812192330 METAR VIDP 192330Z 00000KT 0600 R28/P2000 R29/P2000 MIFG NSC 07/06 Q1018 NOSIG=
201812200000 METAR VIDP 200000Z 00000KT 0600 R28/2000 R29/2000 MIFG NSC 07/06 Q1018 NOSIG=
201812200030 METAR VIDP 200030Z 00000KT 0600 R28/2000 R29/2000 MIFG NSC 07/06 Q1018 NOSIG=
201812200100 METAR VIDP 200100Z 00000KT 0400 R28/P2000 R29/1900 FG NSC 07/06 Q1018 BECMG 0350 FG=
201812200130 METAR VIDP 200130Z 00000KT 0300 R28/2000 R29/1600 FG NSC 07/06 Q1018 NOSIG=
201812200200 METAR VIDP 200200Z 00000KT 0300 R28/1100 R29/1000 FG NSC 07/06 Q1019 BECMG 0350 FG=
201812200230 METAR VIDP 200230Z 00000KT 0400 R28/1000 R29/0900 FG NSC 08/07 Q1019 NOSIG=
201812200300 METAR VIDP 200300Z 00000KT 0500 R28/0900 R29/1100 FG NSC 09/07 Q1019 NOSIG=
201812200305 METAR VIDP NIL=
201812200330 METAR VIDP 200330Z 00000KT 0500 R28/0900 R29/1200 FG NSC 10/08 Q1020 BECMG 0600 MIFG=
201812200400 METAR VIDP 200400Z 00000KT 0800 R28/1100 R29/1400 MIFG NSC 12/09 Q1021 NOSIG=
201812200430 METAR VIDP 200430Z 28003KT 0900 R28/1200 R29/1700 MIFG NSC 13/10 Q1021 NOSIG=
201812200500 METAR VIDP 200500Z 27003KT 1200 R28/1500 R29/2000 FU NSC 15/09 Q1021 NOSIG=
201812200530 METAR VIDP 200530Z 30004KT 1400 R28/1600 R29/2000 FU NSC 17/08 Q1021 BECMG 1500 FU=
201812200600 METAR VIDP 200600Z 30004KT 1500 R28/1900 R29/2000 FU NSC 18/08 Q1021 NOSIG=
201812200630 METAR VIDP 200630Z 29004KT 1800 R28/P2000 R29/P2000 FU NSC 19/07 Q1020 NOSIG=
201812200700 METAR VIDP 200700Z 30004KT 2000 FU NSC 20/06 Q1020 NOSIG=
201812200705 METAR VIDP NIL=
201812200730 METAR VIDP 200730Z 31005KT 2200 HZ NSC 20/05 Q1019 NOSIG=
201812200800 METAR VIDP 200800Z 30005KT 2200 HZ NSC 21/05 Q1019 NOSIG=
201812200805 METAR VIDP NIL=
201812200830 METAR VIDP 200830Z 31007KT 2200 HZ NSC 21/05 Q1019 NOSIG=
201812200900 METAR VIDP 200900Z 32006KT 2500 HZ NSC 21/06 Q1018 NOSIG=
201812200930 METAR VIDP 200930Z 31006KT 2800 HZ NSC 21/03 Q1017 BECMG 3000 HZ=
201812201000 METAR VIDP 201000Z 31007KT 3000 HZ NSC 21/03 Q1017 NOSIG=
201812201005 METAR VIDP NIL=
201812201030 METAR VIDP 201030Z 31007KT 3000 HZ NSC 21/04 Q1017 NOSIG=
201812201100 METAR VIDP 201100Z 30005KT 2500 HZ NSC 20/05 Q1017 NOSIG=
201812201105 METAR VIDP NIL=
201812201130 METAR VIDP 201130Z 32005KT 2500 HZ NSC 19/04 Q1017 NOSIG=
201812201200 METAR VIDP 201200Z 31005KT 2500 HZ NSC 19/05 Q1017 NOSIG=
201812201230 METAR VIDP 201230Z 27003KT 2500 HZ NSC 17/05 Q1017 NOSIG=
201812201300 METAR VIDP 201300Z 30003KT 2500 HZ NSC 16/06 Q1017 NOSIG=
201812201330 METAR VIDP 201330Z 00000KT 2500 HZ NSC 16/06 Q1017 NOSIG=
201812201400 METAR VIDP 201400Z 00000KT 2500 HZ NSC 15/06 Q1017 NOSIG=
201812201405 METAR VIDP NIL=
201812201430 METAR VIDP 201430Z 00000KT 2500 HZ NSC 15/06 Q1017 NOSIG=
201812201500 METAR VIDP 201500Z 00000KT 2500 HZ NSC 14/07 Q1018 NOSIG=
201812201530 METAR VIDP 201530Z 00000KT 2500 HZ NSC 13/07 Q1018 NOSIG=
201812201600 METAR VIDP 201600Z 00000KT 2500 HZ NSC 12/07 Q1018 NOSIG=
201812201630 METAR VIDP 201630Z 00000KT 2200 HZ NSC 12/07 Q1018 NOSIG=
201812201700 METAR VIDP 201700Z 00000KT 2200 HZ NSC 12/07 Q1018 NOSIG=
201812201730 METAR VIDP 201730Z 00000KT 2200 BR NSC 11/07 Q1018 NOSIG=
201812201800 METAR VIDP 201800Z 00000KT 2200 BR NSC 11/07 Q1017 NOSIG=
201812201830 METAR VIDP 201830Z 00000KT 2200 BR NSC 10/07 Q1017 NOSIG=
201812201900 METAR VIDP 201900Z 00000KT 2200 BR NSC 10/07 Q1017 NOSIG=
201812201930 METAR VIDP 201930Z 00000KT 2000 BR NSC 10/07 Q1017 NOSIG=
201812202000 METAR VIDP 202000Z 00000KT 1800 R28/P2000 R29/P2000 BR NSC 10/07 Q1017 NOSIG=
201812202030 METAR VIDP 202030Z 00000KT 1600 R28/P2000 R29/P2000 BR NSC 09/07 Q1017 BECMG 1500 BR=
201812202100 METAR VIDP 202100Z 00000KT 1500 R28/P2000 R29/P2000 BR NSC 09/07 Q1017 NOSIG=
201812202130 METAR VIDP 202130Z 00000KT 1500 R28/P2000 R29/P2000 BR NSC 09/07 Q1017 NOSIG=
201812202200 METAR VIDP 202200Z 00000KT 1000 R28/P2000 R29/P2000 BR NSC 09/07 Q1017 NOSIG=
201812202230 METAR VIDP 202230Z 00000KT 1000 R28/P2000 R29/P2000 BR NSC 08/06 Q1017 BECMG 0800 MIFG=
201812202300 METAR VIDP 202300Z 00000KT 1000 R28/P2000 R29/P2000 BR NSC 08/06 Q1017 BECMG 0800 MIFG=
201812202330 METAR VIDP 202330Z 00000KT 0800 R28/P2000 R29/P2000 MIFG NSC 08/06 Q1017 NOSIG=
201812210000 METAR VIDP 210000Z 00000KT 0800 R28/2000 R29/1700 MIFG NSC 08/06 Q1017 NOSIG=
201812210030 METAR VIDP 210030Z 00000KT 0800 R28/2000 R29/2000 MIFG NSC 08/06 Q1017 NOSIG=
201812210100 METAR VIDP 210100Z 00000KT 0800 R28/2000 R29/2000 MIFG NSC 08/06 Q1017 NOSIG=
201812210130 METAR VIDP 210130Z 00000KT 0800 R28/2000 R29/2000 MIFG NSC 07/05 Q1018 BECMG 0600 MIFG=
201812210200 METAR VIDP 210200Z 00000KT 0600 R28/1400 R29/2000 MIFG NSC 07/05 Q1018 NOSIG=
201812210230 METAR VIDP 210230Z 00000KT 0600 R28/1200 R29/1200 MIFG NSC 08/05 Q1018 NOSIG=
201812210300 METAR VIDP 210300Z 26004KT 0700 R28/1200 R29/1200 MIFG NSC 08/06 Q1019 BECMG 0800 MIFG=
201812210330 METAR VIDP 210330Z 24005KT 0800 R28/1200 R29/1600 MIFG NSC 10/07 Q1019 NOSIG=
201812210400 METAR VIDP 210400Z 26004KT 0900 R28/1300 R29/2000 MIFG NSC 11/07 Q1020 NOSIG=
201812210430 METAR VIDP 210430Z 23005KT 1000 R28/1400 R29/P2000 FU NSC 13/07 Q1020 NOSIG=
201812210500 METAR VIDP 210500Z 24004KT 1100 R28/1400 R29/P2000 FU NSC 13/07 Q1020 NOSIG=
201812210530 METAR VIDP 210530Z 26005KT 1300 R28/2000 R29/2000 FU NSC 15/08 Q1020 BECMG 1500 FU=
201812210600 METAR VIDP 210600Z 28005KT 1500 R28/P2000 R29/P2000 FU NSC 17/08 Q1019 NOSIG=
201812210630 METAR VIDP 210630Z 27006KT 1800 R28/P2000 R29/P2000 FU NSC 17/06 Q1019 NOSIG=
201812210700 METAR VIDP 210700Z 27006KT 2000 FU NSC 18/06 Q1018 NOSIG=
201812210705 METAR VIDP NIL=
201812210730 METAR VIDP 210730Z 29007KT 2200 FU NSC 19/06 Q1018 NOSIG=
201812210800 METAR VIDP 210800Z 30007KT 2500 FU NSC 19/05 Q1018 NOSIG=
201812210805 METAR VIDP NIL=
201812210830 METAR VIDP 210830Z 28008KT 2200 FU NSC 19/05 Q1017 NOSIG=
201812210900 METAR VIDP 210900Z 28007KT 2500 FU NSC 19/05 Q1017 NOSIG=
201812210930 METAR VIDP 210930Z 28006KT 2500 FU NSC 19/05 Q1016 NOSIG=
201812211000 METAR VIDP 211000Z 28006KT 2200 FU NSC 19/05 Q1016 NOSIG=
201812211030 METAR VIDP 211030Z 28006KT 2200 FU NSC 19/05 Q1016 NOSIG=
201812211100 METAR VIDP 211100Z 29006KT 2200 FU NSC 18/05 Q1016 NOSIG=
201812211105 METAR VIDP NIL=
201812211130 METAR VIDP 211130Z 30004KT 2200 FU NSC 18/06 Q1016 NOSIG=
201812211200 METAR VIDP 211200Z 29003KT 2200 FU NSC 17/06 Q1016 NOSIG=
201812211230 METAR VIDP 211230Z 29002KT 2200 FU NSC 16/06 Q1016 NOSIG=
201812211300 METAR VIDP 211300Z 29002KT 2200 FU NSC 16/06 Q1016 NOSIG=
201812211330 METAR VIDP 211330Z 00000KT 2200 FU NSC 15/07 Q1016 NOSIG=
201812211400 METAR VIDP 211400Z 00000KT 2200 FU NSC 14/07 Q1016 NOSIG=
201812211430 METAR VIDP 211430Z 00000KT 1800 R28/P2000 R29/P2000 FU NSC 14/07 Q1016 NOSIG=
201812211500 METAR VIDP 211500Z 00000KT 1500 R28/P2000 R29/P2000 FU NSC 12/07 Q1016 NOSIG=
201812211530 METAR VIDP 211530Z 00000KT 1500 R28/P2000 R29/P2000 FU NSC 12/07 Q1016 NOSIG=
201812211600 METAR VIDP 211600Z 00000KT 1500 R28/P2000 R29/P2000 FU NSC 11/07 Q1016 NOSIG=
201812211630 METAR VIDP 211630Z 00000KT 1200 R28/P2000 R29/P2000 BR NSC 10/07 Q1017 NOSIG=
201812211700 METAR VIDP 211700Z 00000KT 1200 R28/P2000 R29/P2000 BR NSC 10/07 Q1016 NOSIG=
201812211730 METAR VIDP 211730Z 00000KT 1200 R28/P2000 R29/1700 BR NSC 10/07 Q1016 NOSIG=
201812211800 METAR VIDP 211800Z 00000KT 1200 R28/P2000 R29/1700 BR NSC 10/07 Q1016 NOSIG=
201812211830 METAR VIDP 211830Z 00000KT 1200 R28/P2000 R29/1700 BR NSC 09/07 Q1016 NOSIG=
201812211900 METAR VIDP 211900Z 00000KT 1200 R28/P2000 R29/1600 BR NSC 09/07 Q1016 NOSIG=
201812211930 METAR VIDP 211930Z 00000KT 1200 R28/P2000 R29/1700 BR NSC 09/07 Q1016 NOSIG=
201812212000 METAR VIDP 212000Z 00000KT 1200 R28/P2000 R29/1700 BR NSC 09/07 Q1016 NOSIG=
201812212030 METAR VIDP 212030Z 00000KT 1200 R28/P2000 R29/1700 BR NSC 09/07 Q1016 NOSIG=
201812212100 METAR VIDP 212100Z 00000KT 1100 R28/P2000 R29/1700 BR NSC 09/07 Q1016 NOSIG=
201812212130 METAR VIDP 212130Z 00000KT 1000 R28/P2000 R29/1700 BR NSC 08/07 Q1016 NOSIG=
201812212200 METAR VIDP 212200Z 00000KT 0600 R28/P2000 R29/1300 MIFG NSC 08/05 Q1015 BECMG 0350 FG=
201812212205 METAR VIDP NIL=
201812212230 METAR VIDP 212230Z 00000KT 0500 R28/1800 R29/1300 FG NSC 07/06 Q1016 BECMG 0350 FG=
201812212300 METAR VIDP 212300Z 26003KT 0400 R28/1500 R29/1100 FG NSC 07/06 Q1016 BECMG 0350 FG=
201812212305 METAR VIDP NIL=
201812212330 METAR VIDP 212330Z 26003KT 0400 R28/1500 R29/1200 FG NSC 07/06 Q1016 BECMG 0350 FG=
201812220000 METAR VIDP 220000Z 00000KT 0300 R28/1700 R29/1000 FG NSC 07/06 Q1016 NOSIG=
201812220030 METAR VIDP 220030Z 00000KT 0300 R28/1800 R29/1200 FG NSC 07/06 Q1016 NOSIG=
201812220100 METAR VIDP 220100Z 00000KT 0300 R28/2000 R29/1000 FG NSC 07/06 Q1017 NOSIG=
201812220105 METAR VIDP NIL=
201812220130 METAR VIDP 220130Z 00000KT 0300 R28/1500 R29/0700 FG NSC 06/06 Q1017 NOSIG=
201812220200 METAR VIDP 220200Z 00000KT 0300 R28/1300 R29/0800 FG NSC 06/06 Q1017 NOSIG=
201812220230 METAR VIDP 220230Z 00000KT 0300 R28/1200 R29/0800 FG NSC 07/06 Q1017 NOSIG=
201812220300 METAR COR VIDP 220300Z 00000KT 0500 R28/1100 R29/0800 FG NSC 08/06 Q1018 BECMG 0800 MIFG=
201812220305 METAR VIDP NIL=
201812220330 METAR VIDP 220330Z 00000KT 0800 R28/1100 R29/0900 MIFG NSC 10/07 Q1019 NOSIG=
201812220400 METAR VIDP 220400Z 00000KT 0800 R28/1300 R29/0900 MIFG NSC 12/08 Q1019 NOSIG=
201812220430 METAR VIDP 220430Z 00000KT 1000 R28/1300 R29/0900 FU NSC 13/08 Q1019 NOSIG=
201812220500 METAR VIDP 220500Z 00000KT 1200 R28/1600 R29/1400 FU NSC 15/07 Q1019 NOSIG=
201812220505 METAR VIDP NIL=
201812220530 METAR VIDP 220530Z 36004KT 1400 R28/1800 R29/1600 FU NSC 16/07 Q1019 BECMG VIS 1500=
201812220600 METAR VIDP 220600Z VRB02KT 1500 R28/2000 R29/1700 FU NSC 17/06 Q1019 NOSIG=
201812220630 METAR VIDP 220630Z VRB02KT 1800 R28/2000 R29/2000 FU NSC 18/07 Q1019 NOSIG=
201812220700 METAR VIDP 220700Z 22003KT 2000 R28/P2000 R29/P2000 FU NSC 19/05 Q1018 NOSIG=
201812220705 METAR VIDP NIL=
201812220730 METAR VIDP 220730Z 22003KT 2000 R28/P2000 R29/P2000 FU NSC 20/03 Q1017 NOSIG=
201812220800 METAR VIDP 220800Z 20003KT 2000 R28/P2000 R29/P2000 FU NSC 20/03 Q1017 NOSIG=
201812220830 METAR VIDP 220830Z 23003KT 2000 R28/P2000 R29/P2000 FU NSC 21/03 Q1017 NOSIG=
201812220900 METAR VIDP 220900Z 32004KT 2000 R28/P2000 R29/P2000 FU NSC 21/03 Q1017 NOSIG=
201812220930 METAR VIDP 220930Z 32004KT 2000 R28/P2000 R29/P2000 FU NSC 21/03 Q1017 NOSIG=
201812221000 METAR VIDP 221000Z 31003KT 2000 R28/P2000 R29/P2000 FU NSC 21/03 Q1017 NOSIG=
201812221030 METAR VIDP 221030Z 32003KT 2200 FU NSC 20/03 Q1017 NOSIG=
201812221100 METAR VIDP 221100Z 00000KT 2200 FU NSC 20/04 Q1017 NOSIG=
201812221130 METAR VIDP 221130Z 00000KT 2200 FU NSC 20/04 Q1017 NOSIG=
201812221200 METAR VIDP 221200Z 12003KT 2200 FU NSC 19/05 Q1017 NOSIG=
201812221230 METAR VIDP 221230Z 17003KT 2200 FU NSC 18/06 Q1017 NOSIG=
201812221300 METAR VIDP 221300Z 00000KT 2200 FU NSC 17/07 Q1018 NOSIG=
201812221330 METAR VIDP 221330Z 00000KT 1600 R28/P2000 R29/P2000 FU NSC 15/08 Q1018 BECMG 1500 FU=
201812221400 METAR VIDP 221400Z 00000KT 1200 R28/P2000 R29/P2000 FU NSC 15/08 Q1018 NOSIG=
201812221430 METAR VIDP 221430Z 11003KT 1200 R28/P2000 R29/P2000 FU NSC 15/07 Q1018 NOSIG=
201812221500 METAR VIDP 221500Z 10004KT 1200 R28/P2000 R29/P2000 FU NSC 14/07 Q1018 NOSIG=
201812221530 METAR VIDP 221530Z 16003KT 1200 R28/P2000 R29/P2000 FU NSC 14/07 Q1018 NOSIG=
201812221600 METAR VIDP 221600Z 15003KT 1200 R28/P2000 R29/P2000 FU NSC 14/07 Q1018 NOSIG=
201812221630 METAR VIDP 221630Z 15004KT 1200 R28/P2000 R29/P2000 FU NSC 14/07 Q1019 NOSIG=
201812221700 METAR VIDP 221700Z 11003KT 1100 R28/P2000 R29/P2000 FU NSC 13/07 Q1019 NOSIG=
201812221705 METAR VIDP NIL=
201812221730 METAR VIDP 221730Z 00000KT 1100 R28/P2000 R29/P2000 BR NSC 12/08 Q1019 NOSIG=
201812221800 METAR VIDP 221800Z 00000KT 1100 R28/P2000 R29/P2000 BR NSC 11/08 Q1019 NOSIG=
201812221830 METAR VIDP 221830Z 00000KT 1100 R28/P2000 R29/P2000 BR NSC 11/08 Q1019 NOSIG=
201812221900 METAR VIDP 221900Z 00000KT 1100 R28/P2000 R29/P2000 BR NSC 11/08 Q1018 NOSIG=
201812221930 METAR VIDP 221930Z 00000KT 1000 R28/P2000 R29/1600 BR NSC 10/08 Q1018 NOSIG=
201812222000 METAR VIDP 222000Z 00000KT 1000 R28/P2000 R29/P2000 BR NSC 10/08 Q1018 NOSIG=
201812222030 METAR VIDP 222030Z 00000KT 1000 R28/P2000 R29/P2000 BR NSC 09/07 Q1018 NOSIG=
201812222100 METAR VIDP 222100Z 09004KT 1000 R28/P2000 R29/P2000 BR NSC 09/07 Q1018 NOSIG=
201812222130 METAR VIDP 222130Z 07004KT 1000 R28/P2000 R29/P2000 BR NSC 09/07 Q1018 NOSIG=
201812222200 METAR VIDP 222200Z 10004KT 1000 R28/1800 R29/P2000 BR NSC 08/06 Q1018 NOSIG=
201812222205 METAR VIDP NIL=
201812222230 METAR VIDP 222230Z 11004KT 1000 R28/1700 R29/P2000 BR NSC 08/06 Q1018 NOSIG=
201812222300 METAR VIDP 222300Z 09004KT 1000 R28/1500 R29/P2000 BR NSC 08/06 Q1018 BECMG 0800 MIFG=
201812222330 METAR VIDP 222330Z 08004KT 0800 R28/1400 R29/2000 MIFG NSC 08/06 Q1018 BECMG 0600 MIFG=
201812230000 METAR VIDP 230000Z 09005KT 0600 R28/1400 R29/2000 MIFG NSC 07/06 Q1018 BECMG 0350 FG=
201812230030 METAR VIDP 230030Z 10005KT 0500 R28/1800 R29/2000 FG NSC 07/06 Q1018 BECMG 0350 FG=
201812230100 METAR VIDP 230100Z 10003KT 0500 R28/1500 R29/1600 FG NSC 07/07 Q1018 BECMG 0350 FG=
201812230105 METAR VIDP NIL=
201812230130 METAR VIDP 230130Z 09003KT 0300 R28/1400 R29/1300 FG FEW100 07/07 Q1018 NOSIG=
201812230200 METAR VIDP 230200Z 10003KT 0300 R28/1000 R29/1000 FG FEW100 07/07 Q1019 NOSIG=
201812230205 METAR VIDP NIL=
201812230230 METAR VIDP 230230Z 09003KT 0300 R28/0950 R29/1000 FG FEW100 09/08 Q1019 NOSIG=
201812230300 METAR VIDP 230300Z 11003KT 0300 R28/0900 R29/1100 FG NSC 10/08 Q1020 BECMG 0350 FG=
201812230330 METAR VIDP 230330Z 09003KT 0500 R28/1000 R29/1200 FG NSC 11/09 Q1020 BECMG 0600 MIFG=
201812230400 METAR VIDP 230400Z 11004KT 0600 R28/1100 R29/2000 MIFG NSC 13/10 Q1020 BECMG 0800 MIFG=
201812230430 METAR VIDP 230430Z 11005KT 1000 R28/1400 R29/2000 FU NSC 15/09 Q1020 NOSIG=
201812230500 METAR VIDP 230500Z 12006KT 1100 R28/1500 R29/2000 FU NSC 16/08 Q1020 NOSIG=
201812230530 METAR VIDP 230530Z 12005KT 1200 R28/1600 R29/2000 FU NSC 17/08 Q1020 BECMG 1500 FU=
201812230600 METAR VIDP 230600Z 14005KT 1300 R28/1600 R29/P2000 FU NSC 18/08 Q1020 BECMG 1500 FU=
201812230630 METAR VIDP 230630Z 14005KT 1500 R28/1600 R29/P2000 FU NSC 19/07 Q1019 NOSIG=
201812230700 METAR VIDP 230700Z 14005KT 1500 R28/1600 R29/P2000 FU NSC 20/07 Q1019 NOSIG=
201812230705 METAR VIDP NIL=
201812230730 METAR VIDP 230730Z 12004KT 1500 R28/1600 R29/P2000 FU NSC 20/07 Q1018 NOSIG=
201812230800 METAR VIDP 230800Z 15004KT 1500 R28/1700 R29/P2000 FU NSC 20/07 Q1018 NOSIG=
201812230805 METAR VIDP NIL=
201812230830 METAR VIDP 230830Z 15004KT 1500 R28/P2000 R29/P2000 FU NSC 21/07 Q1018 NOSIG=
201812230900 METAR VIDP 230900Z 17004KT 1600 R28/P2000 R29/P2000 FU NSC 21/07 Q1017 NOSIG=
201812230930 METAR VIDP 230930Z 00000KT 1700 R28/P2000 R29/P2000 FU NSC 21/06 Q1017 NOSIG=
201812231000 METAR VIDP 231000Z 00000KT 2000 FU NSC 21/07 Q1017 NOSIG=
201812231030 METAR VIDP 231030Z 18003KT 2200 FU NSC 21/06 Q1017 NOSIG=
201812231100 METAR VIDP 231100Z 17003KT 2200 FU NSC 22/07 Q1017 NOSIG=
201812231105 METAR VIDP NIL=
201812231130 METAR VIDP 231130Z 14003KT 2200 FU NSC 20/06 Q1017 NOSIG=
201812231200 METAR VIDP 231200Z 13003KT 2000 FU NSC 19/08 Q1017 NOSIG=
201812231230 METAR VIDP 231230Z 12003KT 1700 R28/P2000 R29/P2000 FU NSC 18/08 Q1017 NOSIG=
201812231300 METAR VIDP 231300Z 13003KT 1600 R28/P2000 R29/P2000 FU NSC 17/08 Q1017 NOSIG=
201812231305 METAR VIDP NIL=
201812231330 METAR COR VIDP 231330Z 00000KT 1600 R28/P2000 R29/P2000 FU NSC 15/09 Q1017 BECMG 1500 FU=
201812231400 METAR VIDP 231400Z 00000KT 1400 R28/P2000 R29/P2000 FU NSC 15/09 Q1017 NOSIG=
201812231430 METAR VIDP 231430Z 00000KT 1400 R28/P2000 R29/P2000 FU NSC 14/09 Q1018 NOSIG=
201812231500 METAR VIDP 231500Z 00000KT 1400 R28/P2000 R29/P2000 FU NSC 13/08 Q1018 NOSIG=
201812231530 METAR VIDP 231530Z 00000KT 1200 R28/2000 R29/2000 FU NSC 13/08 Q1018 NOSIG=
201812231600 METAR VIDP 231600Z 00000KT 1100 R28/2000 R29/1900 BR NSC 12/09 Q1018 NOSIG=
201812231605 METAR VIDP NIL=
201812231630 METAR VIDP 231630Z 00000KT 1100 R28/P2000 R29/P2000 BR NSC 12/09 Q1018 BECMG VIS 0800=
201812231700 METAR VIDP 231700Z 00000KT 1100 R28/P2000 R29/1800 BR NSC 12/09 Q1018 BECMG VIS 0800 MIFG=
201812231705 METAR VIDP NIL=
201812231730 METAR VIDP 231730Z 00000KT 1000 R28/P2000 R29/1800 BR NSC 12/09 Q1018 BECMG VIS 0800 MIFG=
201812231800 METAR VIDP 231800Z 00000KT 0800 R28/P2000 R29/P2000 MIFG NSC 12/08 Q1018 NOSIG=
201812231830 METAR VIDP 231830Z 00000KT 0800 R28/P2000 R29/P2000 MIFG NSC 11/08 Q1018 BECMG 0600 MIFG=
201812231900 METAR COR VIDP 231900Z 00000KT 0700 R28/P2000 R29/1600 MIFG NSC 11/08 Q1018 BECMG 0600 MIFG=
201812231930 METAR VIDP 231930Z 00000KT 0600 R28/P2000 R29/P2000 MIFG NSC 10/08 Q1018 NOSIG=
201812232000 METAR VIDP 232000Z 00000KT 0600 R28/P2000 R29/P2000 MIFG NSC 10/08 Q1018 NOSIG=
201812232005 METAR VIDP NIL=
201812232030 METAR VIDP 232030Z 00000KT 0500 R28/2000 R29/1700 MIFG NSC 09/08 Q1018 NOSIG=
201812232100 METAR VIDP 232100Z 00000KT 0500 R28/2000 R29/1400 MIFG NSC 09/08 Q1018 NOSIG=
201812232130 METAR VIDP 232130Z 00000KT 0400 R28/2000 R29/1500 FG NSC 09/08 Q1018 BECMG 0350 FG=
201812232200 METAR VIDP 232200Z 00000KT 0400 R28/2000 R29/1500 FG NSC 09/07 Q1018 BECMG 0350 FG=
201812232230 METAR VIDP 232230Z 00000KT 0400 R28/2000 R29/1500 FG NSC 08/07 Q1018 BECMG 0350 FG=
201812232300 METAR VIDP 232300Z 00000KT 0400 R28/2000 R29/0900 FG NSC 08/07 Q1017 BECMG 0350 FG=
201812232305 METAR VIDP NIL=
201812232330 METAR VIDP 232330Z 00000KT 0300 R28/2000 R29/0900 FG NSC 07/06 Q1017 NOSIG=
201812240000 METAR VIDP 240000Z 00000KT 0300 R28/1800 R29/0900 FG NSC 07/06 Q1017 NOSIG=
201812240030 METAR VIDP 240030Z 00000KT 0300 R28/1800 R29/1100 FG NSC 07/06 Q1017 NOSIG=
201812240100 METAR VIDP 240100Z 00000KT 0300 R28/1800 R29/1100 FG NSC 07/06 Q1017 NOSIG=
201812240130 METAR VIDP 240130Z 00000KT 0300 R28/1800 R29/0800 FG NSC 07/06 Q1018 NOSIG=
201812240200 METAR VIDP 240200Z 00000KT 0300 R28/1200 R29/0600 FG NSC 07/06 Q1018 NOSIG=
201812240205 METAR VIDP NIL=
201812240230 METAR VIDP 240230Z 00000KT 0500 R28/1100 R29/0800 MIFG NSC 09/08 Q1018 BECMG 0600 MIFG=
201812240300 METAR VIDP 240300Z 00000KT 0600 R28/1000 R29/0900 MIFG NSC 09/08 Q1018 BECMG 0800 MIFG=
201812240330 METAR VIDP 240330Z 00000KT 0600 R28/1000 R29/1100 MIFG NSC 11/09 Q1019 BECMG 0800 MIFG=
201812240400 METAR VIDP 240400Z 00000KT 0700 R28/0800 R29/1100 MIFG NSC 12/10 Q1019 NOSIG=
201812240430 METAR VIDP 240430Z 00000KT 0700 R28/0900 R29/1100 MIFG NSC 14/11 Q1020 BECMG 0800 MIFG=
201812240500 METAR VIDP 240500Z 00000KT 0800 R28/1000 R29/1300 FU NSC 16/10 Q1020 NOSIG=
201812240505 METAR VIDP NIL=
201812240530 METAR VIDP 240530Z 31004KT 0800 R28/1200 R29/1100 FU NSC 16/10 Q1020 NOSIG=
201812240600 METAR VIDP 240600Z 33005KT 0800 R28/1100 R29/1400 FU NSC 17/09 Q1019 NOSIG=
201812240630 METAR VIDP 240630Z 30006KT 0900 R28/1200 R29/1600 FU NSC 18/09 Q1019 NOSIG=
201812240700 METAR VIDP 240700Z 34004KT 1000 R28/1200 R29/1700 FU NSC 18/09 Q1018 NOSIG=
201812240705 METAR VIDP NIL=
201812240730 METAR VIDP 240730Z 30006KT 1200 R28/1400 R29/1800 FU NSC 19/09 Q1018 NOSIG=
201812240800 METAR VIDP 240800Z 32006KT 1200 R28/1600 R29/1800 FU NSC 19/07 Q1017 BECMG 1500 FU=
201812240805 METAR VIDP NIL=
201812240830 METAR VIDP 240830Z 30006KT 1500 R28/P2000 R29/P2000 FU NSC 20/07 Q1017 NOSIG=
201812240900 METAR VIDP 240900Z 31006KT 1500 R28/1800 R29/P2000 FU NSC 21/05 Q1017 NOSIG=
201812240930 METAR VIDP 240930Z 31006KT 1500 R28/1900 R29/P2000 FU NSC 21/04 Q1016 NOSIG=
201812241000 METAR VIDP 241000Z 32006KT 1500 R28/P2000 R29/P2000 FU NSC 20/05 Q1016 NOSIG=
201812241030 METAR VIDP 241030Z 31006KT 1500 R28/1900 R29/P2000 FU NSC 20/06 Q1016 NOSIG=
201812241100 METAR VIDP 241100Z 31005KT 1800 R28/P2000 R29/P2000 FU NSC 20/05 Q1016 NOSIG=
201812241130 METAR VIDP 241130Z 30004KT 1800 R28/P2000 R29/P2000 FU NSC 19/06 Q1016 BECMG 1500 FU=
201812241200 METAR VIDP 241200Z 30003KT 1500 R28/P2000 R29/P2000 FU NSC 18/06 Q1015 NOSIG=
201812241230 METAR VIDP 241230Z 28003KT 1500 R28/P2000 R29/P2000 FU NSC 17/07 Q1015 NOSIG=
201812241300 METAR VIDP 241300Z 32004KT 1500 R28/P2000 R29/P2000 FU NSC 16/08 Q1016 NOSIG=
201812241330 METAR VIDP 241330Z 31004KT 1500 R28/P2000 R29/P2000 FU NSC 15/08 Q1016 NOSIG=
201812241400 METAR VIDP 241400Z 00000KT 1500 R28/P2000 R29/P2000 FU NSC 14/08 Q1016 NOSIG=
201812241405 METAR VIDP NIL=
201812241430 METAR VIDP 241430Z 00000KT 1500 R28/P2000 R29/P2000 FU NSC 13/08 Q1016 NOSIG=
201812241500 METAR VIDP 241500Z 00000KT 1500 R28/P2000 R29/P2000 FU NSC 13/08 Q1016 NOSIG=
201812241530 METAR VIDP 241530Z 00000KT 1500 R28/P2000 R29/P2000 FU NSC 13/08 Q1016 NOSIG=
201812241600 METAR VIDP 241600Z 00000KT 1300 R28/P2000 R29/P2000 FU NSC 13/08 Q1017 NOSIG=
201812241630 METAR VIDP 241630Z 00000KT 1200 R28/P2000 R29/1800 BR NSC 12/09 Q1017 NOSIG=
201812241700 METAR VIDP 241700Z 00000KT 1200 R28/P2000 R29/1700 BR NSC 12/09 Q1018 NOSIG=
201812241730 METAR VIDP 241730Z 00000KT 1000 R28/1700 R29/P2000 BR NSC 12/09 Q1018 NOSIG=
201812241800 METAR VIDP 241800Z 00000KT 1000 R28/1600 R29/1600 BR NSC 12/09 Q1017 NOSIG=
201812241830 METAR VIDP 241830Z 00000KT 1000 R28/1600 R29/P2000 BR NSC 11/09 Q1017 NOSIG=
201812241900 METAR VIDP 241900Z 00000KT 1000 R28/1700 R29/P2000 BR NSC 11/09 Q1017 NOSIG=
201812241930 METAR VIDP 241930Z 00000KT 1000 R28/1800 R29/1900 BR NSC 10/09 Q1017 NOSIG=
201812242000 METAR VIDP 242000Z 00000KT 1000 R28/1600 R29/1600 BR NSC 10/09 Q1017 NOSIG=
201812242030 METAR VIDP 242030Z 00000KT 0900 R28/1600 R29/1500 BR NSC 09/09 Q1017 BECMG 0800 MIFG=
201812242100 METAR VIDP 242100Z 00000KT 0700 R28/1600 R29/1500 MIFG NSC 09/09 Q1017 BECMG 0600 MIFG=
201812242130 METAR VIDP 242130Z 00000KT 0600 R28/1500 R29/1200 MIFG NSC 09/09 Q1017 NOSIG=
201812242200 METAR VIDP 242200Z 25003KT 0600 R28/1900 R29/1150 MIFG NSC 09/09 Q1017 NOSIG=
201812242230 METAR VIDP 242230Z 25004KT 0600 R28/1500 R29/1200 MIFG NSC 09/09 Q1017 NOSIG=
201812242300 METAR VIDP 242300Z 25003KT 0500 R28/1500 R29/0800 FG NSC 08/08 Q1017 BECMG 0350 FG=
201812242330 METAR VIDP 242330Z 25003KT 0300 R28/1150 R29/0300 FG NSC 08/08 Q1017 BECMG 0150 FG=
201812250000 METAR VIDP 250000Z 24003KT 0200 R28/1100 R29/0625 FG NSC 08/08 Q1017 BECMG 0150 FG=
201812250030 METAR VIDP 250030Z 23004KT 0100 R28/1150 R29/0125 FG NSC 08/08 Q1017 NOSIG=
201812250100 METAR VIDP 250100Z 24004KT 0100 R28/1050 R29/0100 FG NSC 07/07 Q1017 NOSIG=
201812250130 METAR VIDP 250130Z 26005KT 0100 R28/0700 R29/0100 FG NSC 07/07 Q1017 NOSIG=
201812250205 METAR VIDP NIL=
201812250230 METAR VIDP 250230Z 24005KT 0000 R28/0000 R29/0075 FG VV/// 06/06 Q1018 NOSIG=
201812250300 METAR VIDP 250300Z 25005KT 0000 R28/0075 R29/0075 FG VV/// 06/06 Q1019 NOSIG=
201812250330 METAR VIDP 250330Z 25005KT 0000 R28/0100 R29/0100 FG VV/// 07/07 Q1019 NOSIG=
201812250400 METAR VIDP 250400Z 26005KT 0050 R28/0375 R29/0125 FG VV/// 07/07 Q1019 BECMG 0150 FG=
201812250430 METAR VIDP 250430Z 25006KT 0100 R28/0650 R29/0350 FG VV/// 08/08 Q1020 BECMG 0150 FG=
201812250500 METAR VIDP 250500Z 25005KT 0250 R28/1000 R29/0900 FG NSC 09/08 Q1019 BECMG 0350 FG=
201812250530 METAR VIDP 250530Z 25005KT 0500 R28/1000 R29/1100 FG NSC 09/08 Q1019 BECMG 0600 MIFG=
201812250600 METAR VIDP 250600Z 28006KT 0700 R28/1200 R29/1600 MIFG NSC 11/10 Q1019 BECMG 0800 MIFG=
201812250605 METAR VIDP NIL=
201812250630 METAR VIDP 250630Z 27006KT 0900 R28/1200 R29/1500 MIFG NSC 13/09 Q1018 NOSIG=
201812250700 METAR VIDP 250700Z 26006KT 1000 R28/1200 R29/1500 FU NSC 14/09 Q1018 NOSIG=
201812250730 METAR VIDP 250730Z 27007KT 1000 R28/1300 R29/1500 FU NSC 16/08 Q1017 NOSIG=
201812250800 METAR VIDP 250800Z 27007KT 1100 R28/1400 R29/1800 FU NSC 17/09 Q1017 BECMG 1500 FU=
201812250805 METAR VIDP NIL=
201812250830 METAR VIDP 250830Z 30010KT 1300 R28/1600 R29/1900 FU NSC 18/07 Q1016 BECMG 1500 FU=
201812250900 METAR VIDP 250900Z 28010KT 1500 R28/1700 R29/1900 FU NSC 18/07 Q1015 NOSIG=
201812250930 METAR VIDP 250930Z 29011KT 1500 R28/1700 R29/1800 FU NSC 18/07 Q1015 NOSIG=
201812251000 METAR VIDP 251000Z 29010KT 1500 R28/1600 R29/1800 FU NSC 18/07 Q1015 NOSIG=
201812251030 METAR VIDP 251030Z 30008KT 1500 R28/1700 R29/1700 FU NSC 18/07 Q1015 NOSIG=
201812251100 METAR VIDP 251100Z 27007KT 1500 R28/1800 R29/1900 FU NSC 18/08 Q1015 NOSIG=
201812251105 METAR VIDP NIL=
201812251130 METAR VIDP 251130Z 26006KT 1500 R28/1900 R29/2000 FU NSC 17/09 Q1015 NOSIG=
201812251200 METAR VIDP 251200Z 26004KT 1300 R28/1900 R29/2000 FU NSC 16/09 Q1015 NOSIG=
201812251230 METAR VIDP 251230Z 27004KT 1200 R28/P2000 R29/P2000 FU NSC 15/10 Q1015 NOSIG=
201812251300 METAR VIDP 251300Z 26004KT 1100 R28/P2000 R29/P2000 BR NSC 14/10 Q1015 BECMG 0800 MIFG=
201812251330 METAR VIDP 251330Z 26005KT 1000 R28/P2000 R29/P2000 BR NSC 13/09 Q1016 BECMG 0800 MIFG=
201812251400 METAR VIDP 251400Z 26004KT 0800 R28/P2000 R29/P2000 MIFG NSC 12/09 Q1016 NOSIG=
201812251430 METAR VIDP 251430Z 26004KT 0800 R28/P2000 R29/P2000 MIFG NSC 11/09 Q1016 NOSIG=
201812251500 METAR VIDP 251500Z 27004KT 0800 R28/P2000 R29/P2000 MIFG NSC 11/09 Q1017 NOSIG=
201812251530 METAR VIDP 251530Z 25003KT 0800 R28/P2000 R29/P2000 MIFG NSC 11/09 Q1017 NOSIG=
201812251600 METAR VIDP 251600Z 25003KT 0800 R28/P2000 R29/P2000 MIFG NSC 11/09 Q1017 NOSIG=
201812251605 METAR VIDP NIL=
201812251630 METAR VIDP 251630Z 24003KT 0800 R28/P2000 R29/P2000 MIFG NSC 11/09 Q1017 NOSIG=
201812251700 METAR VIDP 251700Z 23005KT 0700 R28/P2000 R29/P2000 MIFG NSC 11/09 Q1017 NOSIG=
201812251705 METAR VIDP NIL=
201812251730 METAR VIDP 251730Z 00000KT 0700 R28/P2000 R29/P2000 MIFG NSC 10/08 Q1017 NOSIG=
201812251800 METAR VIDP 251800Z 00000KT 0700 R28/P2000 R29/P2000 MIFG NSC 10/08 Q1017 NOSIG=
201812251830 METAR VIDP 251830Z 00000KT 0700 R28/P2000 R29/P2000 MIFG NSC 10/08 Q1016 BECMG 0600 MIFG=
201812251900 METAR VIDP 251900Z 00000KT 0600 R28/P2000 R29/P2000 MIFG NSC 08/07 Q1016 NOSIG=
201812251930 METAR VIDP 251930Z 00000KT 0600 R28/P2000 R29/P2000 MIFG NSC 08/07 Q1016 NOSIG=
201812252000 METAR VIDP 252000Z 00000KT 0600 R28/P2000 R29/P2000 MIFG NSC 08/07 Q1016 NOSIG=
201812252030 METAR VIDP 252030Z 00000KT 0500 R28/P2000 R29/1400 FG NSC 08/07 Q1016 NOSIG=
201812252100 METAR VIDP 252100Z 00000KT 0500 R28/1700 R29/1800 FG NSC 08/07 Q1016 NOSIG=
201812252130 METAR VIDP 252130Z 00000KT 0400 R28/1800 R29/1800 FG NSC 07/06 Q1016 NOSIG=
201812252200 METAR VIDP 252200Z 00000KT 0400 R28/P2000 R29/1700 FG NSC 07/07 Q1015 NOSIG=
201812252230 METAR VIDP 252230Z 00000KT 0200 R28/P2000 R29/1200 FG NSC 07/07 Q1015 BECMG 0150 FG=
201812252300 METAR VIDP 252300Z 00000KT 0150 R28/P2000 R29/0400 FG NSC 06/06 Q1015 NOSIG=
201812252330 METAR VIDP 252330Z 00000KT 0150 R28/P2000 R29/1500 FG NSC 05/05 Q1015 NOSIG=
201812260000 METAR VIDP 260000Z 00000KT 0150 R28/P2000 R29/0200 FG NSC 04/04 Q1015 NOSIG=
201812260030 METAR VIDP 260030Z 00000KT 0150 R28/P2000 R29/P2000 FG NSC 04/04 Q1015 NOSIG=
201812260100 METAR VIDP 260100Z 23004KT 0250 R28/P2000 R29/1800 FG NSC 04/04 Q1015 NOSIG=
201812260105 METAR VIDP NIL=
201812260130 METAR VIDP 260130Z 25005KT 0250 R28/P2000 R29/1400 FG NSC 04/04 Q1016 NOSIG=
201812260200 METAR VIDP 260200Z 24003KT 0250 R28/1400 R29/0700 FG NSC 04/04 Q1016 NOSIG=
201812260230 METAR VIDP 260230Z 00000KT 0600 R28/1100 R29/1000 MIFG NSC 07/06 Q1016 BECMG 0800 MIFG=
201812260300 METAR VIDP 260300Z 00000KT 0800 R28/1200 R29/1100 MIFG NSC 08/06 Q1016 NOSIG=
201812260330 METAR VIDP 260330Z 00000KT 0800 R28/1300 R29/1700 MIFG NSC 10/07 Q1016 NOSIG=
201812260400 METAR VIDP 260400Z 27004KT 0900 R28/1200 R29/2000 MIFG NSC 10/08 Q1017 NOSIG=
201812260405 METAR VIDP NIL=
201812260430 METAR VIDP 260430Z 27004KT 1000 R28/1200 R29/2000 MIFG NSC 11/08 Q1017 NOSIG=
201812260500 METAR VIDP 260500Z 27004KT 1200 R28/1500 R29/2000 FU NSC 13/07 Q1017 BECMG 1500 FU=
201812260505 METAR VIDP NIL=
201812260530 METAR VIDP 260530Z 29004KT 1300 R28/2000 R29/2000 FU NSC 14/07 Q1016 NOSIG=
201812260600 METAR VIDP 260600Z 29006KT 1400 R28/1600 R29/2000 FU NSC 16/07 Q1016 NOSIG=
201812260605 METAR VIDP NIL=
201812260630 METAR VIDP 260630Z 29006KT 1500 R28/1700 R29/2000 FU NSC 17/07 Q1016 NOSIG=
201812260700 METAR VIDP 260700Z 29005KT 1600 R28/1900 R29/P2000 FU NSC 18/06 Q1015 NOSIG=
201812260730 METAR VIDP 260730Z 31005KT 1700 R28/P2000 R29/P2000 FU NSC 18/05 Q1015 NOSIG=
201812260800 METAR VIDP 260800Z 29005KT 2200 FU NSC 19/05 Q1014 NOSIG=
201812260830 METAR VIDP 260830Z 28006KT 2500 FU NSC 19/04 Q1014 BECMG 3000 HZ=
201812260900 METAR VIDP 260900Z 29007KT 3000 HZ NSC 20/04 Q1014 NOSIG=
201812260905 METAR VIDP NIL=
201812260930 METAR VIDP 260930Z 29007KT 3000 HZ NSC 20/04 Q1014 NOSIG=
201812261000 METAR VIDP 261000Z 28006KT 3500 HZ NSC 20/04 Q1014 NOSIG=
201812261005 METAR VIDP NIL=
201812261030 METAR VIDP 261030Z 27005KT 3500 HZ NSC 20/04 Q1014 NOSIG=
201812261100 METAR VIDP 261100Z 28007KT 3500 HZ NSC 19/04 Q1014 NOSIG=
201812261105 METAR VIDP NIL=
201812261130 METAR VIDP 261130Z 27005KT 3500 HZ NSC 18/04 Q1014 NOSIG=
201812261200 METAR VIDP 261200Z 25004KT 3200 HZ NSC 17/04 Q1014 BECMG 3000 HZ=
201812261230 METAR VIDP 261230Z 26003KT 3000 HZ NSC 16/04 Q1015 NOSIG=
201812261300 METAR VIDP 261300Z 00000KT 3000 HZ NSC 15/04 Q1015 NOSIG=
201812261305 METAR VIDP NIL=
201812261330 METAR VIDP 261330Z 00000KT 3000 HZ NSC 14/04 Q1015 NOSIG=
201812261400 METAR VIDP 261400Z 00000KT 3000 HZ NSC 14/04 Q1015 NOSIG=
201812261430 METAR VIDP 261430Z 00000KT 3000 HZ NSC 12/04 Q1015 NOSIG=
201812261500 METAR VIDP 261500Z 00000KT 2500 FU NSC 12/05 Q1015 NOSIG=
201812261530 METAR VIDP 261530Z 00000KT 2500 FU NSC 12/04 Q1015 NOSIG=
201812261600 METAR VIDP 261600Z 17004KT 2200 FU NSC 12/04 Q1015 NOSIG=
201812261605 METAR VIDP NIL=
201812261630 METAR VIDP 261630Z 00000KT 2100 FU NSC 12/04 Q1015 NOSIG=
201812261700 METAR VIDP 261700Z 00000KT 1800 R28/P2000 R29/P2000 FU NSC 12/04 Q1015 NOSIG=
201812261705 METAR VIDP NIL=
201812261730 METAR VIDP 261730Z 00000KT 1800 R28/P2000 R29/P2000 FU NSC 11/04 Q1016 NOSIG=
201812261800 METAR VIDP 261800Z 00000KT 1800 R28/P2000 R29/P2000 FU NSC 11/05 Q1016 NOSIG=
201812261830 METAR VIDP 261830Z 00000KT 1800 R28/P2000 R29/P2000 FU NSC 11/05 Q1016 NOSIG=
201812261900 METAR VIDP 261900Z 00000KT 1800 R28/P2000 R29/P2000 FU NSC 10/05 Q1015 NOSIG=
201812261930 METAR COR VIDP 261930Z 00000KT 1800 R28/P2000 R29/P2000 BR NSC 09/05 Q1015 NOSIG=
201812262000 METAR VIDP 262000Z 00000KT 1800 R28/P2000 R29/P2000 BR NSC 09/05 Q1015 NOSIG=
201812262030 METAR VIDP 262030Z 00000KT 1800 R28/P2000 R29/P2000 BR NSC 08/04 Q1015 NOSIG=
201812262100 METAR VIDP 262100Z 00000KT 1800 R28/P2000 R29/P2000 BR NSC 08/05 Q1015 NOSIG=
201812262130 METAR VIDP 262130Z 00000KT 1800 R28/P2000 R29/P2000 BR NSC 08/05 Q1015 NOSIG=
201812262200 METAR VIDP 262200Z 00000KT 1800 R28/P2000 R29/P2000 BR NSC 08/05 Q1015 NOSIG=
201812262230 METAR VIDP 262230Z 09003KT 1800 R28/P2000 R29/P2000 BR NSC 08/05 Q1015 NOSIG=
201812262300 METAR VIDP 262300Z 00000KT 1800 R28/P2000 R29/P2000 BR NSC 07/05 Q1016 NOSIG=
201812262305 METAR VIDP NIL=
201812262330 METAR VIDP 262330Z 00000KT 1700 R28/P2000 R29/P2000 BR NSC 07/05 Q1016 BECMG 1500 BR=
201812270000 METAR VIDP 270000Z 09004KT 1700 R28/P2000 R29/P2000 BR NSC 07/05 Q1016 BECMG 1500 BR=
201812270030 METAR VIDP 270030Z 09004KT 1500 R28/P2000 R29/P2000 BR NSC 07/05 Q1016 NOSIG=
201812270100 METAR VIDP 270100Z 11004KT 1500 R28/P2000 R29/P2000 BR NSC 07/05 Q1016 NOSIG=
201812270130 METAR VIDP 270130Z 10005KT 1300 R28/P2000 R29/P2000 BR NSC 06/05 Q1017 NOSIG=
201812270200 METAR VIDP 270200Z 10004KT 1000 R28/1400 R29/1800 BR NSC 06/05 Q1017 BECMG 0800 MIFG=
201812270230 METAR VIDP 270230Z 07004KT 0800 R28/1200 R29/1600 MIFG NSC 07/05 Q1017 NOSIG=
201812270300 METAR VIDP 270300Z 09003KT 0800 R28/1100 R29/1700 MIFG NSC 09/06 Q1018 NOSIG=
201812270330 METAR VIDP 270330Z 09005KT 0900 R28/1200 R29/2000 FU NSC 11/06 Q1018 NOSIG=
201812270400 METAR VIDP 270400Z 10005KT 0900 R28/1300 R29/2000 FU NSC 13/06 Q1019 NOSIG=
201812270405 METAR VIDP NIL=
201812270430 METAR VIDP 270430Z 11005KT 1100 R28/1500 R29/P2000 FU NSC 15/05 Q1019 NOSIG=
201812270500 METAR VIDP 270500Z 14004KT 1200 R28/1600 R29/P2000 FU NSC 16/05 Q1019 NOSIG=
201812270505 METAR VIDP NIL=
201812270530 METAR VIDP 270530Z 18004KT 1200 R28/P2000 R29/P2000 FU NSC 17/05 Q1018 NOSIG=
201812270600 METAR VIDP 270600Z 22004KT 1200 R28/P2000 R29/P2000 FU NSC 18/05 Q1018 NOSIG=
201812270605 METAR VIDP NIL=
201812270630 METAR VIDP 270630Z 25004KT 1200 R28/1700 R29/P2000 FU NSC 18/05 Q1018 NOSIG=
201812270700 METAR VIDP 270700Z 27005KT 1200 R28/1600 R29/P2000 FU NSC 18/05 Q1017 NOSIG=
201812270705 METAR VIDP NIL=
201812270730 METAR VIDP 270730Z 26005KT 1200 R28/P2000 R29/P2000 FU NSC 19/04 Q1017 BECMG 1500 FU=
201812270800 METAR VIDP 270800Z 27006KT 1500 R28/P2000 R29/P2000 FU NSC 19/04 Q1016 NOSIG=
201812270805 METAR VIDP NIL=
201812270830 METAR VIDP 270830Z 28006KT 1500 R28/P2000 R29/P2000 FU NSC 19/04 Q1016 NOSIG=
201812270900 METAR VIDP 270900Z 28004KT 1700 R28/P2000 R29/P2000 FU NSC 19/04 Q1016 NOSIG=
201812270905 METAR VIDP NIL=
201812270930 METAR VIDP 270930Z 28007KT 2200 HZ NSC 20/04 Q1016 BECMG 3000 HZ=
201812271000 METAR VIDP 271000Z 27007KT 3000 HZ NSC 20/03 Q1016 NOSIG=
201812271005 METAR VIDP NIL=
201812271030 METAR VIDP 271030Z 31006KT 3000 HZ NSC 19/05 Q1016 NOSIG=
201812271100 METAR VIDP 271100Z 29006KT 2500 HZ NSC 18/05 Q1016 NOSIG=
201812271105 METAR VIDP NIL=
201812271130 METAR VIDP 271130Z 31008KT 2500 HZ NSC 18/05 Q1016 NOSIG=
201812271200 METAR VIDP 271200Z 32006KT 2500 HZ NSC 17/05 Q1016 NOSIG=
201812271230 METAR VIDP 271230Z 30005KT 2500 HZ NSC 16/05 Q1016 NOSIG=
201812271300 METAR VIDP 271300Z 30004KT 2200 HZ NSC 15/05 Q1016 NOSIG=
201812271305 METAR VIDP NIL=
201812271330 METAR VIDP 271330Z 31006KT 1800 R28/P2000 R29/P2000 HZ NSC 15/05 Q1016 BECMG 1500 HZ=
201812271400 METAR VIDP 271400Z 30005KT 1600 R28/P2000 R29/P2000 HZ NSC 15/06 Q1016 BECMG 1500 HZ=
201812271430 METAR VIDP 271430Z 29005KT 1500 R28/P2000 R29/P2000 HZ NSC 14/06 Q1017 NOSIG=
201812271501 METAR VIDP 271501Z 25004KT 1200 R28/P2000 R29/P2000 HZ NSC 13/06 Q1017 NOSIG=
201812271530 METAR VIDP 271530Z 28005KT 1200 R28/P2000 R29/P2000 HZ NSC 12/06 Q1017 NOSIG=
201812271600 METAR VIDP 271600Z 28005KT 1200 R28/P2000 R29/P2000 HZ NSC 12/06 Q1017 NOSIG=
201812271630 METAR VIDP 271630Z 27004KT 1200 R28/P2000 R29/P2000 HZ NSC 12/06 Q1017 NOSIG=
201812271705 METAR VIDP NIL=
201812271730 METAR VIDP 271730Z 26003KT 1000 R28/P2000 R29/P2000 HZ NSC 11/06 Q1016 NOSIG=
201812271800 METAR VIDP 271800Z 24003KT 1000 R28/P2000 R29/P2000 BR NSC 10/06 Q1016 BECMG 0800 MIFG=
201812271805 METAR VIDP NIL=
201812271830 METAR VIDP 271830Z 24004KT 1000 R28/P2000 R29/P2000 BR NSC 10/07 Q1016 BECMG 0800 MIFG=
201812271900 METAR VIDP 271900Z 25004KT 0800 R28/P2000 R29/P2000 MIFG NSC 09/07 Q1016 NOSIG=
201812271930 METAR VIDP 271930Z 25004KT 0700 R28/P2000 R29/P2000 MIFG NSC 09/07 Q1016 BECMG 0600 MIFG=
201812272000 METAR VIDP 272000Z 24004KT 0600 R28/1800 R29/1700 MIFG NSC 08/06 Q1016 NOSIG=
201812272005 METAR VIDP NIL=
201812272030 METAR VIDP 272030Z 25005KT 0500 R28/1700 R29/1700 MIFG NSC 08/06 Q1016 NOSIG=
201812272100 METAR VIDP 272100Z 25004KT 0500 R28/1600 R29/1600 MIFG NSC 08/06 Q1016 NOSIG=
201812272130 METAR VIDP 272130Z 25004KT 0500 R28/1400 R29/1400 MIFG NSC 07/06 Q1016 NOSIG=
201812272200 METAR VIDP 272200Z 25004KT 0400 R28/1500 R29/1400 FG NSC 07/06 Q1016 BECMG 0350 FG=
201812272230 METAR VIDP 272230Z 23004KT 0350 R28/1400 R29/1500 FG NSC 07/06 Q1015 NOSIG=
201812272300 METAR VIDP 272300Z 26005KT 0200 R28/1400 R29/0500 FG NSC 06/06 Q1015 BECMG 0150 FG=
201812272330 METAR VIDP 272330Z 25004KT 0200 R28/1400 R29/0500 FG NSC 06/06 Q1015 BECMG 0150 FG=
201812280000 METAR VIDP 280000Z 24004KT 0300 R28/1300 R29/1000 FG NSC 06/06 Q1016 BECMG 0150 FG=
201812280005 METAR VIDP NIL=
201812280030 METAR VIDP 280030Z 25004KT 0300 R28/1400 R29/1000 FG NSC 06/06 Q1016 BECMG 0150 FG=
201812280100 METAR COR VIDP 280100Z 25005KT 0300 R28/1400 R29/1000 FG NSC 06/06 Q1016 NOSIG=
201812280105 METAR VIDP NIL=
201812280130 METAR VIDP 280130Z 24004KT 0300 R28/1500 R29/1500 FG NSC 06/06 Q1017 NOSIG=
201812280200 METAR VIDP 280200Z 26004KT 0300 R28/1200 R29/1200 FG NSC 06/06 Q1017 NOSIG=
201812280205 METAR VIDP NIL=
201812280230 METAR VIDP 280230Z 24005KT 0300 R28/1400 R29/1200 FG NSC 06/06 Q1017 NOSIG=
201812280300 METAR VIDP 280300Z 27003KT 0300 R28/1300 R29/1300 FG NSC 07/07 Q1018 BECMG 0350 FG=
201812280305 METAR VIDP NIL=
201812280330 METAR VIDP 280330Z 27005KT 0600 R28/1400 R29/1700 MIFG NSC 08/07 Q1019 NOSIG=
201812280400 METAR VIDP 280400Z 28006KT 0600 R28/1200 R29/2000 MIFG NSC 08/06 Q1019 BECMG 0800 MIFG=
201812280405 METAR VIDP NIL=
201812280430 METAR VIDP 280430Z 26006KT 0800 R28/1200 R29/2000 MIFG NSC 09/07 Q1019 NOSIG=
201812280500 METAR VIDP 280500Z 29005KT 1000 R28/1200 R29/1700 BR NSC 10/07 Q1019 NOSIG=
201812280505 METAR VIDP NIL=
201812280530 METAR VIDP 280530Z 28008KT 1000 R28/1200 R29/1500 BR NSC 12/09 Q1019 NOSIG=
201812280600 METAR VIDP 280600Z 27008KT 1000 R28/1200 R29/1500 BR NSC 13/09 Q1018 NOSIG=
201812280605 METAR VIDP NIL=
201812280630 METAR VIDP 280630Z 30008KT 1000 R28/1200 R29/1500 HZ NSC 14/07 Q1018 NOSIG=
201812280700 METAR VIDP 280700Z 29008KT 1000 R28/1200 R29/1400 HZ NSC 15/07 Q1017 NOSIG=
201812280705 METAR VIDP NIL=
201812280730 METAR VIDP 280730Z 31008KT 1000 R28/1200 R29/1700 HZ NSC 16/06 Q1017 NOSIG=
201812280800 METAR VIDP 280800Z 29010KT 1200 R28/1300 R29/1900 HZ NSC 17/05 Q1016 NOSIG=
201812280830 METAR VIDP 280830Z 28009KT 1400 R28/1400 R29/P2000 FU NSC 17/06 Q1016 BECMG 1500 FU=
201812280900 METAR VIDP 280900Z 28009KT 1500 R28/1500 R29/1800 FU NSC 17/06 Q1016 NOSIG=
201812280905 METAR VIDP NIL=
201812280930 METAR VIDP 280930Z 29008KT 1500 R28/1500 R29/1700 FU NSC 18/05 Q1016 NOSIG=
201812281000 METAR VIDP 281000Z 30008KT 1600 R28/1800 R29/1900 FU NSC 18/04 Q1016 NOSIG=
201812281030 METAR VIDP 281030Z 31010KT 1800 R28/1800 R29/P2000 FU NSC 18/04 Q1016 NOSIG=
201812281100 METAR VIDP 281100Z 28008KT 1800 R28/P2000 R29/P2000 FU NSC 17/04 Q1016 NOSIG=
201812281105 METAR VIDP NIL=
201812281130 METAR VIDP 281130Z 27008KT 2100 FU NSC 16/05 Q1016 NOSIG=
201812281200 METAR VIDP 281200Z 27006KT 2100 FU NSC 15/05 Q1017 NOSIG=
201812281205 METAR VIDP NIL=
201812281230 METAR VIDP 281230Z 27006KT 1800 R28/P2000 R29/P2000 FU NSC 15/06 Q1017 NOSIG=
201812281300 METAR VIDP 281300Z 26004KT 1600 R28/P2000 R29/P2000 FU NSC 14/06 Q1017 BECMG 1500 FU=
201812281330 METAR VIDP 281330Z 26005KT 1500 R28/P2000 R29/P2000 FU NSC 13/06 Q1018 NOSIG=
201812281400 METAR VIDP 281400Z 27004KT 1500 R28/P2000 R29/P2000 FU NSC 13/06 Q1018 NOSIG=
201812281405 METAR VIDP NIL=
201812281430 METAR VIDP 281430Z 25004KT 1500 R28/P2000 R29/P2000 FU NSC 12/06 Q1018 NOSIG=
201812281500 METAR VIDP 281500Z 00000KT 1500 R28/P2000 R29/P2000 FU NSC 11/06 Q1018 NOSIG=
201812281530 METAR VIDP 281530Z 00000KT 1500 R28/P2000 R29/P2000 FU NSC 11/06 Q1018 NOSIG=
201812281600 METAR VIDP 281600Z 00000KT 1500 R28/P2000 R29/P2000 FU NSC 11/06 Q1019 NOSIG=
201812281630 METAR VIDP 281630Z 00000KT 1500 R28/P2000 R29/P2000 FU NSC 11/06 Q1019 NOSIG=
201812281700 METAR VIDP 281700Z 00000KT 1500 R28/P2000 R29/P2000 BR NSC 10/06 Q1019 NOSIG=
201812281730 METAR VIDP 281730Z 24003KT 1500 R28/P2000 R29/P2000 BR NSC 10/06 Q1019 NOSIG=
201812281800 METAR VIDP 281800Z 25003KT 1300 R28/P2000 R29/P2000 BR NSC 09/06 Q1019 NOSIG=
201812281830 METAR VIDP 281830Z 00000KT 1300 R28/P2000 R29/P2000 BR NSC 09/06 Q1018 NOSIG=
201812281900 METAR VIDP 281900Z 00000KT 1300 R28/P2000 R29/P2000 BR NSC 09/06 Q1018 NOSIG=
201812281930 METAR VIDP 281930Z 00000KT 1300 R28/1900 R29/P2000 BR NSC 08/06 Q1018 NOSIG=
201812282000 METAR VIDP 282000Z 00000KT 1300 R28/P2000 R29/1700 BR NSC 08/06 Q1018 NOSIG=
201812282100 METAR VIDP 282100Z 00000KT 1300 R28/P2000 R29/1900 BR NSC 07/05 Q1018 NOSIG=
201812282130 METAR VIDP 282130Z 00000KT 1300 R28/P2000 R29/1700 BR NSC 07/05 Q1018 NOSIG=
201812282200 METAR VIDP 282200Z 00000KT 1300 R28/P2000 R29/P2000 BR NSC 07/05 Q1018 NOSIG=
201812282230 METAR VIDP 282230Z 00000KT 1300 R28/P2000 R29/P2000 BR NSC 07/05 Q1017 NOSIG=
201812282300 METAR VIDP 282300Z 27004KT 1300 R28/P2000 R29/P2000 BR NSC 07/05 Q1017 NOSIG=
201812282330 METAR VIDP 282330Z 25003KT 1300 R28/P2000 R29/P2000 BR NSC 06/05 Q1017 NOSIG=
201812290000 METAR VIDP 290000Z 24003KT 1300 R28/P2000 R29/P2000 BR NSC 06/05 Q1017 NOSIG=
201812290030 METAR VIDP 290030Z 26003KT 1300 R28/P2000 R29/P2000 BR NSC 06/05 Q1018 NOSIG=
201812290100 METAR VIDP 290100Z 26004KT 1200 R28/P2000 R29/P2000 BR NSC 06/05 Q1018 NOSIG=
201812290130 METAR VIDP 290130Z 27004KT 1000 R28/P2000 R29/P2000 BR NSC 06/05 Q1019 BECMG 0800 MIFG=
201812290200 METAR VIDP 290200Z 27004KT 0800 R28/P2000 R29/1900 MIFG NSC 05/04 Q1019 NOSIG=
201812290205 METAR VIDP NIL=
201812290230 METAR VIDP 290230Z 27004KT 1200 R28/1700 R29/2000 BR NSC 05/03 Q1020 NOSIG=
201812290300 METAR VIDP 290300Z 00000KT 1200 R28/1500 R29/P2000 BR NSC 07/05 Q1020 NOSIG=
201812290305 METAR VIDP NIL=
201812290330 METAR VIDP 290330Z 00000KT 1200 R28/1400 R29/P2000 BR NSC 08/05 Q1020 NOSIG=
201812290400 METAR VIDP 290400Z 25005KT 1400 R28/1500 R29/P2000 FU NSC 10/04 Q1021 BECMG 1500 FU=
201812290405 METAR VIDP NIL=
201812290430 METAR VIDP 290430Z 27006KT 1500 R28/1500 R29/P2000 FU NSC 10/04 Q1021 NOSIG=
201812290500 METAR VIDP 290500Z 27006KT 1500 R28/1700 R29/P2000 FU NSC 13/05 Q1021 NOSIG=
201812290505 METAR VIDP NIL=
201812290530 METAR VIDP 290530Z 26006KT 1700 R28/P2000 R29/P2000 FU NSC 14/04 Q1021 NOSIG=
201812290600 METAR VIDP 290600Z 29006KT 2100 FU NSC 13/05 Q1020 NOSIG=
201812290605 METAR VIDP NIL=
201812290630 METAR VIDP 290630Z 28006KT 2100 FU NSC 16/04 Q1020 NOSIG=
201812290700 METAR VIDP 290700Z 29007KT 2100 FU NSC 17/03 Q1019 NOSIG=
201812290705 METAR VIDP NIL=
201812290730 METAR VIDP 290730Z 30008KT 2100 FU NSC 17/03 Q1019 NOSIG=
201812290800 METAR VIDP 290800Z 29007KT 2100 FU NSC 18/03 Q1018 NOSIG=
201812290805 METAR VIDP NIL=
201812290830 METAR VIDP 290830Z 29008KT 2100 FU NSC 19/03 Q1018 NOSIG=
201812290900 METAR VIDP 290900Z 30008KT 2100 FU NSC 19/02 Q1018 NOSIG=
201812290905 METAR VIDP NIL=
201812290930 METAR VIDP 290930Z 30008KT 2500 FU NSC 19/02 Q1018 NOSIG=
201812291000 METAR VIDP 291000Z 29008KT 2500 FU NSC 19/02 Q1018 NOSIG=
201812291005 METAR VIDP NIL=
201812291030 METAR VIDP 291030Z 28007KT 2500 FU NSC 19/03 Q1018 NOSIG=
201812291100 METAR VIDP 291100Z 27007KT 2500 FU NSC 18/04 Q1018 NOSIG=
201812291130 METAR VIDP 291130Z 26006KT 2500 FU NSC 18/04 Q1019 NOSIG=
201812291200 METAR VIDP 291200Z 26004KT 2500 FU NSC 17/04 Q1019 NOSIG=
201812291230 METAR VIDP 291230Z 27003KT 2500 FU NSC 16/04 Q1019 NOSIG=
201812291300 METAR VIDP 291300Z 27004KT 2200 FU NSC 15/04 Q1020 NOSIG=
201812291305 METAR VIDP NIL=
201812291330 METAR VIDP 291330Z 26003KT 2200 FU NSC 14/05 Q1020 NOSIG=
201812291400 METAR VIDP 291400Z 00000KT 1800 R28/P2000 R29/P2000 FU NSC 14/05 Q1020 NOSIG=
201812291405 METAR VIDP NIL=
201812291430 METAR VIDP 291430Z 00000KT 1600 R28/P2000 R29/P2000 FU NSC 14/06 Q1020 BECMG 1500 FU=
201812291500 METAR VIDP 291500Z 00000KT 1300 R28/P2000 R29/P2000 FU NSC 13/07 Q1021 NOSIG=
201812291505 METAR VIDP NIL=
201812291530 METAR VIDP 291530Z 00000KT 1300 R28/P2000 R29/P2000 BR NSC 12/08 Q1021 NOSIG=
201812291600 METAR VIDP 291600Z 00000KT 1200 R28/P2000 R29/P2000 BR NSC 11/08 Q1021 NOSIG=
201812291630 METAR VIDP 291630Z 00000KT 1200 R28/P2000 R29/P2000 BR NSC 11/08 Q1021 NOSIG=
201812291700 METAR VIDP 291700Z 00000KT 1000 R28/P2000 R29/P2000 BR NSC 10/07 Q1021 NOSIG=
201812291705 METAR VIDP NIL=
201812291730 METAR VIDP 291730Z 00000KT 1000 R28/P2000 R29/P2000 BR NSC 10/07 Q1021 NOSIG=
201812291800 METAR VIDP 291800Z 00000KT 1000 R28/P2000 R29/P2000 BR NSC 10/07 Q1021 NOSIG=
201812291805 METAR VIDP NIL=
201812291830 METAR VIDP 291830Z 00000KT 1000 R28/P2000 R29/P2000 BR NSC 10/07 Q1021 NOSIG=
201812291900 METAR VIDP 291900Z 00000KT 0900 R28/P2000 R29/P2000 BR NSC 09/06 Q1021 BECMG 0800 MIFG=
201812291905 METAR VIDP NIL=
201812291930 METAR VIDP 291930Z 00000KT 0800 R28/P2000 R29/P2000 MIFG NSC 09/06 Q1020 NOSIG=
201812292000 METAR VIDP 292000Z 00000KT 0700 R28/P2000 R29/1700 MIFG NSC 08/06 Q1020 BECMG 0600 MIFG=
201812292030 METAR VIDP 292030Z 00000KT 0600 R28/P2000 R29/1600 MIFG NSC 08/06 Q1020 NOSIG=
201812292100 METAR VIDP 292100Z 00000KT 0500 R28/P2000 R29/1600 FG NSC 08/06 Q1020 NOSIG=
201812292130 METAR VIDP 292130Z 00000KT 0500 R28/1900 R29/1200 FG NSC 08/06 Q1020 NOSIG=
201812292200 METAR VIDP 292200Z 00000KT 0500 R28/1900 R29/1200 FG NSC 08/06 Q1020 NOSIG=
201812292205 METAR VIDP NIL=
201812292230 METAR VIDP 292230Z 00000KT 0500 R28/P2000 R29/P2000 FG NSC 05/05 Q1020 NOSIG=
201812292300 METAR VIDP 292300Z 00000KT 0500 R28/P2000 R29/1800 FG NSC 05/05 Q1020 NOSIG=
201812292330 METAR VIDP 292330Z 00000KT 0400 R28/P2000 R29/1100 FG NSC 04/04 Q1020 BECMG 0350 FG=
201812300000 METAR VIDP 300000Z 00000KT 0400 R28/P2000 R29/P2000 FG NSC 04/04 Q1020 BECMG 0350 FG=
201812300005 METAR VIDP NIL=
201812300030 METAR VIDP 300030Z 00000KT 0500 R28/P2000 R29/1800 FG NSC 04/03 Q1020 NOSIG=
201812300100 METAR VIDP 300100Z 00000KT 0500 R28/P2000 R29/1900 FG NSC 04/04 Q1020 NOSIG=
201812300130 METAR VIDP 300130Z 00000KT 0500 R28/P2000 R29/P2000 FG NSC 04/04 Q1021 NOSIG=
201812300200 METAR VIDP 300200Z 27004KT 0400 R28/1600 R29/0900 FG NSC 03/03 Q1021 BECMG 0350 FG=
201812300205 METAR VIDP NIL=
201812300230 METAR COR VIDP 300230Z 00000KT 0400 R28/0800 R29/0700 FG NSC 06/04 Q1021 BECMG 0600 MIFG=
201812300300 METAR VIDP 300300Z 00000KT 0600 R28/1100 R29/0800 MIFG NSC 08/05 Q1022 NOSIG=
201812300305 METAR VIDP NIL=
201812300330 METAR VIDP NIL=
201812300400 METAR VIDP 300400Z 00000KT 1000 R28/1200 R29/1500 BR NSC 11/06 Q1023 NOSIG=
201812300405 METAR VIDP NIL=
201812300430 METAR VIDP 300430Z 00000KT 1000 R28/1300 R29/1600 FU NSC 13/06 Q1023 NOSIG=
201812300500 METAR VIDP 300500Z 00000KT 1000 R28/1500 R29/2000 FU NSC 15/09 Q1023 NOSIG=
201812300505 METAR VIDP NIL=
201812300530 METAR VIDP 300530Z 00000KT 1000 R28/1600 R29/2000 FU NSC 16/06 Q1023 NOSIG=
201812300600 METAR VIDP 300600Z 24004KT 1200 R28/1600 R29/2000 FU NSC 16/06 Q1023 NOSIG=
201812300605 METAR VIDP NIL=
201812300630 METAR VIDP 300630Z 28003KT 1200 R28/1600 R29/2000 FU NSC 18/06 Q1022 BECMG VIS 1500=
201812300700 METAR VIDP 300700Z 26004KT 1800 R28/2000 R29/2000 FU NSC 19/05 Q1021 NOSIG=
201812300705 METAR VIDP NIL=
201812300730 METAR VIDP 300730Z 26004KT 1800 R28/2000 R29/2000 FU NSC 20/04 Q1021 NOSIG=
201812300800 METAR VIDP 300800Z VRB02KT 2100 FU NSC 20/02 Q1021 NOSIG=
201812300805 METAR VIDP NIL=
201812300830 METAR VIDP 300830Z 28004KT 2100 FU NSC 21/04 Q1021 NOSIG=
201812300900 METAR VIDP 300900Z 28004KT 2500 FU NSC 21/05 Q1021 NOSIG=
201812300905 METAR VIDP NIL=
201812300930 METAR VIDP 300930Z 28004KT 2500 FU NSC 21/05 Q1021 NOSIG=
201812301000 METAR VIDP 301000Z 30005KT 2800 FU NSC 21/05 Q1020 BECMG 3000 HZ=
201812301005 METAR VIDP NIL=
201812301030 METAR VIDP 301030Z 31004KT 3000 HZ NSC 21/05 Q1020 NOSIG=
201812301100 METAR VIDP 301100Z 31004KT 3000 HZ NSC 21/05 Q1020 NOSIG=
201812301105 METAR VIDP NIL=
201812301130 METAR VIDP 301130Z 29004KT 3000 HZ FEW100 20/06 Q1020 NOSIG=
201812301200 METAR VIDP 301200Z 28003KT 2800 HZ FEW100 19/06 Q1021 NOSIG=
201812301205 METAR VIDP NIL=
201812301230 METAR VIDP 301230Z 00000KT 2800 HZ SCT100 17/07 Q1021 NOSIG=
201812301300 METAR VIDP 301300Z 26004KT 2800 HZ SCT100 16/07 Q1021 NOSIG=
201812301305 METAR VIDP NIL=
201812301330 METAR VIDP 301330Z 00000KT 2800 HZ SCT100 15/07 Q1021 NOSIG=
201812301400 METAR VIDP 301400Z 00000KT 2500 HZ FEW100 14/08 Q1022 NOSIG=
201812301405 METAR VIDP NIL=
201812301430 METAR VIDP 301430Z 00000KT 2500 HZ FEW100 14/08 Q1022 NOSIG=
201812301500 METAR VIDP 301500Z 00000KT 2500 HZ FEW100 13/07 Q1022 NOSIG=
201812301505 METAR VIDP NIL=
201812301530 METAR VIDP NIL=
201812301600 METAR VIDP 301600Z 00000KT 2000 HZ NSC 11/05 Q1022 NOSIG=
201812301605 METAR VIDP NIL=
201812301630 METAR VIDP 301630Z 00000KT 1800 R28/P2000 R29/P2000 FU NSC 11/05 Q1022 BECMG 1500 FU=
201812301700 METAR VIDP 301700Z 00000KT 1500 R28/P2000 R29/P2000 FU NSC 11/05 Q1022 NOSIG=
201812301705 METAR VIDP NIL=
201812301730 METAR VIDP 301730Z 00000KT 1500 R28/P2000 R29/P2000 FU NSC 11/06 Q1022 NOSIG=
201812301800 METAR VIDP 301800Z 00000KT 1500 R28/P2000 R29/P2000 FU NSC 11/06 Q1022 NOSIG=
201812301805 METAR VIDP NIL=
201812301830 METAR VIDP NIL=
201812301900 METAR VIDP 301900Z 00000KT 1500 R28/P2000 R29/P2000 BR NSC 10/06 Q1022 NOSIG=
201812301930 METAR VIDP NIL=
201812302000 METAR VIDP 302000Z 00000KT 1200 R28/P2000 R29/P2000 BR NSC 09/06 Q1021 NOSIG=
201812302005 METAR VIDP NIL=
201812302030 METAR VIDP 302030Z 00000KT 1200 R28/P2000 R29/P2000 BR NSC 09/06 Q1021 NOSIG=
201812302105 METAR VIDP NIL=
201812302130 METAR VIDP NIL=
201812302205 METAR VIDP NIL=
201812302230 METAR VIDP NIL=
201812302305 METAR VIDP NIL=
201812302330 METAR VIDP NIL=
