##########################################################
# Query made at 12/13/2025 04:31:03 UTC
# Time interval: from 12/10/2019 00:00  to 12/30/2019 23:59  UTC
##########################################################

##########################################################
# VIDP, New Delhi / Palam (India)
# WMO index: 42181. WIGOS ID: 0-20000-0-42181
# Latitude 28-34-00N. Longitude 077-07-00E. Altitude 225 m.
##########################################################

###################################
#  METAR/SPECI from VIDP
###################################
201912100000 METAR VIDP 100000Z 00000KT 0700 R28/2000 R29/1800 MIFG NSC 11/09 Q1016 BECMG 0600 MIFG=
201912100030 METAR VIDP 100030Z 00000KT 0500 R28/P2000 R29/1900 FG NSC 11/09 Q1016 NOSIG=
201912100100 METAR VIDP 100100Z 00000KT 0500 R28/P2000 R29/1600 FG NSC 11/09 Q1016 TEMPO 0350 FG=
201912100130 METAR VIDP 100130Z 00000KT 0300 R28/P2000 R29/2000 FG NSC 11/09 Q1016 TEMPO 0150 FG=
201912100200 METAR VIDP 100200Z 24003KT 0300 R28/1200 R29/1150 FG NSC 11/09 Q1016 NOSIG=
201912100230 METAR VIDP 100230Z 26003KT 0300 R28/1200 R29/1150 FG NSC 11/09 Q1017 NOSIG=
201912100300 METAR VIDP 100300Z 00000KT 0300 R28/1050 R29/1150 FG NSC 12/09 Q1017 BECMG 0350 FG=
201912100330 METAR VIDP 100330Z 00000KT 0300 R28/1050 R29/1150 FG NSC 12/09 Q1017 BECMG 0350 FG=
201912100400 METAR VIDP 100400Z 23003KT 0600 R28/1100 R29/1400 MIFG NSC 13/10 Q1017 BECMG 0800 MIFG=
201912100430 METAR VIDP 100430Z 25003KT 0900 R28/1150 R29/1400 MIFG NSC 14/10 Q1017 NOSIG=
201912100500 METAR VIDP 100500Z 27004KT 0900 R28/1200 R29/1600 MIFG NSC 14/10 Q1018 NOSIG=
201912100505 METAR VIDP NIL=
201912100530 METAR VIDP 100530Z 24004KT 1000 R28/1200 R29/1700 FU NSC 18/10 Q1017 NOSIG=
201912100600 METAR VIDP 100600Z 28005KT 1100 R28/1300 R29/2000 FU NSC 19/09 Q1017 NOSIG=
201912100630 METAR VIDP 100630Z 27004KT 1100 R28/1500 R29/1800 FU NSC 20/09 Q1017 NOSIG=
201912100700 METAR VIDP 100700Z 30006KT 1100 R28/1700 R29/2000 FU NSC 20/09 Q1016 NOSIG=
201912100705 METAR VIDP NIL=
201912100730 METAR VIDP 100730Z 27005KT 1200 R28/1800 R29/2000 FU NSC 21/09 Q1015 NOSIG=
201912100800 METAR VIDP 100800Z 26005KT 1200 R28/1800 R29/2000 FU NSC 21/09 Q1015 NOSIG=
201912100805 METAR VIDP NIL=
201912100830 METAR VIDP 100830Z 29005KT 1200 R28/1900 R29/1800 FU NSC 21/08 Q1014 NOSIG=
201912100900 METAR VIDP 100900Z 30005KT 1200 R28/P2000 R29/1800 FU NSC 22/08 Q1014 NOSIG=
201912100930 METAR VIDP 100930Z 30004KT 1200 R28/P2000 R29/1900 FU NSC 22/07 Q1014 NOSIG=
201912101000 METAR VIDP 101000Z 27003KT 1400 R28/1900 R29/1700 FU NSC 22/07 Q1013 BECMG 1500 FU=
201912101030 METAR VIDP 101030Z 00000KT 1500 R28/P2000 R29/1900 FU NSC 22/07 Q1012 NOSIG=
201912101100 METAR VIDP 101100Z 00000KT 1500 R28/P2000 R29/P2000 FU NSC 22/07 Q1012 NOSIG=
201912101130 METAR VIDP 101130Z 28004KT 1600 R28/P2000 R29/P2000 FU NSC 21/08 Q1013 NOSIG=
201912101200 METAR VIDP 101200Z 27003KT 1800 R28/P2000 R29/P2000 FU NSC 20/08 Q1013 NOSIG=
201912101230 METAR VIDP 101230Z 27004KT 2200 FU NSC 19/08 Q1013 NOSIG=
201912101300 METAR VIDP 101300Z 00000KT 2200 FU NSC 18/08 Q1013 NOSIG=
201912101330 METAR VIDP 101330Z 00000KT 2200 FU NSC 17/09 Q1013 NOSIG=
201912101400 METAR VIDP 101400Z 00000KT 2200 FU NSC 17/09 Q1013 NOSIG=
201912101430 METAR VIDP 101430Z 00000KT 2200 FU NSC 17/09 Q1014 NOSIG=
201912101500 METAR VIDP 101500Z 00000KT 2000 FU NSC 17/10 Q1014 BECMG 1500 FU=
201912101530 METAR VIDP 101530Z 00000KT 1800 R28/P2000 R29/P2000 FU NSC 16/10 Q1014 BECMG 1500 FU=
201912101600 METAR VIDP 101600Z 00000KT 1500 R28/P2000 R29/P2000 FU NSC 15/10 Q1014 NOSIG=
201912101630 METAR VIDP 101630Z 00000KT 1500 R28/P2000 R29/P2000 FU NSC 15/08 Q1014 NOSIG=
201912101700 METAR VIDP 101700Z 00000KT 1500 R28/P2000 R29/P2000 FU NSC 15/08 Q1014 NOSIG=
201912101730 METAR COR VIDP 101730Z 00000KT 1500 R28/P2000 R29/P2000 FU NSC 15/08 Q1014 NOSIG=
201912101800 METAR VIDP 101800Z 00000KT 1500 R28/P2000 R29/P2000 FU NSC 15/09 Q1014 NOSIG=
201912101830 METAR VIDP 101830Z 00000KT 1500 R28/P2000 R29/P2000 FU NSC 14/09 Q1014 NOSIG=
201912101900 METAR VIDP 101900Z 00000KT 1500 R28/P2000 R29/P2000 FU NSC 14/09 Q1014 NOSIG=
201912101930 METAR VIDP 101930Z 00000KT 1500 R28/P2000 R29/P2000 FU NSC 13/08 Q1014 NOSIG=
201912102000 METAR VIDP 102000Z 00000KT 1500 R28/P2000 R29/P2000 BR NSC 12/08 Q1014 NOSIG=
201912102030 METAR VIDP 102030Z 00000KT 1500 R28/P2000 R29/P2000 BR NSC 12/08 Q1014 NOSIG=
201912102100 METAR VIDP 102100Z 00000KT 1000 R28/P2000 R29/P2000 BR NSC 12/09 Q1014 BECMG 0800 MIFG=
201912102130 METAR VIDP 102130Z 00000KT 0800 R28/P2000 R29/1900 MIFG NSC 12/09 Q1014 NOSIG=
201912102200 METAR VIDP 102200Z 00000KT 0800 R28/P2000 R29/P2000 MIFG NSC 12/10 Q1013 BECMG 0600 MIFG=
201912102230 METAR VIDP 102230Z 00000KT 0800 R28/P2000 R29/P2000 MIFG NSC 12/10 Q1013 BECMG 0600 MIFG=
201912102300 METAR VIDP 102300Z 00000KT 0800 R28/P2000 R29/P2000 MIFG NSC 12/10 Q1013 BECMG 0600 MIFG=
201912102330 METAR VIDP 102330Z 00000KT 0800 R28/P2000 R29/P2000 MIFG NSC 12/10 Q1013 BECMG 0600 MIFG=
201912110000 METAR VIDP 110000Z 00000KT 0800 R28/P2000 R29/P2000 MIFG NSC 12/10 Q1013 BECMG 0600 MIFG=
201912110005 METAR VIDP NIL=
201912110030 METAR VIDP 110030Z 00000KT 0800 R28/P2000 R29/P2000 MIFG NSC 12/09 Q1014 NOSIG=
201912110100 METAR VIDP 110100Z 00000KT 0800 R28/P2000 R29/P2000 MIFG NSC 12/10 Q1014 NOSIG=
201912110130 METAR VIDP 110130Z 00000KT 0700 R28/1700 R29/1700 MIFG NSC 11/10 Q1015 BECMG 0600 MIFG=
201912110200 METAR VIDP 110200Z 00000KT 0600 R28/1200 R29/1300 MIFG NSC 12/10 Q1015 NOSIG=
201912110230 METAR VIDP 110230Z 00000KT 0600 R28/1200 R29/1000 MIFG NSC 12/10 Q1015 NOSIG=
201912110300 METAR VIDP 110300Z 11003KT 0600 R28/1000 R29/1200 MIFG NSC 13/10 Q1015 NOSIG=
201912110330 METAR VIDP 110330Z 11003KT 0700 R28/1100 R29/1100 FU NSC 15/10 Q1016 NOSIG=
201912110400 METAR VIDP 110400Z 10004KT 0700 R28/1100 R29/1300 FU NSC 16/09 Q1016 BECMG 0800 FU=
201912110430 METAR VIDP 110430Z 13004KT 0900 R28/1200 R29/1400 FU NSC 18/09 Q1016 NOSIG=
201912110500 METAR VIDP 110500Z 10004KT 0900 R28/1300 R29/1600 FU FEW100 19/09 Q1016 NOSIG=
201912110530 METAR VIDP 110530Z 12004KT 1000 R28/1300 R29/1600 FU FEW100 20/09 Q1016 NOSIG=
201912110600 METAR VIDP 110600Z 13004KT 1000 R28/1400 R29/1700 FU FEW100 20/09 Q1015 NOSIG=
201912110630 METAR VIDP 110630Z 11006KT 1100 R28/1400 R29/1800 FU FEW100 21/09 Q1015 NOSIG=
201912110700 METAR VIDP 110700Z 14005KT 1200 R28/1400 R29/1700 FU FEW100 21/09 Q1014 NOSIG=
201912110730 METAR VIDP 110730Z 15005KT 1200 R28/1400 R29/1600 FU FEW100 22/09 Q1014 NOSIG=
201912110800 METAR VIDP 110800Z 15006KT 1200 R28/1400 R29/1600 FU FEW100 22/09 Q1013 NOSIG=
201912110805 METAR VIDP NIL=
201912110830 METAR VIDP 110830Z 17003KT 1200 R28/1600 R29/1400 FU FEW100 22/09 Q1013 NOSIG=
201912110900 METAR COR VIDP 110900Z 16005KT 1300 R28/1600 R29/1600 FU FEW040 SCT100 22/09 Q1013 BECMG 1500 FU=
201912110905 METAR VIDP NIL=
201912110930 METAR VIDP 110930Z 18004KT 1500 R28/1700 R29/1700 FU FEW040 SCT100 21/09 Q1012 NOSIG=
201912111000 METAR VIDP 111000Z 11005KT 1500 R28/1600 R29/1800 FU FEW040 SCT100 21/09 Q1011 NOSIG=
201912111030 METAR VIDP 111030Z 10005KT 1500 R28/1600 R29/1700 FU FEW040 SCT100 21/09 Q1012 NOSIG=
201912111100 METAR VIDP 111100Z 12004KT 1500 R28/1700 R29/1800 FU SCT040 BKN100 21/09 Q1012 NOSIG=
201912111130 METAR VIDP 111130Z 09004KT 1500 R28/2000 R29/2000 FU SCT040 BKN100 20/09 Q1012 NOSIG=
201912111200 METAR VIDP 111200Z 13004KT 1500 R28/2000 R29/2000 FU SCT040 BKN100 20/10 Q1012 NOSIG=
201912111230 METAR VIDP 111230Z 13004KT 1500 R28/P2000 R29/P2000 FU SCT040 BKN100 20/10 Q1012 NOSIG=
201912111300 METAR VIDP 111300Z 12003KT 1500 R28/P2000 R29/P2000 FU SCT040 BKN100 19/10 Q1013 NOSIG=
201912111330 METAR COR VIDP 111330Z 00000KT 1500 R28/P2000 R29/P2000 FU SCT040 BKN100 19/10 Q1013 NOSIG=
201912111400 METAR VIDP 111400Z 00000KT 1500 R28/P2000 R29/P2000 FU SCT040 BKN100 18/11 Q1013 NOSIG=
201912111430 METAR VIDP 111430Z 00000KT 1500 R28/P2000 R29/P2000 FU SCT040 BKN100 18/11 Q1013 NOSIG=
201912111500 METAR VIDP 111500Z 00000KT 1500 R28/P2000 R29/P2000 FU SCT040 BKN100 18/11 Q1013 NOSIG=
201912111530 METAR VIDP 111530Z 00000KT 1500 R28/P2000 R29/P2000 FU SCT040 BKN100 17/11 Q1013 NOSIG=
201912111600 METAR VIDP 111600Z 00000KT 1500 R28/P2000 R29/P2000 FU SCT040 BKN100 17/11 Q1013 NOSIG=
201912111630 METAR VIDP 111630Z 00000KT 1500 R28/P2000 R29/P2000 FU SCT040 BKN100 17/11 Q1013 NOSIG=
201912111700 METAR VIDP 111700Z 00000KT 1500 R28/P2000 R29/P2000 FU SCT040 BKN100 17/11 Q1013 NOSIG=
201912111730 METAR VIDP 111730Z 11003KT 1500 R28/P2000 R29/P2000 FU SCT040 BKN100 17/11 Q1013 NOSIG=
201912111800 METAR VIDP 111800Z 00000KT 1500 R28/P2000 R29/P2000 FU SCT040 BKN100 17/11 Q1013 NOSIG=
201912111830 METAR VIDP 111830Z 00000KT 1500 R28/P2000 R29/P2000 FU SCT040 BKN100 17/11 Q1013 NOSIG=
201912111900 METAR VIDP 111900Z 00000KT 1500 R28/P2000 R29/P2000 FU SCT040 BKN100 17/12 Q1013 NOSIG=
201912111930 METAR VIDP 111930Z 00000KT 1500 R28/P2000 R29/P2000 BR SCT040 BKN100 16/12 Q1013 NOSIG=
201912112000 METAR VIDP 112000Z 00000KT 1500 R28/P2000 R29/P2000 BR SCT040 BKN100 16/12 Q1013 NOSIG=
201912112030 METAR VIDP 112030Z 10004KT 1500 R28/P2000 R29/P2000 BR SCT040 BKN100 16/12 Q1013 NOSIG=
201912112100 METAR VIDP 112100Z 10003KT 1500 R28/P2000 R29/P2000 BR SCT040 BKN100 16/12 Q1012 NOSIG=
201912112130 METAR VIDP 112130Z 10003KT 1500 R28/P2000 R29/P2000 BR SCT040 BKN100 16/12 Q1012 NOSIG=
201912112200 METAR VIDP 112200Z 00000KT 1500 R28/P2000 R29/P2000 BR SCT040 BKN100 16/12 Q1012 NOSIG=
201912112230 METAR VIDP 112230Z 04003KT 1500 R28/P2000 R29/P2000 BR SCT040 BKN100 16/12 Q1012 NOSIG=
201912112300 METAR VIDP 112300Z 03004KT 1200 R28/P2000 R29/P2000 BR SCT040 BKN100 16/12 Q1012 BECMG 0800 MIFG=
201912112330 METAR VIDP 112330Z 00000KT 1100 R28/P2000 R29/P2000 BR SCT040 BKN100 16/12 Q1012 BECMG 0800 MIFG=
201912120000 METAR VIDP 120000Z 00000KT 0800 R28/P2000 R29/P2000 MIFG SCT040 BKN100 15/12 Q1013 BECMG 0600 MIFG=
201912120030 METAR VIDP 120030Z 00000KT 0800 R28/P2000 R29/P2000 MIFG SCT040 BKN100 15/12 Q1013 BECMG 0600 MIFG=
201912120100 METAR VIDP 120100Z 06006KT 0800 R28/P2000 R29/P2000 MIFG SCT040 BKN100 15/12 Q1013 BECMG 0600 MIFG=
201912120130 METAR VIDP 120130Z 09005KT 0600 R28/P2000 R29/P2000 MIFG SCT040 BKN100 15/11 Q1013 NOSIG=
201912120200 METAR VIDP 120200Z 10005KT 0700 R28/1600 R29/1600 MIFG SCT040 BKN100 16/11 Q1014 BECMG 0800 MIFG=
201912120230 METAR VIDP 120230Z 08005KT 0800 R28/1200 R29/1400 MIFG SCT040 BKN100 16/11 Q1014 NOSIG=
201912120300 METAR COR VIDP 120300Z 08004KT 0800 R28/1100 R29/1300 FU SCT040 BKN100 16/11 Q1014 NOSIG=
201912120330 METAR VIDP 120330Z 06004KT 0800 R28/1150 R29/1300 FU SCT040 BKN100 16/11 Q1015 NOSIG=
201912120400 METAR VIDP 120400Z 09005KT 1000 R28/1200 R29/1200 FU SCT040 BKN100 17/11 Q1015 NOSIG=
201912120405 METAR VIDP NIL=
201912120430 METAR VIDP 120430Z 11004KT 1000 R28/1200 R29/1200 FU SCT040 BKN100 17/11 Q1015 NOSIG=
201912120500 METAR VIDP 120500Z 11004KT 1000 R28/1200 R29/1200 FU SCT040 BKN100 18/11 Q1015 NOSIG=
201912120530 METAR VIDP 120530Z 10004KT 1000 R28/1200 R29/1300 FU SCT040 BKN100 19/10 Q1014 NOSIG=
201912120600 METAR VIDP 120600Z 11004KT 1000 R28/1200 R29/1300 FU SCT040 BKN100 20/10 Q1014 NOSIG=
201912120630 METAR VIDP 120630Z 10009KT 1000 R28/1200 R29/1400 FU SCT040 BKN100 20/10 Q1013 NOSIG=
201912120700 METAR VIDP 120700Z 12009KT 1000 R28/1200 R29/1300 FU SCT040 BKN100 20/10 Q1013 NOSIG=
201912120730 METAR VIDP 120730Z 11010KT 1000 R28/1200 R29/1300 FU SCT040 BKN100 20/10 Q1012 NOSIG=
201912120800 METAR VIDP 120800Z 12010KT 1000 R28/1200 R29/1300 FU SCT040 BKN100 20/10 Q1012 NOSIG=
201912120830 METAR VIDP 120830Z 11012KT 1000 R28/1300 R29/1500 FU SCT040 BKN100 20/10 Q1011 NOSIG=
201912120900 METAR VIDP 120900Z 10010KT 1000 R28/1300 R29/1600 FU SCT040 BKN100 21/10 Q1011 NOSIG=
201912120930 METAR VIDP 120930Z 10010KT 1200 R28/1500 R29/1700 FU SCT040 BKN100 21/10 Q1011 NOSIG=
201912121000 METAR VIDP 121000Z 11011KT 1200 R28/1400 R29/1600 FU SCT040 BKN100 21/10 Q1010 NOSIG=
201912121030 METAR VIDP 121030Z 11011KT 1200 R28/1600 R29/1800 FU SCT040 BKN100 21/10 Q1010 NOSIG=
201912121100 METAR VIDP 121100Z 10010KT 1300 R28/2000 R29/2000 HZ SCT040 BKN100 19/09 Q1010 BECMG 1500=
201912121105 METAR VIDP NIL=
201912121130 METAR VIDP NIL=
201912121205 METAR VIDP NIL=
201912121230 METAR COR VIDP 121230Z 11006KT 1500 R28/P2000 R29/P2000 HZ SCT030 FEW035CB BKN100 17/12 Q1011 TEMPO 25015G25KT 0800 TS=
201912121300 METAR VIDP 121300Z 09007KT 2200 BR SCT030 FEW035CB BKN100 15/13 Q1011 TEMPO TSRA=
201912121330 METAR VIDP 121330Z 09007KT 2500 BR SCT030 FEW035CB BKN100 16/13 Q1010 TEMPO TSRA=
201912121400 METAR VIDP 121400Z 10007KT 2500 BR SCT030 FEW035CB BKN100 16/13 Q1010 TEMPO TS=
201912121430 METAR VIDP 121430Z 10010G20KT 1200 R28/P2000 R29/P2000 TSRA SCT030 FEW035CB OVC080 16/13 Q1010 NOSIG=
201912121500 METAR VIDP 121500Z 30020G30KT 1200 R28/P2000 R29/1800 -TSRA SCT030 FEW035CB OVC080 16/14 Q1011 NOSIG=
201912121505 METAR VIDP NIL=
201912121530 METAR VIDP 121530Z 32010G20KT 1200 R28/1600 R29/1900 TSRA SCT030 FEW035CB OVC080 16/13 Q1013 NOSIG=
201912121600 METAR VIDP 121600Z 03008G18KT 0900 R28/0900 R29/1700 TSRA SCT030 FEW035CB OVC080 15/13 Q1013 NOSIG=
201912121605 METAR VIDP NIL=
201912121630 METAR VIDP 121630Z 06006G16KT 0900 R28/1600 R29/1800 TSRA SCT030 FEW035CB OVC080 15/14 Q1012 NOSIG=
201912121700 METAR VIDP 121700Z 08011KT 0900 R28/P2000 R29/1800 TSRA SCT030 FEW035CB OVC080 15/14 Q1012 NOSIG=
201912121730 METAR VIDP 121730Z 07009KT 0900 R28/P2000 R29/P2000 -TSRA SCT030 FEW035CB OVC080 15/14 Q1012 NOSIG=
201912121800 METAR VIDP 121800Z 12010KT 0800 R28/1900 R29/P2000 -TSRA SCT030 FEW035CB OVC080 15/14 Q1012 NOSIG=
201912121830 METAR VIDP 121830Z 08007KT 1000 R28/P2000 R29/P2000 BR SCT030 FEW035CB OVC080 15/14 Q1012 NOSIG=
201912121900 METAR VIDP 121900Z 07007KT 1000 R28/P2000 R29/P2000 BR SCT030 FEW035CB OVC080 15/14 Q1011 NOSIG=
201912121930 METAR VIDP 121930Z 10006KT 1000 R28/P2000 R29/P2000 BR SCT030 FEW035CB OVC080 15/14 Q1011 NOSIG=
201912122000 METAR VIDP 122000Z 09006KT 1000 R28/P2000 R29/P2000 TSRA SCT030 FEW035CB OVC080 15/14 Q1011 BECMG 0800 TSRA=
201912122030 METAR VIDP 122030Z 10010G20KT 0800 R28/P2000 R29/1900 TSRA SCT030 FEW035CB OVC080 15/14 Q1011 NOSIG=
201912122100 METAR VIDP 122100Z 10006KT 0800 R28/1800 R29/1900 TSRA SCT030 FEW035CB OVC080 15/14 Q1011 NOSIG=
201912122130 METAR VIDP 122130Z 12006KT 0800 R28/1700 R29/1800 TSRA SCT030 FEW035CB OVC080 15/14 Q1010 NOSIG=
201912122200 METAR VIDP 122200Z 09004KT 0800 R28/1700 R29/1900 TS SCT030 FEW035CB OVC080 15/14 Q1011 NOSIG=
201912122230 METAR VIDP 122230Z 07006KT 0800 R28/1700 R29/1700 TSRA SCT030 FEW035CB OVC080 15/14 Q1011 NOSIG=
201912122300 METAR VIDP 122300Z 08009KT 0800 R28/1500 R29/1900 TSRA SCT030 FEW035CB OVC080 15/14 Q1009 NOSIG=
201912122330 METAR VIDP 122330Z 08009KT 0800 R28/1600 R29/1700 BR SCT030 FEW035CB OVC080 15/14 Q1009 NOSIG=
201912130000 METAR VIDP 130000Z 10008KT 0800 R28/1600 R29/1600 BR SCT030 FEW035CB OVC080 15/14 Q1010 NOSIG=
201912130030 METAR VIDP 130030Z 09007KT 0800 R28/1600 R29/1900 BR SCT030 BKN090 14/14 Q1010 NOSIG=
201912130100 METAR VIDP 130100Z 09006KT 0900 R28/1900 R29/P2000 BR SCT030 BKN090 14/14 Q1010 NOSIG=
201912130130 METAR VIDP 130130Z 10006KT 1000 R28/P2000 R29/P2000 BR SCT030 BKN090 14/14 Q1011 NOSIG=
201912130200 METAR VIDP 130200Z 10008KT 1100 R28/1800 R29/1500 BR SCT030 BKN090 14/14 Q1011 NOSIG=
201912130230 METAR VIDP 130230Z 09007KT 1200 R28/1800 R29/1600 BR SCT030 BKN090 14/14 Q1012 NOSIG=
201912130300 METAR VIDP 130300Z 09006KT 1200 R28/1500 R29/1200 BR SCT030 BKN090 14/14 Q1012 NOSIG=
201912130305 METAR VIDP NIL=
201912130330 METAR VIDP 130330Z 10007KT 1100 R28/1300 R29/1200 BR SCT030 BKN090 15/14 Q1013 NOSIG=
201912130400 METAR VIDP 130400Z 10007KT 1100 R28/1300 R29/1200 BR SCT030 BKN090 15/14 Q1013 NOSIG=
201912130430 METAR VIDP 130430Z 11008KT 1100 R28/1200 R29/1200 BR SCT030 BKN090 15/15 Q1014 NOSIG=
201912130500 METAR VIDP 130500Z 11009KT 1000 R28/1200 R29/1000 BR SCT040 BKN100 15/15 Q1014 NOSIG=
201912130530 METAR VIDP 130530Z 12010KT 1000 R28/1200 R29/1100 BR SCT040 BKN100 15/15 Q1014 NOSIG=
201912130600 METAR VIDP 130600Z 17007KT 0900 R28/1150 R29/0950 MIFG SCT040 BKN100 17/15 Q1014 NOSIG=
201912130605 METAR VIDP NIL=
201912130630 METAR VIDP 130630Z 15006KT 1000 R28/1150 R29/1300 BR SCT040 BKN100 18/14 Q1013 NOSIG=
201912130700 METAR VIDP 130700Z 17006KT 1000 R28/1200 R29/1300 BR SCT040 FEW040CB BKN100 18/14 Q1013 NOSIG=
201912130705 METAR VIDP NIL=
201912130730 METAR COR VIDP 130730Z 17006KT 1000 R28/1200 R29/1400 BR SCT035 FEW040CB BKN100 18/14 Q1012 NOSIG=
201912130800 METAR VIDP 130800Z 18005KT 1100 R28/1400 R29/1200 BR SCT035 FEW040CB BKN100 19/15 Q1012 NOSIG=
201912130830 METAR VIDP 130830Z 18005KT 1200 R28/1500 R29/1300 BR SCT035 FEW040CB BKN100 19/15 Q1012 NOSIG=
201912130900 METAR VIDP 130900Z 23005KT 1200 R28/1500 R29/1300 BR SCT035 FEW040CB BKN100 19/15 Q1012 NOSIG=
201912130930 METAR VIDP 130930Z 25009KT 1000 R28/1300 R29/1100 BR SCT035 FEW040CB BKN100 19/15 Q1012 NOSIG=
201912131000 METAR VIDP 131000Z 27010KT 1000 R28/1200 R29/1100 BR SCT035 FEW040CB BKN100 18/15 Q1012 NOSIG=
201912131030 METAR VIDP 131030Z 28009KT 1000 R28/1200 R29/1100 BR SCT035 FEW040CB BKN100 18/15 Q1012 NOSIG=
201912131100 METAR VIDP 131100Z 28008KT 1000 R28/1400 R29/1100 BR SCT035 FEW040CB BKN100 17/14 Q1012 NOSIG=
201912131105 METAR VIDP NIL=
201912131130 METAR VIDP 131130Z 28007KT 1000 R28/1400 R29/1200 BR SCT035 FEW040CB BKN100 17/14 Q1013 NOSIG=
201912131200 METAR VIDP 131200Z 28007KT 1000 R28/1600 R29/1300 BR SCT035 FEW040CB BKN100 16/14 Q1013 NOSIG=
201912131230 METAR VIDP 131230Z 29007KT 1000 R28/P2000 R29/P2000 BR SCT035 FEW040CB BKN100 16/14 Q1013 NOSIG=
201912131300 METAR VIDP 131300Z 30007KT 1000 R28/P2000 R29/P2000 BR SCT035 FEW040CB BKN100 16/14 Q1014 NOSIG=
201912131330 METAR VIDP 131330Z 30006KT 1000 R28/P2000 R29/P2000 BR SCT035 FEW040CB BKN100 16/14 Q1014 NOSIG=
201912131400 METAR VIDP 131400Z 30007KT 1000 R28/P2000 R29/P2000 BR SCT035 FEW040CB BKN100 16/14 Q1015 NOSIG=
201912131430 METAR VIDP NIL=
201912131505 METAR VIDP NIL=
201912131530 METAR VIDP 131530Z 28010KT 1000 R28/P2000 R29/P2000 BR SCT035 BKN100 14/12 Q1016 NOSIG=
201912131600 METAR VIDP 131600Z 29008KT 1200 R28/P2000 R29/P2000 BR SCT035 BKN100 14/12 Q1017 NOSIG=
201912131630 METAR VIDP 131630Z 32008KT 1400 R28/P2000 R29/P2000 BR SCT035 BKN100 14/11 Q1017 BECMG 1500 BR=
201912131700 METAR VIDP 131700Z 31006KT 1500 R28/P2000 R29/P2000 BR SCT035 BKN100 14/11 Q1017 NOSIG=
201912131730 METAR VIDP 131730Z 24005KT 1500 R28/P2000 R29/P2000 BR SCT035 BKN100 14/12 Q1017 NOSIG=
201912131800 METAR VIDP 131800Z 26005KT 1500 R28/P2000 R29/P2000 BR SCT035 BKN100 14/12 Q1017 NOSIG=
201912131830 METAR VIDP 131830Z 25004KT 1500 R28/P2000 R29/P2000 BR SCT035 BKN100 14/12 Q1017 NOSIG=
201912131900 METAR VIDP 131900Z 26004KT 1500 R28/P2000 R29/P2000 BR SCT035 BKN100 13/11 Q1017 NOSIG=
201912131905 METAR VIDP NIL=
201912131930 METAR VIDP 131930Z 26004KT 1500 R28/P2000 R29/P2000 BR SCT035 BKN100 13/11 Q1017 NOSIG=
201912132000 METAR VIDP 132000Z 00000KT 1500 R28/P2000 R29/P2000 BR SCT035 BKN100 12/11 Q1018 NOSIG=
201912132030 METAR VIDP 132030Z 00000KT 1500 R28/P2000 R29/P2000 BR SCT035 BKN100 12/11 Q1018 NOSIG=
201912132100 METAR VIDP 132100Z 00000KT 1500 R28/P2000 R29/P2000 BR SCT035 BKN100 12/11 Q1018 NOSIG=
201912132130 METAR VIDP 132130Z 00000KT 1500 R28/P2000 R29/P2000 BR SCT035 BKN100 12/11 Q1018 NOSIG=
201912132200 METAR VIDP 132200Z 00000KT 1500 R28/P2000 R29/P2000 BR SCT035 BKN100 12/11 Q1018 NOSIG=
201912132205 METAR VIDP NIL=
201912132230 METAR VIDP 132230Z 00000KT 1500 R28/P2000 R29/P2000 BR SCT035 BKN100 12/11 Q1018 NOSIG=
201912132300 METAR VIDP 132300Z 00000KT 1500 R28/P2000 R29/P2000 BR SCT035 BKN100 12/11 Q1018 NOSIG=
201912132330 METAR VIDP 132330Z 00000KT 1500 R28/P2000 R29/P2000 BR SCT035 BKN100 12/11 Q1018 NOSIG=
201912140000 METAR VIDP 140000Z 27003KT 1000 R28/P2000 R29/1900 BR SCT040 BKN100 12/11 Q1019 BECMG 0800 MIFG=
201912140005 METAR VIDP NIL=
201912140030 METAR VIDP 140030Z 25003KT 0800 R28/P2000 R29/1900 MIFG SCT040 BKN100 12/11 Q1019 NOSIG=
201912140100 METAR VIDP 140100Z 00000KT 0800 R28/P2000 R29/P2000 MIFG SCT040 BKN100 12/11 Q1019 NOSIG=
201912140130 METAR VIDP 140130Z 00000KT 0800 R28/1700 R29/1500 MIFG SCT040 BKN100 12/11 Q1020 NOSIG=
201912140200 METAR VIDP 140200Z 30003KT 0800 R28/1600 R29/1200 MIFG SCT040 BKN100 13/12 Q1020 NOSIG=
201912140230 METAR VIDP 140230Z 29003KT 0800 R28/1200 R29/1100 MIFG SCT040 BKN100 13/12 Q1020 NOSIG=
201912140300 METAR VIDP 140300Z 00000KT 0700 R28/1100 R29/0750 MIFG SCT040 BKN100 13/12 Q1021 NOSIG=
201912140330 METAR VIDP 140330Z 03004KT 0700 R28/1100 R29/0850 MIFG SCT035 BKN100 13/12 Q1022 NOSIG=
201912140400 METAR VIDP 140400Z 00000KT 0700 R28/1100 R29/0900 MIFG SCT035 BKN100 14/12 Q1022 NOSIG=
201912140430 METAR VIDP 140430Z 04003KT 0750 R28/1100 R29/1000 MIFG SCT035 BKN100 14/12 Q1022 BECMG 0800 MIFG=
201912140500 METAR VIDP 140500Z 04004KT 1000 R28/1100 R29/1100 BR SCT035 BKN100 15/12 Q1022 NOSIG=
201912140530 METAR VIDP 140530Z 09005KT 1000 R28/1300 R29/1000 BR SCT035 BKN100 15/12 Q1022 NOSIG=
201912140600 METAR VIDP 140600Z 10005KT 1000 R28/1200 R29/1000 BR SCT035 BKN100 16/12 Q1022 NOSIG=
201912140630 METAR VIDP 140630Z 08005KT 1000 R28/1300 R29/1000 FU SCT035 BKN100 16/11 Q1022 NOSIG=
201912140700 METAR VIDP 140700Z 12005KT 1000 R28/1300 R29/1100 FU SCT030 OVC090 17/11 Q1021 NOSIG=
201912140730 METAR VIDP 140730Z 12005KT 1000 R28/1200 R29/1000 FU SCT030 OVC090 17/11 Q1021 NOSIG=
201912140800 METAR VIDP 140800Z 13005KT 1000 R28/1300 R29/1000 FU SCT030 BKN090 17/11 Q1020 NOSIG=
201912140830 METAR VIDP 140830Z 11003KT 1000 R28/1400 R29/1000 FU SCT030 BKN090 18/11 Q1020 NOSIG=
201912140900 METAR VIDP 140900Z 30004KT 1100 R28/1500 R29/1100 FU SCT030 BKN090 18/11 Q1020 NOSIG=
201912140930 METAR VIDP 140930Z 02004KT 1100 R28/1500 R29/1100 FU SCT030 BKN090 18/11 Q1019 NOSIG=
201912141000 METAR VIDP 141000Z 00000KT 1200 R28/1500 R29/1200 FU SCT030 BKN090 18/11 Q1019 NOSIG=
201912141030 METAR VIDP 141030Z 00000KT 1300 R28/1600 R29/1600 FU SCT030 BKN090 18/10 Q1019 BECMG 1500 FU=
201912141100 METAR VIDP 141100Z 00000KT 1500 R28/1700 R29/P2000 FU SCT030 BKN090 18/10 Q1019 NOSIG=
201912141130 METAR VIDP 141130Z 00000KT 1500 R28/1800 R29/P2000 FU SCT030 BKN090 17/10 Q1018 NOSIG=
201912141200 METAR VIDP 141200Z 29004KT 1600 R28/P2000 R29/P2000 FU SCT030 BKN090 16/10 Q1018 NOSIG=
201912141230 METAR VIDP 141230Z 33005KT 1800 R28/P2000 R29/P2000 FU SCT030 BKN090 16/11 Q1018 NOSIG=
201912141300 METAR VIDP 141300Z 30004KT 1800 R28/P2000 R29/P2000 FU SCT030 BKN090 16/11 Q1018 NOSIG=
201912141330 METAR VIDP 141330Z 31005KT 1800 R28/P2000 R29/P2000 FU SCT030 BKN090 16/11 Q1019 BECMG 1500 FU=
201912141400 METAR VIDP 141400Z 00000KT 1500 R28/P2000 R29/P2000 FU SCT030 BKN090 16/11 Q1019 NOSIG=
201912141430 METAR VIDP 141430Z 32004KT 1500 R28/P2000 R29/P2000 BR SCT030 BKN090 15/12 Q1019 NOSIG=
201912141500 METAR VIDP 141500Z 31004KT 1500 R28/P2000 R29/P2000 BR SCT040 BKN100 15/12 Q1019 NOSIG=
201912141530 METAR VIDP 141530Z 32004KT 1500 R28/P2000 R29/P2000 BR SCT040 BKN100 15/12 Q1019 NOSIG=
201912141600 METAR VIDP 141600Z 29004KT 1500 R28/P2000 R29/P2000 BR FEW040 SCT100 15/12 Q1020 NOSIG=
201912141630 METAR VIDP 141630Z 28004KT 1500 R28/P2000 R29/P2000 BR FEW040 SCT100 14/11 Q1020 NOSIG=
201912141700 METAR VIDP 141700Z 29003KT 1500 R28/P2000 R29/P2000 BR FEW040 SCT100 14/11 Q1020 NOSIG=
201912141730 METAR VIDP 141730Z 28004KT 1500 R28/P2000 R29/P2000 BR FEW040 SCT100 14/11 Q1020 NOSIG=
201912141800 METAR VIDP 141800Z 35003KT 1500 R28/P2000 R29/P2000 BR FEW040 SCT100 14/11 Q1020 NOSIG=
201912141830 METAR VIDP 141830Z 31003KT 1500 R28/P2000 R29/P2000 BR FEW040 SCT100 14/11 Q1019 NOSIG=
201912141900 METAR VIDP 141900Z 28003KT 1500 R28/P2000 R29/P2000 BR FEW040 SCT100 13/11 Q1019 NOSIG=
201912141930 METAR VIDP 141930Z 28003KT 1500 R28/P2000 R29/P2000 BR FEW040 SCT100 13/11 Q1019 NOSIG=
201912142000 METAR VIDP 142000Z 26003KT 1500 R28/P2000 R29/P2000 BR FEW040 SCT100 13/11 Q1019 NOSIG=
201912142030 METAR VIDP 142030Z 32003KT 1500 R28/P2000 R29/P2000 BR FEW040 SCT100 12/11 Q1019 NOSIG=
201912142100 METAR VIDP 142100Z 26003KT 1500 R28/P2000 R29/P2000 BR FEW040 SCT100 12/11 Q1019 NOSIG=
201912142130 METAR VIDP 142130Z 00000KT 1400 R28/P2000 R29/P2000 BR FEW040 SCT100 12/11 Q1019 NOSIG=
201912142200 METAR VIDP 142200Z 00000KT 1000 R28/2000 R29/2000 MIFG FEW040 SCT100 12/11 Q1019 BECMG 0800 MIFG=
201912142230 METAR VIDP 142230Z 26004KT 0700 R28/2000 R29/2000 MIFG FEW040 SCT100 11/11 Q1019 NOSIG=
201912142300 METAR VIDP 142300Z 26004KT 0700 R28/2000 R29/1600 MIFG FEW040 SCT100 11/11 Q1019 BECMG 0600 MIFG=
201912142330 METAR VIDP 142330Z 27005KT 0600 R28/1900 R29/1600 MIFG FEW040 SCT100 11/11 Q1018 NOSIG=
201912150000 METAR VIDP 150000Z 25004KT 0500 R28/1800 R29/1300 FG FEW040 SCT100 11/11 Q1018 BECMG 0350 FG=
201912150030 METAR VIDP 150030Z 25004KT 0400 R28/1800 R29/1500 FG FEW040 SCT100 11/11 Q1018 BECMG 0350 FG=
201912150100 METAR VIDP 150100Z 26004KT 0400 R28/1700 R29/1700 FG FEW040 SCT100 11/11 Q1019 BECMG 0350 FG=
201912150130 METAR VIDP 150130Z 27004KT 0400 R28/1700 R29/1000 FG SCT100 10/10 Q1019 BECMG 0350 FG=
201912150200 METAR VIDP 150200Z 26005KT 0300 R28/1300 R29/0350 FG SCT100 10/10 Q1019 NOSIG=
201912150230 METAR COR VIDP 150230Z 28006KT 0200 R28/0900 R29/0350 FG SCT100 10/10 Q1020 NOSIG=
201912150300 METAR VIDP 150300Z 26007KT 0200 R28/0550 R29/0300 FG FEW100 10/10 Q1020 NOSIG=
201912150330 METAR VIDP 150330Z 27005KT 0200 R28/0450 R29/0300 FG FEW100 11/10 Q1021 NOSIG=
201912150400 METAR VIDP 150400Z 26006KT 0300 R28/0700 R29/0700 FG FEW100 11/11 Q1021 BECMG 0350 FG=
201912150430 METAR VIDP 150430Z 25004KT 0500 R28/0900 R29/0900 MIFG FEW100 11/11 Q1021 NOSIG=
201912150500 METAR COR VIDP 150500Z 24004KT 0500 R28/1000 R29/1200 MIFG FEW100 12/12 Q1021 BECMG 0600 MIFG=
201912150530 METAR VIDP 150530Z 23004KT 0700 R28/1000 R29/1400 MIFG FEW100 13/12 Q1021 BECMG 0800 MIFG=
201912150600 METAR VIDP 150600Z 27005KT 0900 R28/1100 R29/1400 MIFG FEW100 15/12 Q1021 NOSIG=
201912150630 METAR VIDP 150630Z 27006KT 1000 R28/1200 R29/1600 FU FEW100 16/11 Q1020 NOSIG=
201912150700 METAR VIDP 150700Z 30006KT 1000 R28/1200 R29/1500 FU FEW100 16/11 Q1020 NOSIG=
201912150730 METAR VIDP 150730Z 30007KT 1000 R28/1200 R29/1500 FU FEW100 17/11 Q1019 NOSIG=
201912150800 METAR VIDP 150800Z 29008KT 1000 R28/1300 R29/1500 FU FEW100 17/10 Q1019 NOSIG=
201912150830 METAR VIDP 150830Z 28008KT 1100 R28/1300 R29/1500 FU FEW040 SCT100 18/10 Q1019 NOSIG=
201912150900 METAR VIDP 150900Z 27007KT 1200 R28/1300 R29/1500 FU FEW040 SCT100 18/10 Q1018 NOSIG=
201912150930 METAR VIDP 150930Z 28007KT 1400 R28/1500 R29/1600 FU FEW040 SCT100 18/10 Q1018 BECMG 1500 FU=
201912151000 METAR VIDP 151000Z 29007KT 1500 R28/1500 R29/1500 FU FEW040 SCT100 18/10 Q1018 NOSIG=
201912151030 METAR VIDP 151030Z 29006KT 1500 R28/1400 R29/1500 FU FEW040 SCT100 18/10 Q1018 NOSIG=
201912151100 METAR VIDP 151100Z 28006KT 1500 R28/1600 R29/1800 FU FEW100 17/10 Q1018 NOSIG=
201912151105 METAR VIDP NIL=
201912151130 METAR VIDP 151130Z 27007KT 1500 R28/1800 R29/2000 FU FEW100 16/09 Q1018 NOSIG=
201912151200 METAR VIDP 151200Z 27005KT 1500 R28/1900 R29/2000 FU FEW100 16/09 Q1018 NOSIG=
201912151230 METAR VIDP 151230Z 26008KT 1500 R28/P2000 R29/P2000 FU FEW100 15/09 Q1018 NOSIG=
201912151300 METAR VIDP 151300Z 27005KT 1800 R28/P2000 R29/P2000 FU FEW100 15/10 Q1018 NOSIG=
201912151330 METAR VIDP 151330Z 27006KT 2000 BR FEW100 14/10 Q1019 NOSIG=
201912151400 METAR VIDP 151400Z 26006KT 2000 BR FEW100 13/12 Q1019 NOSIG=
201912151430 METAR VIDP 151430Z 25005KT 2000 BR FEW100 13/12 Q1019 NOSIG=
201912151500 METAR VIDP 151500Z 25005KT 2000 BR FEW100 14/12 Q1019 NOSIG=
201912151530 METAR VIDP 151530Z 26005KT 1800 BR FEW100 12/12 Q1020 BECMG 1500 BR=
201912151600 METAR VIDP 151600Z 26006KT 1500 R28/P2000 R29/P2000 BR FEW100 12/12 Q1020 NOSIG=
201912151630 METAR VIDP 151630Z 25005KT 1200 R28/P2000 R29/P2000 BR FEW100 12/12 Q1020 NOSIG=
201912151700 METAR VIDP 151700Z 25005KT 1200 R28/P2000 R29/P2000 BR FEW100 12/12 Q1020 NOSIG=
201912151730 METAR VIDP 151730Z 26004KT 1200 R28/P2000 R29/P2000 BR FEW100 12/12 Q1020 NOSIG=
201912151800 METAR VIDP 151800Z 26005KT 1000 R28/P2000 R29/P2000 BR FEW100 11/11 Q1019 BECMG 0800 MIFG=
201912151805 METAR VIDP NIL=
201912151830 METAR VIDP 151830Z 25004KT 0800 R28/P2000 R29/1700 MIFG FEW100 11/11 Q1019 NOSIG=
201912151900 METAR VIDP 151900Z 25006KT 0800 R28/P2000 R29/1600 MIFG FEW100 11/11 Q1019 NOSIG=
201912151930 METAR VIDP 151930Z 27005KT 0800 R28/1800 R29/1900 MIFG FEW100 11/11 Q1019 NOSIG=
201912152000 METAR VIDP 152000Z 27006KT 0800 R28/1800 R29/1600 MIFG FEW100 11/11 Q1019 NOSIG=
201912152030 METAR VIDP 152030Z 26006KT 0800 R28/1800 R29/1800 MIFG FEW100 11/11 Q1019 NOSIG=
201912152100 METAR VIDP 152100Z 26007KT 0800 R28/P2000 R29/P2000 MIFG FEW100 11/11 Q1019 NOSIG=
201912152130 METAR VIDP 152130Z 25007KT 0800 R28/P2000 R29/P2000 MIFG FEW100 11/11 Q1019 NOSIG=
201912152200 METAR VIDP 152200Z 25007KT 0800 R28/P2000 R29/P2000 MIFG FEW100 11/11 Q1019 NOSIG=
201912152230 METAR VIDP 152230Z 27005KT 0800 R28/P2000 R29/P2000 MIFG FEW100 11/11 Q1018 BECMG 0600 MIFG=
201912152300 METAR VIDP 152300Z 27006KT 0600 R28/P2000 R29/P2000 MIFG FEW100 11/11 Q1018 BECMG 0350 FG=
201912152330 METAR VIDP 152330Z 28007KT 0600 R28/P2000 R29/P2000 MIFG FEW100 11/11 Q1018 BECMG 0350 FG=
201912160000 METAR VIDP 160000Z 28008KT 0600 R28/P2000 R29/P2000 MIFG FEW100 11/11 Q1018 BECMG 0350 FG=
201912160030 METAR VIDP 160030Z 28007KT 0500 R28/P2000 R29/P2000 FG FEW100 11/11 Q1018 NOSIG=
201912160100 METAR VIDP 160100Z 28007KT 0400 R28/P2000 R29/P2000 FG FEW100 11/11 Q1019 BECMG 0350 FG=
201912160130 METAR VIDP 160130Z 28007KT 0300 R28/P2000 R29/P2000 FG FEW100 11/11 Q1019 BECMG 0150 FG=
201912160200 METAR VIDP 160200Z 28007KT 0300 R28/1400 R29/1300 FG FEW100 11/11 Q1019 BECMG 0150 FG=
201912160230 METAR VIDP 160230Z 30008KT 0300 R28/1300 R29/1400 FG FEW100 11/11 Q1019 BECMG 0150 FG=
201912160300 METAR VIDP 160300Z 29008KT 0300 R28/1150 R29/1300 FG FEW100 11/11 Q1020 NOSIG=
201912160330 METAR VIDP 160330Z 29008KT 0300 R28/1000 R29/1300 FG SCT100 11/11 Q1020 BECMG 0350 FG=
201912160400 METAR VIDP 160400Z 29008KT 0500 R28/1150 R29/1500 MIFG SCT100 12/11 Q1021 BECMG 0600 MIFG=
201912160430 METAR VIDP 160430Z 28008KT 0600 R28/1200 R29/1400 MIFG SCT100 11/11 Q1021 NOSIG=
201912160500 METAR VIDP 160500Z 30007KT 0600 R28/1200 R29/1400 MIFG SCT100 11/11 Q1021 BECMG 0800 MIFG=
201912160530 METAR VIDP 160530Z 27008KT 0800 R28/1200 R29/1400 MIFG SCT100 11/11 Q1021 NOSIG=
201912160600 METAR VIDP 160600Z 27008KT 0800 R28/1200 R29/1500 MIFG SCT100 11/11 Q1021 NOSIG=
201912160605 METAR VIDP NIL=
201912160630 METAR VIDP 160630Z 28008KT 1000 R28/1200 R29/1400 BR SCT100 11/10 Q1021 NOSIG=
201912160700 METAR VIDP 160700Z 27008KT 1200 R28/1200 R29/1500 BR SCT100 11/10 Q1020 BECMG 1500 BR=
201912160730 METAR VIDP 160730Z 28009KT 1200 R28/1200 R29/1500 BR SCT100 11/09 Q1020 BECMG 1500 BR=
201912160800 METAR VIDP 160800Z 27008KT 1200 R28/1200 R29/1500 BR SCT100 12/09 Q1019 BECMG 1500 BR=
201912160805 METAR VIDP NIL=
201912160830 METAR VIDP 160830Z 30010KT 1200 R28/1200 R29/1400 BR SCT100 12/10 Q1019 NOSIG=
201912160900 METAR VIDP 160900Z 30009KT 1200 R28/1200 R29/1500 BR SCT100 12/10 Q1019 NOSIG=
201912160930 METAR VIDP 160930Z 29008KT 1200 R28/1300 R29/1600 BR SCT100 12/09 Q1019 NOSIG=
201912161000 METAR VIDP 161000Z 28008KT 1200 R28/1300 R29/2000 BR SCT100 12/09 Q1019 NOSIG=
201912161030 METAR VIDP 161030Z 29007KT 1300 R28/1400 R29/1700 BR SCT100 12/10 Q1019 NOSIG=
201912161100 METAR VIDP 161100Z 30008KT 1400 R28/1500 R29/1800 BR SCT100 12/10 Q1019 NOSIG=
201912161130 METAR VIDP 161130Z 29009KT 1400 R28/1600 R29/1900 BR SCT100 12/09 Q1019 NOSIG=
201912161200 METAR VIDP 161200Z 28008KT 1400 R28/P2000 R29/P2000 BR SCT100 11/09 Q1019 BECMG 1500 BR=
201912161230 METAR VIDP 161230Z 29007KT 1600 R28/P2000 R29/P2000 BR SCT100 11/09 Q1020 NOSIG=
201912161300 METAR VIDP 161300Z 28007KT 1800 R28/P2000 R29/P2000 BR SCT100 11/09 Q1020 NOSIG=
201912161305 METAR VIDP NIL=
201912161330 METAR VIDP 161330Z 29008KT 1800 R28/P2000 R29/P2000 BR SCT100 11/09 Q1020 NOSIG=
201912161400 METAR VIDP 161400Z 28006KT 1800 R28/P2000 R29/P2000 BR SCT100 11/09 Q1020 NOSIG=
201912161405 METAR VIDP NIL=
201912161430 METAR VIDP 161430Z 30007KT 2200 BR SCT100 11/09 Q1020 NOSIG=
201912161500 METAR VIDP 161500Z 28006KT 2200 BR SCT100 11/09 Q1020 NOSIG=
201912161530 METAR VIDP 161530Z 29006KT 1800 R28/P2000 R29/P2000 BR SCT100 11/09 Q1021 NOSIG=
201912161600 METAR VIDP 161600Z 28007KT 1800 R28/P2000 R29/P2000 BR SCT100 11/09 Q1021 NOSIG=
201912161630 METAR VIDP 161630Z 28006KT 1800 R28/P2000 R29/P2000 BR SCT100 11/09 Q1021 NOSIG=
201912161700 METAR VIDP 161700Z 30007KT 1800 R28/P2000 R29/P2000 BR SCT100 11/09 Q1021 NOSIG=
201912161730 METAR VIDP 161730Z 29008KT 1800 R28/P2000 R29/P2000 BR SCT100 11/09 Q1021 BECMG 1500 BR=
201912161800 METAR VIDP 161800Z 28006KT 1500 R28/P2000 R29/P2000 BR SCT100 11/09 Q1021 NOSIG=
201912161830 METAR VIDP 161830Z 31007KT 1500 R28/P2000 R29/P2000 BR SCT100 11/09 Q1020 NOSIG=
201912161900 METAR VIDP 161900Z 32006KT 1500 R28/P2000 R29/P2000 BR SCT100 11/09 Q1020 NOSIG=
201912161930 METAR VIDP 161930Z 29007KT 1300 R28/P2000 R29/P2000 BR SCT100 11/09 Q1021 NOSIG=
201912162000 METAR VIDP 162000Z 28007KT 1300 R28/P2000 R29/P2000 BR SCT100 11/09 Q1021 NOSIG=
201912162030 METAR VIDP 162030Z 27007KT 1300 R28/P2000 R29/P2000 BR SCT100 11/09 Q1021 NOSIG=
201912162100 METAR VIDP 162100Z 30007KT 1300 R28/P2000 R29/P2000 BR SCT100 11/09 Q1021 NOSIG=
201912162105 METAR VIDP NIL=
201912162130 METAR VIDP 162130Z 31007KT 1300 R28/P2000 R29/P2000 BR SCT100 11/09 Q1021 NOSIG=
201912162200 METAR VIDP 162200Z 28006KT 1300 R28/P2000 R29/P2000 BR FEW035 SCT100 11/09 Q1021 NOSIG=
201912162230 METAR VIDP 162230Z 30006KT 1300 R28/P2000 R29/P2000 BR FEW035 SCT100 11/09 Q1020 NOSIG=
201912162300 METAR VIDP 162300Z 30007KT 1300 R28/P2000 R29/P2000 BR FEW035 SCT100 11/09 Q1020 NOSIG=
201912162330 METAR VIDP 162330Z 31006KT 1300 R28/P2000 R29/P2000 BR FEW035 SCT100 11/09 Q1020 NOSIG=
201912170000 METAR VIDP 170000Z 30006KT 1200 R28/P2000 R29/P2000 BR FEW035 SCT100 11/09 Q1020 NOSIG=
201912170030 METAR VIDP 170030Z 30007KT 1200 R28/P2000 R29/P2000 BR FEW035 SCT100 11/09 Q1020 NOSIG=
201912170100 METAR VIDP 170100Z 30007KT 1200 R28/P2000 R29/P2000 BR FEW035 SCT100 11/09 Q1021 NOSIG=
201912170130 METAR VIDP 170130Z 29007KT 1200 R28/P2000 R29/P2000 BR FEW035 SCT100 11/09 Q1021 NOSIG=
201912170200 METAR VIDP 170200Z 30006KT 1200 R28/P2000 R29/P2000 BR FEW035 SCT100 11/09 Q1021 NOSIG=
201912170230 METAR VIDP 170230Z 30008KT 1400 R28/1600 R29/1900 BR FEW040 SCT100 11/09 Q1022 BECMG 1500 BR=
201912170300 METAR VIDP 170300Z 29007KT 1400 R28/1500 R29/1800 BR SCT100 11/08 Q1022 BECMG 1500 BR=
201912170330 METAR VIDP 170330Z 30007KT 1400 R28/1400 R29/1700 BR SCT100 11/08 Q1022 NOSIG=
201912170400 METAR VIDP 170400Z 28006KT 1300 R28/1300 R29/1600 BR SCT100 11/08 Q1023 NOSIG=
201912170430 METAR VIDP 170430Z 28006KT 1300 R28/1300 R29/1600 BR SCT100 10/08 Q1023 NOSIG=
201912170500 METAR VIDP 170500Z 29006KT 1200 R28/1200 R29/1400 BR SCT100 10/08 Q1023 NOSIG=
201912170530 METAR VIDP 170530Z 28006KT 1200 R28/1200 R29/1500 BR SCT100 11/08 Q1023 NOSIG=
201912170600 METAR VIDP 170600Z 29006KT 1200 R28/1200 R29/1500 BR SCT100 11/08 Q1023 NOSIG=
201912170630 METAR VIDP 170630Z 28007KT 1100 R28/1100 R29/2000 BR SCT100 11/08 Q1022 NOSIG=
201912170700 METAR VIDP 170700Z 32008KT 1100 R28/1200 R29/1400 BR SCT100 11/08 Q1021 NOSIG=
201912170730 METAR VIDP 170730Z 31006KT 1100 R28/1200 R29/1300 BR SCT100 11/08 Q1021 NOSIG=
201912170800 METAR VIDP 170800Z 29007KT 1100 R28/1200 R29/1500 BR SCT100 12/08 Q1021 NOSIG=
201912170830 METAR VIDP 170830Z 30006KT 1100 R28/1100 R29/1300 BR SCT100 12/08 Q1020 NOSIG=
201912170900 METAR VIDP 170900Z 30007KT 1100 R28/1200 R29/1300 BR SCT100 12/08 Q1020 NOSIG=
201912170930 METAR VIDP 170930Z 28006KT 1100 R28/1200 R29/1400 BR SCT100 12/08 Q1020 NOSIG=
201912171000 METAR VIDP 171000Z 29008KT 1100 R28/1400 R29/1500 BR SCT100 12/08 Q1020 NOSIG=
201912171030 METAR VIDP 171030Z 27008KT 1100 R28/1400 R29/1600 BR SCT100 11/08 Q1020 NOSIG=
201912171100 METAR VIDP 171100Z 29008KT 1300 R28/1500 R29/1800 BR SCT100 11/08 Q1020 BECMG 1500 BR=
201912171130 METAR VIDP 171130Z 28006KT 1500 R28/1700 R29/P2000 BR SCT100 11/08 Q1020 NOSIG=
201912171200 METAR VIDP 171200Z 27006KT 1500 R28/P2000 R29/P2000 BR SCT100 11/08 Q1020 NOSIG=
201912171230 METAR VIDP 171230Z 27007KT 1500 R28/P2000 R29/P2000 BR SCT100 11/08 Q1020 NOSIG=
201912171300 METAR VIDP 171300Z 30006KT 1500 R28/P2000 R29/P2000 BR SCT100 11/08 Q1020 NOSIG=
201912171330 METAR VIDP 171330Z 30006KT 1500 R28/P2000 R29/P2000 BR SCT100 11/08 Q1020 NOSIG=
201912171400 METAR VIDP 171400Z 27003KT 1500 R28/P2000 R29/P2000 BR SCT100 11/08 Q1020 NOSIG=
201912171405 METAR VIDP NIL=
201912171430 METAR VIDP 171430Z 00000KT 1500 R28/P2000 R29/P2000 BR SCT100 11/09 Q1021 NOSIG=
201912171500 METAR VIDP 171500Z 00000KT 1500 R28/P2000 R29/P2000 BR SCT100 11/09 Q1021 NOSIG=
201912171530 METAR VIDP 171530Z 00000KT 1500 R28/P2000 R29/P2000 BR SCT100 11/09 Q1020 NOSIG=
201912171600 METAR VIDP 171600Z 00000KT 1500 R28/P2000 R29/P2000 BR SCT100 11/09 Q1020 NOSIG=
201912171630 METAR VIDP 171630Z 23004KT 1500 R28/P2000 R29/P2000 BR SCT100 10/09 Q1021 NOSIG=
201912171700 METAR VIDP 171700Z 24004KT 1500 R28/P2000 R29/P2000 BR SCT100 10/09 Q1021 NOSIG=
201912171730 METAR VIDP 171730Z 25004KT 1500 R28/P2000 R29/P2000 BR SCT100 09/08 Q1020 NOSIG=
201912171800 METAR VIDP 171800Z 24003KT 1500 R28/P2000 R29/P2000 BR SCT100 09/08 Q1020 NOSIG=
201912171830 METAR VIDP 171830Z 26003KT 1500 R28/P2000 R29/P2000 BR SCT100 09/09 Q1020 NOSIG=
201912171900 METAR VIDP 171900Z 26004KT 1500 R28/P2000 R29/P2000 BR SCT100 09/09 Q1020 NOSIG=
201912171930 METAR VIDP 171930Z 26005KT 1500 R28/P2000 R29/P2000 BR SCT100 09/09 Q1019 NOSIG=
201912172000 METAR VIDP 172000Z 25004KT 1500 R28/P2000 R29/P2000 BR SCT100 09/09 Q1019 NOSIG=
201912172030 METAR VIDP 172030Z 27003KT 1500 R28/P2000 R29/P2000 BR SCT100 09/09 Q1019 NOSIG=
201912172100 METAR VIDP 172100Z 25004KT 1500 R28/P2000 R29/P2000 BR SCT100 09/09 Q1018 NOSIG=
201912172130 METAR VIDP 172130Z 26003KT 1500 R28/P2000 R29/P2000 BR SCT100 09/09 Q1018 NOSIG=
201912172200 METAR VIDP 172200Z 26003KT 1500 R28/P2000 R29/P2000 BR SCT100 09/09 Q1018 NOSIG=
201912172205 METAR VIDP NIL=
201912172230 METAR VIDP 172230Z 28004KT 1500 R28/P2000 R29/P2000 BR SCT100 09/09 Q1018 NOSIG=
201912172300 METAR VIDP 172300Z 28005KT 1500 R28/P2000 R29/P2000 BR SCT100 09/09 Q1018 NOSIG=
201912172330 METAR VIDP 172330Z 29005KT 1500 R28/P2000 R29/P2000 BR SCT100 09/09 Q1018 NOSIG=
201912180000 METAR VIDP 180000Z 30006KT 1500 R28/P2000 R29/P2000 BR SCT100 10/09 Q1018 NOSIG=
201912180030 METAR VIDP 180030Z 29008KT 1500 R28/P2000 R29/P2000 BR SCT100 10/09 Q1019 NOSIG=
201912180100 METAR VIDP 180100Z 28008KT 1500 R28/P2000 R29/P2000 BR SCT100 10/09 Q1019 NOSIG=
201912180105 METAR VIDP NIL=
201912180130 METAR VIDP 180130Z 29007KT 1500 R28/P2000 R29/P2000 BR SCT100 10/09 Q1019 NOSIG=
201912180200 METAR VIDP 180200Z 28006KT 1000 R28/1500 R29/1600 BR SCT100 10/09 Q1020 NOSIG=
201912180230 METAR VIDP 180230Z 28007KT 1000 R28/1300 R29/1500 BR SCT100 10/09 Q1020 NOSIG=
201912180300 METAR VIDP 180300Z 28006KT 1000 R28/1200 R29/1400 BR SCT100 10/09 Q1021 NOSIG=
201912180330 METAR VIDP 180330Z 26007KT 1000 R28/1100 R29/1300 BR SCT100 10/09 Q1021 NOSIG=
201912180400 METAR VIDP 180400Z 27006KT 1000 R28/1000 R29/1300 BR SCT100 10/09 Q1021 NOSIG=
201912180430 METAR VIDP 180430Z 27006KT 1000 R28/1000 R29/1600 BR SCT100 10/09 Q1021 NOSIG=
201912180500 METAR VIDP 180500Z 27005KT 1100 R28/1100 R29/1400 BR SCT100 11/09 Q1022 NOSIG=
201912180530 METAR VIDP 180530Z 28005KT 1200 R28/1200 R29/1500 BR SCT100 12/09 Q1022 NOSIG=
201912180600 METAR VIDP 180600Z 25006KT 1200 R28/1200 R29/1600 BR SCT100 12/08 Q1021 NOSIG=
201912180605 METAR VIDP NIL=
201912180630 METAR VIDP 180630Z 27005KT 1200 R28/1200 R29/1600 FU SCT100 13/08 Q1021 NOSIG=
201912180700 METAR VIDP 180700Z 27005KT 1200 R28/1200 R29/1400 FU SCT100 13/08 Q1021 NOSIG=
201912180730 METAR VIDP 180730Z 27004KT 1200 R28/1200 R29/1500 FU SCT100 13/08 Q1020 NOSIG=
201912180800 METAR VIDP 180800Z 28005KT 1200 R28/1200 R29/1500 FU SCT100 14/08 Q1020 NOSIG=
201912180830 METAR VIDP 180830Z 25005KT 1000 R28/1200 R29/1300 FU FEW100 14/08 Q1019 NOSIG=
201912180900 METAR VIDP 180900Z 27005KT 1000 R28/1100 R29/1300 FU FEW100 14/08 Q1019 NOSIG=
201912180930 METAR VIDP 180930Z 26004KT 1100 R28/1200 R29/1200 FU FEW100 15/08 Q1019 NOSIG=
201912181000 METAR VIDP 181000Z 28004KT 1100 R28/1200 R29/1300 FU FEW100 15/08 Q1018 NOSIG=
201912181030 METAR VIDP 181030Z 26005KT 1100 R28/1200 R29/1400 FU FEW100 15/08 Q1018 NOSIG=
201912181100 METAR VIDP 181100Z 26004KT 1200 R28/1300 R29/1400 FU FEW100 14/08 Q1018 NOSIG=
201912181130 METAR VIDP 181130Z 30004KT 1200 R28/1300 R29/1600 FU FEW100 14/08 Q1018 NOSIG=
201912181200 METAR VIDP 181200Z 29003KT 1300 R28/1800 R29/P2000 FU FEW100 14/09 Q1018 NOSIG=
201912181230 METAR VIDP 181230Z 00000KT 1300 R28/P2000 R29/P2000 FU FEW100 13/08 Q1018 NOSIG=
201912181300 METAR VIDP 181300Z 00000KT 1300 R28/P2000 R29/P2000 BR FEW100 13/09 Q1019 NOSIG=
201912181330 METAR VIDP 181330Z 00000KT 1300 R28/P2000 R29/P2000 BR FEW100 12/09 Q1019 NOSIG=
201912181400 METAR VIDP 181400Z 00000KT 1200 R28/P2000 R29/P2000 BR FEW100 12/09 Q1019 NOSIG=
201912181430 METAR VIDP 181430Z 00000KT 1200 R28/P2000 R29/P2000 BR FEW100 12/09 Q1019 NOSIG=
201912181500 METAR VIDP 181500Z 00000KT 1000 R28/P2000 R29/P2000 BR FEW100 11/09 Q1020 NOSIG=
201912181530 METAR VIDP 181530Z 00000KT 1000 R28/P2000 R29/P2000 BR FEW100 11/09 Q1020 NOSIG=
201912181600 METAR VIDP 181600Z 00000KT 1000 R28/P2000 R29/P2000 BR FEW100 11/09 Q1020 NOSIG=
201912181630 METAR COR VIDP 181630Z 00000KT 0900 R28/P2000 R29/P2000 MIFG FEW100 10/09 Q1020 BECMG 0800 MIFG=
201912181700 METAR VIDP 181700Z 00000KT 0700 R28/1800 R29/1700 MIFG FEW100 10/09 Q1020 NOSIG=
201912181730 METAR VIDP 181730Z 00000KT 0700 R28/P2000 R29/P2000 MIFG NSC 10/09 Q1020 BECMG 0600 MIFG=
201912181800 METAR VIDP 181800Z 00000KT 0700 R28/P2000 R29/P2000 MIFG NSC 09/08 Q1020 BECMG 0600 MIFG=
201912181830 METAR VIDP 181830Z 00000KT 0700 R28/1600 R29/P2000 MIFG NSC 09/08 Q1019 BECMG 0600 MIFG=
201912181900 METAR VIDP 181900Z 00000KT 0700 R28/1600 R29/2000 MIFG NSC 09/08 Q1019 BECMG 0600 MIFG=
201912181930 METAR VIDP 181930Z 00000KT 0600 R28/1600 R29/1800 MIFG NSC 09/08 Q1019 NOSIG=
201912182000 METAR VIDP 182000Z 00000KT 0500 R28/1600 R29/1200 MIFG NSC 09/09 Q1019 NOSIG=
201912182005 METAR VIDP NIL=
201912182030 METAR VIDP 182030Z 00000KT 0500 R28/1600 R29/1200 MIFG NSC 09/09 Q1018 NOSIG=
201912182100 METAR VIDP 182100Z 00000KT 0500 R28/1600 R29/1200 MIFG NSC 09/09 Q1018 NOSIG=
201912182130 METAR VIDP 182130Z 00000KT 0400 R28/1200 R29/0800 FG NSC 09/09 Q1018 BECMG 0350 FG=
201912182200 METAR VIDP 182200Z 00000KT 0400 R28/1700 R29/P2000 FG NSC 08/08 Q1018 NOSIG=
201912182230 METAR VIDP 182230Z 06004KT 0400 R28/1600 R29/P2000 FG NSC 08/08 Q1018 NOSIG=
201912182300 METAR VIDP 182300Z 07004KT 0400 R28/1500 R29/P2000 FG NSC 08/08 Q1018 BECMG 0350 FG=
201912182330 METAR VIDP 182330Z 00000KT 0350 R28/1600 R29/1600 FG NSC 08/08 Q1017 NOSIG=
201912190000 METAR VIDP 190000Z 00000KT 0350 R28/1600 R29/1600 FG NSC 08/08 Q1018 NOSIG=
201912190030 METAR VIDP 190030Z 00000KT 0350 R28/1500 R29/1500 FG NSC 08/08 Q1018 NOSIG=
201912190100 METAR VIDP 190100Z 00000KT 0350 R28/1800 R29/1900 FG NSC 08/08 Q1018 TEMPO 0150 FG=
201912190105 METAR VIDP NIL=
201912190130 METAR VIDP 190130Z 00000KT 0300 R28/1300 R29/1000 FG NSC 08/08 Q1019 BECMG 0150 FG=
201912190200 METAR VIDP 190200Z 00000KT 0150 R28/0900 R29/0700 FG FEW100 08/08 Q1019 NOSIG=
201912190230 METAR VIDP 190230Z 21003KT 0150 R28/0675 R29/0225 FG NSC 08/08 Q1019 NOSIG=
201912190300 METAR VIDP 190300Z 19003KT 0100 R28/0325 R29/0125 FG NSC 08/08 Q1020 NOSIG=
201912190330 METAR VIDP 190330Z 16003KT 0100 R28/0250 R29/0350 FG NSC 08/08 Q1020 BECMG 0150 FG=
201912190400 METAR VIDP 190400Z 16004KT 0150 R28/0275 R29/0400 FG NSC 08/08 Q1020 NOSIG=
201912190405 METAR VIDP NIL=
201912190430 METAR VIDP 190430Z 19003KT 0300 R28/0475 R29/0625 FG NSC 09/08 Q1021 BECMG 0350 FG=
201912190500 METAR VIDP 190500Z 15002KT 0350 R28/0600 R29/0600 FG NSC 09/09 Q1021 NOSIG=
201912190505 METAR VIDP NIL=
201912190530 METAR VIDP 190530Z 13002KT 0500 R28/0700 R29/0700 FG NSC 10/09 Q1021 NOSIG=
201912190600 METAR VIDP 190600Z 13003KT 0500 R28/0700 R29/0750 FG NSC 10/10 Q1020 NOSIG=
201912190605 METAR VIDP NIL=
201912190630 METAR VIDP 190630Z 20004KT 0500 R28/0800 R29/0850 FG NSC 11/10 Q1020 BECMG 0600 MIFG=
201912190700 METAR VIDP 190700Z 22003KT 0600 R28/0800 R29/0850 MIFG NSC 12/10 Q1019 NOSIG=
201912190705 METAR VIDP NIL=
201912190730 METAR VIDP 190730Z 27003KT 0600 R28/0900 R29/0850 MIFG NSC 13/10 Q1019 NOSIG=
201912190800 METAR VIDP 190800Z 31003KT 0600 R28/0900 R29/0850 MIFG NSC 14/10 Q1018 NOSIG=
201912190805 METAR VIDP NIL=
201912190830 METAR VIDP 190830Z 28005KT 0600 R28/0900 R29/0850 MIFG NSC 14/10 Q1018 NOSIG=
201912190900 METAR COR VIDP 190900Z 01004KT 0700 R28/0900 R29/0850 MIFG FEW100 14/10 Q1017 NOSIG=
201912190905 METAR VIDP NIL=
201912190930 METAR VIDP 190930Z 27005KT 0700 R28/0850 R29/0950 MIFG FEW100 14/10 Q1017 NOSIG=
201912191000 METAR VIDP 191000Z 07005KT 0700 R28/0850 R29/0950 MIFG FEW100 14/10 Q1017 NOSIG=
201912191005 METAR VIDP NIL=
201912191030 METAR VIDP 191030Z 09006KT 0700 R28/0850 R29/0950 MIFG FEW100 14/10 Q1016 NOSIG=
201912191100 METAR VIDP 191100Z 10005KT 0700 R28/0900 R29/0900 MIFG FEW100 13/10 Q1016 NOSIG=
201912191105 METAR VIDP NIL=
201912191130 METAR VIDP 191130Z 11005KT 0700 R28/0900 R29/1100 MIFG FEW100 13/10 Q1016 TEMPO 0800 MIFG=
201912191200 METAR VIDP 191200Z 10005KT 0700 R28/1000 R29/1100 MIFG FEW100 12/10 Q1016 TEMPO 0800 MIFG=
201912191205 METAR VIDP NIL=
201912191230 METAR VIDP 191230Z 12004KT 0700 R28/1500 R29/1600 MIFG FEW100 12/10 Q1016 NOSIG=
201912191300 METAR VIDP 191300Z 00000KT 0700 R28/1500 R29/1600 MIFG FEW100 12/10 Q1017 NOSIG=
201912191305 METAR VIDP NIL=
201912191330 METAR VIDP 191330Z 00000KT 0700 R28/1500 R29/1600 MIFG FEW100 12/10 Q1017 NOSIG=
201912191400 METAR VIDP 191400Z 00000KT 0700 R28/1500 R29/1600 MIFG FEW100 12/10 Q1017 NOSIG=
201912191405 METAR VIDP NIL=
201912191430 METAR VIDP 191430Z 17005KT 0700 R28/1500 R29/1700 MIFG FEW100 11/10 Q1017 NOSIG=
201912191500 METAR VIDP 191500Z 00000KT 0700 R28/1500 R29/1500 MIFG FEW100 11/10 Q1017 BECMG 0600 MIFG=
201912191505 METAR VIDP NIL=
201912191530 METAR VIDP 191530Z 00000KT 0600 R28/1400 R29/1600 MIFG FEW100 11/10 Q1017 NOSIG=
201912191600 METAR VIDP 191600Z 00000KT 0600 R28/1500 R29/1400 MIFG FEW100 11/10 Q1017 NOSIG=
201912191605 METAR VIDP NIL=
201912191630 METAR VIDP 191630Z 00000KT 0600 R28/1400 R29/1400 MIFG FEW100 11/10 Q1017 NOSIG=
201912191700 METAR VIDP 191700Z 00000KT 0500 R28/1400 R29/1300 FG FEW100 11/10 Q1017 NOSIG=
201912191705 METAR VIDP NIL=
201912191730 METAR VIDP 191730Z 00000KT 0500 R28/1300 R29/1300 FG FEW100 11/10 Q1017 NOSIG=
201912191800 METAR VIDP 191800Z 00000KT 0400 R28/1200 R29/1100 FG FEW100 11/10 Q1017 NOSIG=
201912191805 METAR VIDP NIL=
201912191830 METAR VIDP 191830Z 00000KT 0400 R28/1100 R29/0700 FG FEW100 10/10 Q1016 BECMG 0350 FG=
201912191900 METAR VIDP 191900Z 26004KT 0300 R28/1100 R29/0650 FG FEW100 10/10 Q1016 BECMG 0150 FG=
201912191905 METAR VIDP NIL=
201912191930 METAR VIDP 191930Z 28003KT 0150 R28/1000 R29/0400 FG FEW100 10/10 Q1016 NOSIG=
201912192000 METAR VIDP 192000Z 25003KT 0000 R28/0300 R29/0125 FG VV/// 10/10 Q1016 NOSIG=
201912192030 METAR VIDP 192030Z 00000KT 0000 R28/0250 R29/0100 FG VV/// 10/10 Q1015 NOSIG=
201912192100 METAR VIDP 192100Z 00000KT 0000 R28/0250 R29/0100 FG VV/// 10/10 Q1015 NOSIG=
201912192130 METAR VIDP 192130Z 00000KT 0000 R28/0550 R29/0150 FG VV/// 10/10 Q1015 NOSIG=
201912192200 METAR VIDP 192200Z 00000KT 0000 R28/0400 R29/0150 FG VV/// 10/10 Q1015 NOSIG=
201912192230 METAR VIDP 192230Z 00000KT 0000 R28/0200 R29/0125 FG VV/// 10/10 Q1015 NOSIG=
201912192300 METAR VIDP 192300Z 00000KT 0000 R28/0175 R29/0125 FG VV/// 09/09 Q1015 NOSIG=
201912192330 METAR VIDP 192330Z 00000KT 0000 R28/0150 R29/0150 FG VV/// 09/09 Q1015 NOSIG=
201912200000 METAR VIDP 200000Z 00000KT 0000 R28/0200 R29/0150 FG VV/// 09/09 Q1015 NOSIG=
201912200030 METAR VIDP 200030Z 00000KT 0000 R28/0350 R29/0175 FG VV/// 09/09 Q1015 NOSIG=
201912200100 METAR VIDP 200100Z 00000KT 0000 R28/0350 R29/0175 FG VV/// 09/09 Q1016 NOSIG=
201912200130 METAR VIDP 200130Z 00000KT 0000 R28/0700 R29/0250 FG VV/// 09/09 Q1016 NOSIG=
201912200200 METAR VIDP 200200Z 00000KT 0050 R28/0650 R29/0200 FG VV/// 10/10 Q1017 NOSIG=
201912200230 METAR VIDP 200230Z 00000KT 0050 R28/0800 R29/0250 FG VV/// 10/10 Q1017 NOSIG=
201912200300 METAR VIDP 200300Z 17003KT 0050 R28/0700 R29/0200 FG VV/// 09/09 Q1017 NOSIG=
201912200305 METAR VIDP NIL=
201912200330 METAR VIDP 200330Z 00000KT 0100 R28/0500 R29/0300 FG VV/// 09/09 Q1018 BECMG 0150 FG=
201912200400 METAR VIDP 200400Z 00000KT 0150 R28/0600 R29/0400 FG VV/// 09/09 Q1018 NOSIG=
201912200430 METAR VIDP 200430Z 00000KT 0150 R28/0600 R29/0600 FG VV/// 09/09 Q1018 NOSIG=
201912200500 METAR VIDP 200500Z 00000KT 0250 R28/0700 R29/0700 FG VV/// 10/10 Q1018 NOSIG=
201912200530 METAR VIDP 200530Z 29003KT 0300 R28/0700 R29/0800 FG SCT100 11/11 Q1017 BECMG 0350 FG=
201912200600 METAR VIDP 200600Z 28003KT 0350 R28/0700 R29/0800 FG SCT100 12/11 Q1017 NOSIG=
201912200630 METAR VIDP NIL=
201912200700 METAR VIDP 200700Z 27004KT 0400 R28/0800 R29/0900 FG SCT100 13/11 Q1016 NOSIG=
201912200705 METAR VIDP NIL=
201912200730 METAR VIDP 200730Z 23003KT 0400 R28/0800 R29/0900 FG SCT100 14/11 Q1015 NOSIG=
201912200800 METAR VIDP 200800Z 24003KT 0400 R28/0800 R29/0900 FG SCT100 14/11 Q1015 NOSIG=
201912200805 METAR VIDP NIL=
201912200830 METAR VIDP 200830Z 28008KT 0400 R28/0800 R29/0800 FG SCT100 14/11 Q1015 NOSIG=
201912200900 METAR VIDP 200900Z 27009KT 0500 R28/0800 R29/0800 FG SCT100 14/11 Q1015 BECMG 0600 MIFG=
201912200905 METAR VIDP NIL=
201912200930 METAR VIDP 200930Z 28008KT 0600 R28/0850 R29/0950 MIFG SCT100 14/11 Q1014 NOSIG=
201912201000 METAR VIDP 201000Z 25006KT 0600 R28/0900 R29/0900 MIFG SCT100 14/11 Q1014 NOSIG=
201912201005 METAR VIDP NIL=
201912201030 METAR VIDP 201030Z 27005KT 0600 R28/0900 R29/0900 MIFG SCT100 14/11 Q1014 NOSIG=
201912201100 METAR VIDP 201100Z 23005KT 0600 R28/0900 R29/0900 MIFG SCT100 14/11 Q1014 NOSIG=
201912201120 METAR VIDP 201120Z 26004KT 0600 R28/1200 R29/1100 MIFG SCT100 12/11 Q1014 NOSIG=
201912201130 METAR VIDP 201130Z 25005KT 0600 R28/0900 R29/0900 MIFG SCT100 13/11 Q1014 NOSIG=
201912201200 METAR VIDP 201200Z 26004KT 0600 R28/1200 R29/1100 MIFG SCT100 12/11 Q1014 NOSIG=
201912201230 METAR VIDP 201230Z 26005KT 0500 R28/1500 R29/1300 MIFG BKN100 11/11 Q1014 NOSIG=
201912201300 METAR VIDP 201300Z 26005KT 0500 R28/1300 R29/1100 MIFG BKN100 11/10 Q1015 NOSIG=
201912201305 METAR VIDP NIL=
201912201330 METAR VIDP 201330Z 25004KT 0400 R28/1300 R29/0400 FG BKN100 11/10 Q1015 BECMG 0350 FG=
201912201400 METAR VIDP 201400Z 26004KT 0200 R28/0800 R29/0750 FG BKN100 10/10 Q1015 TEMPO 0150 FG=
201912201430 METAR VIDP 201430Z 24003KT 0000 R28/0400 R29/0200 FG VV/// 10/10 Q1015 NOSIG=
201912201500 METAR VIDP 201500Z 00000KT 0000 R28/0200 R29/0250 FG VV/// 10/10 Q1015 NOSIG=
201912201530 METAR VIDP 201530Z 00000KT 0000 R28/0200 R29/0200 FG VV/// 10/10 Q1015 NOSIG=
201912201600 METAR VIDP 201600Z 00000KT 0000 R28/0175 R29/0200 FG VV/// 10/10 Q1016 NOSIG=
201912201630 METAR VIDP 201630Z 00000KT 0000 R28/0575 R29/0175 FG VV/// 10/10 Q1016 NOSIG=
201912201700 METAR VIDP 201700Z 00000KT 0000 R28/0175 R29/0150 FG VV/// 10/10 Q1016 NOSIG=
201912201730 METAR VIDP 201730Z 00000KT 0000 R28/0175 R29/0125 FG VV/// 10/10 Q1016 NOSIG=
201912201800 METAR VIDP 201800Z 27003KT 0000 R28/0200 R29/0175 FG VV/// 10/10 Q1016 NOSIG=
201912201830 METAR VIDP 201830Z 27004KT 0000 R28/0200 R29/0200 FG VV/// 10/10 Q1016 NOSIG=
201912201900 METAR COR VIDP 201900Z 27003KT 0100 R28/0500 R29/0300 FG VV/// 10/10 Q1016 NOSIG=
201912201905 METAR VIDP NIL=
201912201930 METAR VIDP 201930Z 00000KT 0100 R28/0500 R29/0300 FG VV/// 10/10 Q1016 NOSIG=
201912202000 METAR VIDP 202000Z 00000KT 0100 R28/0400 R29/0300 FG VV/// 10/10 Q1016 NOSIG=
201912202030 METAR VIDP 202030Z 00000KT 0100 R28/0800 R29/0650 FG VV/// 10/10 Q1016 BECMG 0150 FG=
201912202100 METAR VIDP 202100Z 25004KT 0300 R28/1000 R29/0750 FG VV/// 10/10 Q1016 NOSIG=
201912202130 METAR VIDP 202130Z 27004KT 0300 R28/1200 R29/0700 FG VV/// 10/10 Q1016 NOSIG=
201912202200 METAR VIDP 202200Z 27003KT 0300 R28/1000 R29/1000 FG SCT100 10/10 Q1016 BECMG 0350 FG=
201912202230 METAR VIDP 202230Z 00000KT 0350 R28/1100 R29/1100 FG SCT100 10/10 Q1016 NOSIG=
201912202300 METAR VIDP 202300Z 00000KT 0350 R28/1000 R29/0900 FG SCT100 10/10 Q1016 NOSIG=
201912202330 METAR VIDP 202330Z 00000KT 0350 R28/1000 R29/1100 FG SCT100 11/10 Q1016 NOSIG=
201912210000 METAR VIDP 210000Z 00000KT 0350 R28/1000 R29/0700 FG SCT100 11/11 Q1016 NOSIG=
201912210030 METAR VIDP 210030Z 00000KT 0350 R28/1000 R29/0700 FG SCT100 11/11 Q1016 NOSIG=
201912210100 METAR VIDP 210100Z 27003KT 0300 R28/1000 R29/0850 FG SCT100 11/11 Q1016 NOSIG=
201912210130 METAR VIDP 210130Z 00000KT 0250 R28/1000 R29/0450 FG VV/// 11/11 Q1017 TEMPO 0150 FG=
201912210200 METAR VIDP 210200Z 27003KT 0150 R28/0750 R29/0250 FG VV/// 11/11 Q1017 NOSIG=
201912210230 METAR VIDP 210230Z 27004KT 0100 R28/0500 R29/0200 FG VV/// 11/11 Q1017 NOSIG=
201912210300 METAR VIDP 210300Z 27004KT 0050 R28/0450 R29/0200 FG VV/// 11/11 Q1018 NOSIG=
201912210330 METAR VIDP 210330Z 28004KT 0100 R28/0500 R29/0400 FG VV/// 11/10 Q1018 BECMG 0150 FG=
201912210400 METAR VIDP 210400Z 26005KT 0100 R28/0500 R29/0500 FG VV/// 11/10 Q1019 BECMG 0150 FG=
201912210430 METAR VIDP 210430Z 27005KT 0150 R28/0700 R29/0650 FG VV/// 11/10 Q1019 NOSIG=
201912210500 METAR VIDP 210500Z 26005KT 0250 R28/0700 R29/0800 FG VV/// 11/10 Q1019 NOSIG=
201912210530 METAR VIDP 210530Z 25007KT 0300 R28/0750 R29/0800 FG VV/// 12/11 Q1019 BECMG 0350 FG=
201912210600 METAR COR VIDP 210600Z 29006KT 0500 R28/0800 R29/0950 FG VV/// 13/12 Q1018 BECMG 0600 MIFG=
201912210630 METAR VIDP 210630Z 28006KT 0500 R28/0800 R29/1000 FG FEW040 SCT100 13/12 Q1018 BECMG 0600 MIFG=
201912210700 METAR VIDP 210700Z 29007KT 0700 R28/0800 R29/1000 MIFG FEW040 SCT100 14/13 Q1017 BECMG 0800 MIFG=
201912210730 METAR VIDP 210730Z 29006KT 0800 R28/0900 R29/1100 MIFG FEW040 SCT100 15/12 Q1017 NOSIG=
201912210800 METAR VIDP 210800Z 27005KT 0900 R28/1000 R29/1100 MIFG FEW040 SCT100 16/12 Q1016 NOSIG=
201912210830 METAR VIDP 210830Z 30006KT 0900 R28/0900 R29/1100 MIFG SCT040 SCT100 16/12 Q1016 NOSIG=
201912210900 METAR VIDP 210900Z 29006KT 0900 R28/0900 R29/1100 MIFG SCT040 SCT100 16/12 Q1016 TEMPO 0800 MIFG=
201912210930 METAR VIDP 210930Z 29005KT 0800 R28/0800 R29/1000 MIFG SCT040 SCT100 16/12 Q1015 NOSIG=
201912211000 METAR VIDP 211000Z 29005KT 0800 R28/0900 R29/1000 MIFG SCT040 SCT100 16/12 Q1015 NOSIG=
201912211030 METAR VIDP 211030Z 30006KT 0900 R28/1000 R29/1100 MIFG SCT040 SCT100 16/12 Q1015 NOSIG=
201912211100 METAR VIDP 211100Z 30007KT 0900 R28/1000 R29/1100 MIFG SCT040 SCT100 16/12 Q1015 NOSIG=
201912211130 METAR VIDP 211130Z 30005KT 0900 R28/1100 R29/1300 MIFG SCT040 SCT100 16/12 Q1015 NOSIG=
201912211200 METAR VIDP 211200Z 29005KT 0900 R28/1300 R29/1500 MIFG SCT100 15/12 Q1015 NOSIG=
201912211230 METAR VIDP 211230Z 27005KT 0900 R28/1800 R29/1800 MIFG SCT100 15/12 Q1015 NOSIG=
201912211300 METAR VIDP 211300Z 26005KT 0900 R28/1900 R29/2000 MIFG SCT100 14/12 Q1016 NOSIG=
201912211330 METAR VIDP 211330Z 26005KT 1200 R28/1900 R29/2000 BR SCT100 13/12 Q1016 NOSIG=
201912211400 METAR VIDP 211400Z 25004KT 1200 R28/1900 R29/2000 BR SCT100 13/12 Q1016 NOSIG=
201912211430 METAR VIDP 211430Z 27006KT 1000 R28/1900 R29/P2000 BR SCT100 12/12 Q1017 BECMG 0800 MIFG=
201912211500 METAR VIDP 211500Z 28006KT 0800 R28/1800 R29/P2000 MIFG SCT100 12/12 Q1017 NOSIG=
201912211530 METAR VIDP 211530Z 27005KT 0800 R28/1600 R29/2000 MIFG SCT100 12/12 Q1017 NOSIG=
201912211600 METAR VIDP 211600Z 28005KT 0700 R28/1600 R29/P2000 MIFG SCT100 12/12 Q1018 TEMPO 0600 MIFG=
201912211630 METAR VIDP 211630Z 27004KT 0700 R28/1600 R29/1800 MIFG SCT100 12/12 Q1018 TEMPO 0600 MIFG=
201912211700 METAR VIDP 211700Z 26004KT 0700 R28/1600 R29/P1800 MIFG SCT100 11/11 Q1018 TEMPO 0600 MIFG=
201912211705 METAR VIDP NIL=
201912211730 METAR COR VIDP 211730Z 27004KT 0700 R28/1600 R29/1800 MIFG 11/11 Q1018 NOSIG=
201912211800 METAR COR VIDP 211800Z 26003KT 0700 R28/1600 R29/1400 MIFG SCT100 11/11 Q1018 NOSIG=
201912211830 METAR VIDP 211830Z 00000KT 0700 R28/1800 R29/1200 MIFG SCT100 11/11 Q1018 BECMG 0600 MIFG=
201912211900 METAR VIDP 211900Z 29003KT 0600 R28/1800 R29/1300 MIFG SCT100 10/10 Q1018 NOSIG=
201912211930 METAR VIDP 211930Z 28003KT 0600 R28/1700 R29/1300 MIFG SCT100 10/10 Q1017 NOSIG=
201912212000 METAR VIDP 212000Z 27003KT 0600 R28/1700 R29/1200 MIFG SCT100 10/10 Q1017 NOSIG=
201912212030 METAR VIDP 212030Z 29004KT 0500 R28/1700 R29/1200 FG SCT100 09/09 Q1017 NOSIG=
201912212100 METAR VIDP 212100Z 28003KT 0500 R28/1600 R29/1000 FG SCT100 09/09 Q1017 NOSIG=
201912212130 METAR VIDP 212130Z 27004KT 0400 R28/1600 R29/1100 FG SCT100 09/09 Q1017 BECMG 0350 FG=
201912212200 METAR VIDP 212200Z 26004KT 0200 R28/1200 R29/0250 FG SCT100 09/09 Q1017 BECMG 0150 FG=
201912212230 METAR VIDP 212230Z 29005KT 0050 R28/0300 R29/0200 FG VV/// 09/09 Q1017 NOSIG=
201912212300 METAR VIDP 212300Z 29005KT 0050 R28/0200 R29/0200 FG VV/// 09/09 Q1017 NOSIG=
201912212330 METAR VIDP 212330Z 29005KT 0050 R28/0250 R29/0250 FG VV/// 09/09 Q1018 NOSIG=
201912220000 METAR VIDP 220000Z 30005KT 0050 R28/0600 R29/0300 FG VV/// 09/09 Q1018 NOSIG=
201912220030 METAR VIDP 220030Z 30006KT 0050 R28/0800 R29/0400 FG VV/// 09/09 Q1018 NOSIG=
201912220100 METAR VIDP 220100Z 31006KT 0100 R28/0500 R29/0700 FG FEW100 09/09 Q1018 TEMPO 0150 FG=
201912220130 METAR VIDP 220130Z 30006KT 0100 R28/1300 R29/0700 FG VV/// 10/10 Q1019 NOSIG=
201912220200 METAR VIDP 220200Z 29005KT 0100 R28/1100 R29/0800 FG VV/// 10/10 Q1019 BECMG 0150 FG=
201912220230 METAR VIDP 220230Z 30006KT 0300 R28/1100 R29/1000 FG FEW100 10/10 Q1019 NOSIG=
201912220300 METAR VIDP 220300Z 31006KT 0300 R28/1000 R29/1100 FG FEW100 10/10 Q1020 BECMG 0350 FG=
201912220330 METAR VIDP 220330Z 32005KT 0400 R28/1000 R29/1100 FG FEW100 10/10 Q1020 NOSIG=
201912220400 METAR VIDP 220400Z 29006KT 0500 R28/1000 R29/1000 FG FEW100 10/10 Q1021 BECMG 0600 MIFG=
201912220430 METAR VIDP 220430Z 29006KT 0700 R28/1000 R29/1100 MIFG FEW100 10/10 Q1021 BECMG 0800 MIFG=
201912220500 METAR VIDP 220500Z 28007KT 0800 R28/0900 R29/0900 MIFG FEW100 10/10 Q1021 NOSIG=
201912220530 METAR VIDP 220530Z 28006KT 0800 R28/0900 R29/0900 MIFG FEW100 11/10 Q1021 NOSIG=
201912220600 METAR VIDP 220600Z 28005KT 0800 R28/0900 R29/0800 MIFG FEW100 11/10 Q1021 NOSIG=
201912220630 METAR VIDP 220630Z 28006KT 0800 R28/0900 R29/0950 MIFG FEW100 11/11 Q1020 NOSIG=
201912220700 METAR VIDP 220700Z 28007KT 0800 R28/0900 R29/1000 MIFG FEW100 12/11 Q1019 NOSIG=
201912220730 METAR VIDP 220730Z 29007KT 0900 R28/0950 R29/1000 MIFG FEW100 12/11 Q1019 NOSIG=
201912220800 METAR VIDP 220800Z 29008KT 1000 R28/1000 R29/1100 BR FEW100 13/11 Q1018 NOSIG=
201912220830 METAR VIDP 220830Z 28008KT 1000 R28/1100 R29/1100 BR SCT100 13/11 Q1018 NOSIG=
201912220900 METAR VIDP 220900Z 30009KT 0900 R28/1100 R29/1100 BR SCT100 13/11 Q1017 NOSIG=
201912220930 METAR VIDP 220930Z 30009KT 1000 R28/1100 R29/1200 BR SCT100 13/11 Q1017 NOSIG=
201912221000 METAR VIDP 221000Z 29008KT 1000 R28/1150 R29/1200 BR SCT100 13/11 Q1017 NOSIG=
201912221030 METAR VIDP 221030Z 30007KT 1000 R28/1200 R29/1300 BR SCT100 13/11 Q1017 NOSIG=
201912221100 METAR VIDP 221100Z 31007KT 1000 R28/1300 R29/1400 BR SCT100 12/11 Q1016 NOSIG=
201912221130 METAR VIDP 221130Z 29006KT 1000 R28/1500 R29/1600 BR SCT100 12/11 Q1016 NOSIG=
201912221200 METAR VIDP 221200Z 29006KT 1000 R28/1700 R29/1900 BR FEW100 12/11 Q1016 NOSIG=
201912221230 METAR VIDP 221230Z 28006KT 1200 R28/P2000 R29/P2000 BR FEW100 12/11 Q1016 NOSIG=
201912221300 METAR VIDP 221300Z 27006KT 1200 R28/P2000 R29/P2000 BR FEW100 11/11 Q1016 NOSIG=
201912221330 METAR VIDP 221330Z 27006KT 1200 R28/2000 R29/2000 BR FEW100 11/11 Q1016 NOSIG=
201912221400 METAR VIDP 221400Z 27006KT 1200 R28/2000 R29/2000 BR FEW100 11/11 Q1016 NOSIG=
201912221430 METAR VIDP 221430Z 29006KT 0900 R28/2000 R29/2000 MIFG FEW100 11/11 Q1016 BECMG 0800 MIFG=
201912221500 METAR VIDP 221500Z 29006KT 0700 R28/2000 R29/2000 MIFG NSC 11/11 Q1017 BECMG 0600 MIFG=
201912221530 METAR VIDP 221530Z 32007KT 0700 R28/2000 R29/2000 MIFG NSC 11/11 Q1017 BECMG 0600 MIFG=
201912221600 METAR VIDP 221600Z 31006KT 0600 R28/2000 R29/2000 MIFG NSC 11/10 Q1017 NOSIG=
201912221630 METAR VIDP 221630Z 31007KT 0600 R28/2000 R29/2000 MIFG NSC 10/10 Q1017 NOSIG=
201912221700 METAR VIDP 221700Z 31006KT 0600 R28/2000 R29/2000 MIFG NSC 10/10 Q1017 NOSIG=
201912221730 METAR VIDP 221730Z 28006KT 0600 R28/P2000 R29/P2000 MIFG 10/10 Q1017 NOSIG=
201912221800 METAR VIDP 221800Z 28006KT 0600 R28/P2000 R29/P2000 MIFG 10/10 Q1017 NOSIG=
201912221830 METAR VIDP 221830Z 27007KT 0700 R28/2000 R29/2000 MIFG NSC 10/09 Q1017 NOSIG=
201912221900 METAR VIDP 221900Z 27006KT 0700 R28/2000 R29/2000 MIFG 10/09 Q1017 NOSIG=
201912221930 METAR VIDP 221930Z 28007KT 0700 R28/2000 R29/2000 MIFG 10/09 Q1017 NOSIG=
201912222000 METAR VIDP 222000Z 29007KT 0700 R28/P2000 R29/P2000 MIFG NSC 09/09 Q1017 NOSIG=
201912222005 METAR VIDP NIL=
201912222030 METAR VIDP 222030Z 28007KT 0700 R28/P2000 R29/P2000 MIFG 09/09 Q1017 NOSIG=
201912222100 METAR VIDP 222100Z 27006KT 0700 R28/P2000 R29/P2000 MIFG 09/09 Q1017 NOSIG=
201912222130 METAR VIDP 222130Z 26007KT 0700 R28/P2000 R29/P2000 MIFG 09/09 Q1017 NOSIG=
201912222205 METAR VIDP NIL=
201912222230 METAR VIDP 222230Z 27008KT 0700 R28/P2000 R29/P2000 MIFG 09/08 Q1016 NOSIG=
201912222305 METAR VIDP NIL=
201912222330 METAR VIDP 222330Z 28007KT 0700 R28/P2000 R29/P2000 MIFG NSC 09/08 Q1016 NOSIG=
201912230005 METAR VIDP NIL=
201912230030 METAR VIDP 230030Z 28007KT 0700 R28/P2000 R29/P2000 MIFG NSC 09/08 Q1016 NOSIG=
201912230100 METAR VIDP 230100Z 27007KT 0700 R28/P2000 R29/P2000 MIFG NSC 08/08 Q1017 BECMG 0600 MIFG=
201912230130 METAR VIDP 230130Z 28007KT 0700 R28/P2000 R29/P2000 MIFG NSC 08/08 Q1017 BECMG 0600 MIFG=
201912230200 METAR VIDP 230200Z 27007KT 0500 R28/1700 R29/2000 MIFG VV/// 08/08 Q1017 NOSIG=
201912230230 METAR VIDP 230230Z 26006KT 0500 R28/1300 R29/P2000 MIFG VV/// 08/08 Q1018 NOSIG=
201912230300 METAR VIDP 230300Z 27006KT 0500 R28/1300 R29/P2000 MIFG VV/// 08/08 Q1018 BECMG 0600 MIFG=
201912230330 METAR VIDP 230330Z 30006KT 0600 R28/1200 R29/P2000 MIFG VV/// 08/08 Q1018 NOSIG=
201912230400 METAR VIDP 230400Z 29006KT 0700 R28/1100 R29/P2000 MIFG NSC 08/08 Q1019 NOSIG=
201912230430 METAR VIDP 230430Z 27005KT 0700 R28/1100 R29/P2000 MIFG NSC 08/08 Q1019 NOSIG=
201912230500 METAR VIDP 230500Z 27004KT 0700 R28/1100 R29/P2000 MIFG NSC 09/09 Q1019 BECMG 0800 MIFG=
201912230530 METAR VIDP 230530Z 24005KT 0800 R28/1000 R29/P2000 MIFG NSC 09/09 Q1019 NOSIG=
201912230600 METAR VIDP 230600Z 29004KT 0800 R28/1000 R29/1200 MIFG FEW100 09/09 Q1019 NOSIG=
201912230630 METAR VIDP 230630Z 27004KT 0800 R28/1100 R29/1200 MIFG SCT100 10/09 Q1018 NOSIG=
201912230700 METAR VIDP 230700Z 28005KT 0800 R28/1000 R29/1000 MIFG SCT100 11/09 Q1018 NOSIG=
201912230730 METAR VIDP 230730Z 26005KT 0800 R28/1100 R29/1100 MIFG SCT100 11/09 Q1018 NOSIG=
201912230800 METAR VIDP 230800Z 28005KT 0800 R28/1100 R29/1100 MIFG SCT100 11/09 Q1017 NOSIG=
201912230830 METAR VIDP 230830Z 25007KT 0800 R28/1100 R29/1200 MIFG SCT100 11/09 Q1017 NOSIG=
201912230900 METAR VIDP 230900Z 28006KT 0800 R28/1100 R29/1200 MIFG SCT100 12/09 Q1016 NOSIG=
201912230930 METAR VIDP 230930Z 28005KT 0900 R28/1100 R29/1200 MIFG SCT100 12/09 Q1016 NOSIG=
201912231000 METAR VIDP 231000Z 26005KT 0900 R28/1200 R29/1200 MIFG SCT100 12/09 Q1016 NOSIG=
201912231030 METAR VIDP 231030Z 27004KT 0900 R28/1200 R29/1200 MIFG SCT100 12/09 Q1015 NOSIG=
201912231100 METAR VIDP 231100Z 28005KT 0900 R28/1300 R29/1300 MIFG SCT100 11/09 Q1015 NOSIG=
201912231105 METAR VIDP NIL=
201912231130 METAR VIDP 231130Z 25005KT 0900 R28/1300 R29/1400 MIFG SCT100 11/09 Q1016 NOSIG=
201912231200 METAR VIDP 231200Z 27005KT 1200 R28/1600 R29/1700 BR SCT100 10/10 Q1016 NOSIG=
201912231230 METAR VIDP 231230Z 27007KT 1200 R28/1700 R29/1800 BR SCT100 10/10 Q1016 NOSIG=
201912231300 METAR VIDP 231300Z 30005KT 1000 R28/P2000 R29/P2000 BR FEW100 10/10 Q1016 BECMG 0800 MIFG=
201912231330 METAR VIDP 231330Z 31005KT 0800 R28/P2000 R29/P2000 MIFG FEW100 10/10 Q1016 NOSIG=
201912231400 METAR VIDP 231400Z 29004KT 0800 R28/P2000 R29/P2000 MIFG FEW100 09/09 Q1017 NOSIG=
201912231430 METAR VIDP 231430Z 31005KT 0800 R28/P2000 R29/P2000 MIFG FEW100 09/09 Q1017 NOSIG=
201912231500 METAR VIDP 231500Z 00000KT 0800 R28/P2000 R29/P2000 MIFG FEW100 09/09 Q1017 NOSIG=
201912231530 METAR VIDP 231530Z 00000KT 0800 R28/P2000 R29/P2000 MIFG FEW100 09/09 Q1017 BECMG 0600 MIFG=
201912231605 METAR VIDP NIL=
201912231630 METAR COR VIDP 231630Z 00000KT 0600 R28/P2000 R29/1600 MIFG FEW100 08/08 Q1018 NOSIG=
201912231700 METAR VIDP 231700Z 00000KT 0600 R28/P2000 R29/P2000 MIFG FEW100 08/08 Q1018 NOSIG=
201912231730 METAR VIDP NIL=
201912231800 METAR VIDP 231800Z 00000KT 0600 R28/1800 R29/1900 MIFG FEW100 08/08 Q1018 NOSIG=
201912231830 METAR VIDP 231830Z 00000KT 0500 R28/1500 R29/1700 FG FEW100 08/08 Q1018 NOSIG=
201912231900 METAR VIDP 231900Z 00000KT 0500 R28/1900 R29/1700 FG FEW100 08/08 Q1018 NOSIG=
201912231930 METAR VIDP 231930Z 00000KT 0500 R28/1800 R29/2000 FG FEW100 08/08 Q1017 NOSIG=
201912232000 METAR VIDP 232000Z 12004KT 0500 R28/1300 R29/1600 FG FEW100 08/08 Q1018 NOSIG=
201912232030 METAR VIDP 232030Z 11003KT 0400 R28/1400 R29/1200 FG FEW100 08/08 Q1018 BECMG 0350 FG=
201912232100 METAR VIDP 232100Z 00000KT 0300 R28/1600 R29/1400 FG FEW100 08/08 Q1018 NOSIG=
201912232130 METAR VIDP 232130Z 00000KT 0300 R28/1700 R29/1400 FG FEW100 08/08 Q1018 NOSIG=
201912232200 METAR VIDP 232200Z 00000KT 0300 R28/1700 R29/1400 FG FEW100 08/08 Q1018 NOSIG=
201912232230 METAR VIDP 232230Z 00000KT 0300 R28/1600 R29/1500 FG FEW100 08/08 Q1018 BECMG 0150 FG=
201912232300 METAR VIDP 232300Z 00000KT 0300 R28/1700 R29/1800 FG FEW100 08/08 Q1018 BECMG 0150 FG=
201912232330 METAR VIDP 232330Z 00000KT 0300 R28/2000 R29/1800 FG FEW100 09/08 Q1018 BECMG 0150 FG=
201912240000 METAR VIDP 240000Z 00000KT 0300 R28/1900 R29/1900 FG FEW100 09/08 Q1018 NOSIG=
201912240030 METAR VIDP 240030Z 05004KT 0300 R28/2000 R29/2000 FG FEW100 09/08 Q1018 NOSIG=
201912240100 METAR VIDP 240100Z 07005KT 0300 R28/2000 R29/2000 FG FEW100 09/08 Q1018 NOSIG=
201912240130 METAR VIDP 240130Z 05003KT 0300 R28/P2000 R29/P2000 FG FEW100 09/08 Q1019 NOSIG=
201912240200 METAR VIDP 240200Z 09005KT 0400 R28/1500 R29/1500 FG FEW100 08/08 Q1019 TEMPO 0600 MIFG=
201912240230 METAR VIDP 240230Z 05005KT 0600 R28/1200 R29/1200 MIFG FEW100 09/08 Q1020 NOSIG=
201912240300 METAR VIDP 240300Z 05004KT 0600 R28/1100 R29/1200 MIFG FEW100 09/08 Q1020 BECMG 0800 MIFG=
201912240330 METAR VIDP 240330Z 10004KT 0600 R28/1100 R29/1100 MIFG FEW100 09/08 Q1020 BECMG 0800 MIFG=
201912240400 METAR VIDP 240400Z 07005KT 0700 R28/1100 R29/1000 MIFG FEW100 09/08 Q1021 BECMG 0800 MIFG=
201912240430 METAR VIDP 240430Z 00000KT 0800 R28/1100 R29/1000 MIFG FEW100 09/09 Q1022 NOSIG=
201912240500 METAR VIDP 240500Z 19003KT 0800 R28/1000 R29/1000 MIFG FEW100 09/09 Q1022 NOSIG=
201912240505 METAR VIDP NIL=
201912240530 METAR VIDP NIL=
201912240600 METAR VIDP 240600Z 00000KT 0800 R28/1100 R29/1000 MIFG FEW100 11/09 Q1021 NOSIG=
201912240630 METAR VIDP 240630Z 00000KT 0800 R28/1100 R29/1100 MIFG FEW100 12/09 Q1020 NOSIG=
201912240705 METAR VIDP NIL=
201912240730 METAR VIDP 240730Z 32004KT 0800 R28/1200 R29/1000 MIFG FEW100 13/09 Q1019 NOSIG=
201912240800 METAR VIDP 240800Z 27004KT 0800 R28/1200 R29/1100 MIFG FEW100 13/09 Q1019 NOSIG=
201912240830 METAR VIDP 240830Z 26004KT 0800 R28/1200 R29/1100 MIFG FEW100 14/08 Q1019 NOSIG=
201912240900 METAR VIDP 240900Z 27004KT 0800 R28/1200 R29/1000 FU FEW100 15/08 Q1018 NOSIG=
201912240930 METAR VIDP 240930Z 29004KT 0800 R28/1100 R29/1000 FU FEW100 15/08 Q1018 NOSIG=
201912241000 METAR VIDP 241000Z 28005KT 0800 R28/1100 R29/1100 FU FEW100 15/08 Q1018 NOSIG=
201912241030 METAR VIDP 241030Z 30005KT 0900 R28/1100 R29/1100 FU FEW100 14/09 Q1018 NOSIG=
201912241100 METAR VIDP 241100Z 31004KT 0900 R28/1100 R29/1100 FU FEW100 14/09 Q1018 NOSIG=
201912241130 METAR VIDP 241130Z 31005KT 0900 R28/1200 R29/1200 FU FEW100 13/09 Q1018 NOSIG=
201912241200 METAR VIDP 241200Z 30005KT 0900 R28/1400 R29/1600 FU FEW100 13/09 Q1018 NOSIG=
201912241230 METAR VIDP 241230Z 28004KT 0900 R28/2000 R29/2000 BR FEW100 12/10 Q1018 NOSIG=
201912241300 METAR VIDP 241300Z 32004KT 1200 R28/2000 R29/2000 BR FEW100 11/10 Q1018 NOSIG=
201912241330 METAR VIDP 241330Z 30004KT 1200 R28/2000 R29/2000 BR FEW100 11/10 Q1018 NOSIG=
201912241400 METAR VIDP 241400Z 29004KT 1200 R28/2000 R29/2000 BR FEW100 11/10 Q1018 NOSIG=
201912241430 METAR VIDP 241430Z 25004KT 1000 R28/P2000 R29/1500 BR FEW100 10/10 Q1019 NOSIG=
201912241500 METAR VIDP 241500Z 27004KT 1000 R28/1900 R29/1800 BR FEW100 09/09 Q1019 NOSIG=
201912241530 METAR VIDP 241530Z 25004KT 0900 R28/1800 R29/1600 BR FEW100 09/09 Q1019 BECMG 0800 MIFG=
201912241600 METAR VIDP 241600Z 27004KT 0800 R28/1700 R29/P1300 MIFG FEW100 10/10 Q1019 NOSIG=
201912241630 METAR VIDP 241630Z 25004KT 0800 R28/1600 R29/P1300 MIFG FEW100 10/10 Q1019 NOSIG=
201912241700 METAR VIDP 241700Z 26004KT 0800 R28/1500 R29/1200 MIFG FEW100 10/10 Q1019 NOSIG=
201912241730 METAR VIDP 241730Z 25005KT 0700 R28/1500 R29/1100 MIFG FEW100 09/09 Q1019 BECMG 0600 MIFG=
201912241800 METAR VIDP 241800Z 25003KT 0600 R28/1500 R29/1000 MIFG FEW100 09/09 Q1019 NOSIG=
201912241830 METAR VIDP 241830Z 00000KT 0500 R28/1500 R29/0800 MIFG FEW100 08/08 Q1018 NOSIG=
201912241900 METAR VIDP 241900Z 26005KT 0400 R28/1500 R29/0400 FG FEW100 07/07 Q1018 BECMG 0350 FG=
201912241930 METAR VIDP 241930Z 26004KT 0200 R28/1500 R29/0200 FG VV/// 08/08 Q1018 BECMG 0150 FG=
201912242000 METAR VIDP 242000Z 28005KT 0150 R28/1500 R29/0200 FG VV/// 08/08 Q1018 NOSIG=
201912242030 METAR VIDP 242030Z 29004KT 0050 R28/1500 R29/0400 FG VV/// 08/08 Q1018 NOSIG=
201912242100 METAR VIDP 242100Z 32005KT 0050 R28/0300 R29/0350 FG VV/// 08/08 Q1018 NOSIG=
201912242130 METAR VIDP 242130Z 31004KT 0050 R28/1200 R29/0600 FG VV/// 08/08 Q1018 NOSIG=
201912242200 METAR VIDP 242200Z 28006KT 0100 R28/1700 R29/1500 FG VV/// 08/08 Q1017 BECMG 0150 FG=
201912242230 METAR VIDP 242230Z 25005KT 0200 R28/P2000 R29/1600 FG VV/// 07/07 Q1017 BECMG 0350 FG=
201912242300 METAR VIDP 242300Z 27007KT 0400 R28/P2000 R29/1800 FG VV/// 07/07 Q1017 NOSIG=
201912242330 METAR VIDP 242330Z 28007KT 0500 R28/1900 R29/P2000 MIFG FEW100 07/07 Q1017 NOSIG=
201912250000 METAR VIDP 250000Z 27007KT 0500 R28/P2000 R29/P2000 MIFG FEW100 07/07 Q1017 NOSIG=
201912250030 METAR VIDP 250030Z 28007KT 0500 R28/P2000 R29/P2000 MIFG FEW100 07/07 Q1017 NOSIG=
201912250100 METAR VIDP 250100Z 27005KT 0550 R28/P2000 R29/P2000 MIFG FEW100 07/07 Q1018 NOSIG=
201912250130 METAR VIDP 250130Z 27006KT 0550 R28/P2000 R29/P2000 MIFG FEW100 07/07 Q1018 TEMPO 0400 FG=
201912250200 METAR VIDP 250200Z 28007KT 0500 R28/1500 R29/0900 MIFG FEW100 07/07 Q1018 TEMPO 0400 FG=
201912250230 METAR VIDP 250230Z 27007KT 0500 R28/1200 R29/1000 MIFG 07/07 Q1019 NOSIG=
201912250300 METAR VIDP 250300Z 28007KT 0400 R28/1100 R29/1100 FG FEW100 06/06 Q1019 NOSIG=
201912250305 METAR VIDP NIL=
201912250330 METAR VIDP 250330Z 27007KT 0500 R28/1200 R29/1100 FG FEW100 06/05 Q1019 BECMG 0600 MIFG=
201912250400 METAR VIDP 250400Z 28007KT 0500 R28/1200 R29/1100 FG FEW100 07/06 Q1020 BECMG 0600 MIFG=
201912250405 METAR VIDP NIL=
201912250430 METAR VIDP 250430Z 29007KT 0600 R28/1200 R29/1200 MIFG FEW100 07/07 Q1020 NOSIG=
201912250500 METAR VIDP 250500Z 27008KT 0600 R28/1100 R29/1200 MIFG FEW100 08/07 Q1020 NOSIG=
201912250505 METAR VIDP NIL=
201912250530 METAR VIDP 250530Z 28008KT 0600 R28/1100 R29/1100 MIFG FEW100 08/08 Q1020 NOSIG=
201912250600 METAR VIDP 250600Z 28008KT 0600 R28/1100 R29/1100 MIFG SCT100 08/08 Q1020 NOSIG=
201912250605 METAR VIDP NIL=
201912250630 METAR VIDP 250630Z 29008KT 0600 R28/1100 R29/1100 MIFG SCT100 08/08 Q1019 NOSIG=
201912250700 METAR VIDP 250700Z 31007KT 0600 R28/1100 R29/1100 MIFG SCT100 09/08 Q1019 NOSIG=
201912250705 METAR VIDP NIL=
201912250730 METAR VIDP 250730Z 31008KT 0600 R28/1100 R29/1800 MIFG SCT100 09/08 Q1019 NOSIG=
201912250800 METAR VIDP 250800Z 30007KT 0700 R28/1100 R29/1200 MIFG SCT100 10/09 Q1018 BECMG 0800 MIFG=
201912250805 METAR VIDP NIL=
201912250830 METAR VIDP 250830Z 28007KT 0800 R28/1100 R29/1200 MIFG SCT100 10/09 Q1017 NOSIG=
201912250900 METAR VIDP 250900Z 28007KT 0900 R28/1200 R29/1200 MIFG SCT100 10/09 Q1017 NOSIG=
201912250905 METAR VIDP NIL=
201912250930 METAR VIDP 250930Z 28006KT 0900 R28/1200 R29/1200 MIFG SCT100 11/09 Q1017 NOSIG=
201912251000 METAR VIDP 251000Z 27007KT 0900 R28/1200 R29/1200 MIFG SCT100 11/08 Q1017 NOSIG=
201912251005 METAR VIDP NIL=
201912251030 METAR VIDP 251030Z 29007KT 0900 R28/1200 R29/1200 MIFG SCT100 11/08 Q1016 NOSIG=
201912251100 METAR VIDP 251100Z 30006KT 0900 R28/1200 R29/1300 MIFG SCT100 11/08 Q1016 NOSIG=
201912251130 METAR VIDP 251130Z 29007KT 0900 R28/1400 R29/1500 MIFG SCT100 11/08 Q1016 NOSIG=
201912251200 METAR VIDP 251200Z 29006KT 0900 R28/1700 R29/1800 MIFG SCT100 10/09 Q1017 NOSIG=
201912251230 METAR VIDP 251230Z 30007KT 0900 R28/P2000 R29/P2000 MIFG SCT100 10/09 Q1017 NOSIG=
201912251300 METAR VIDP 251300Z 31007KT 0900 R28/P2000 R29/P2000 MIFG SCT100 09/09 Q1017 NOSIG=
201912251330 METAR VIDP 251330Z 29008KT 1000 R28/P2000 R29/P2000 BR SCT100 09/09 Q1017 NOSIG=
201912251400 METAR VIDP 251400Z 30006KT 1000 R28/P2000 R29/P2000 BR SCT100 09/09 Q1017 NOSIG=
201912251430 METAR VIDP 251430Z 30006KT 1000 R28/P2000 R29/P2000 BR SCT100 09/08 Q1017 NOSIG=
201912251500 METAR VIDP 251500Z 29004KT 1000 R28/P2000 R29/P2000 BR SCT100 08/07 Q1018 NOSIG=
201912251530 METAR VIDP 251530Z 27004KT 1000 R28/P2000 R29/P2000 BR SCT100 08/08 Q1018 BECMG 0800 MIFG=
201912251600 METAR VIDP 251600Z 28004KT 0800 R28/P2000 R29/P2000 MIFG SCT100 08/08 Q1018 NOSIG=
201912251630 METAR VIDP 251630Z 28003KT 0800 R28/P2000 R29/P2000 MIFG SCT100 08/08 Q1018 NOSIG=
201912251700 METAR VIDP 251700Z 25003KT 0800 R28/P2000 R29/P2000 MIFG SCT100 08/08 Q1018 NOSIG=
201912251705 METAR VIDP NIL=
201912251730 METAR VIDP 251730Z 26003KT 0800 R28/P2000 R29/P2000 MIFG SCT100 08/08 Q1018 NOSIG=
201912251800 METAR VIDP 251800Z 27004KT 0800 R28/1800 R29/1200 MIFG SCT100 08/08 Q1018 NOSIG=
201912251830 METAR VIDP 251830Z 27004KT 0700 R28/1600 R29/1200 MIFG SCT100 08/08 Q1018 BECMG 0600 MIFG=
201912251900 METAR VIDP 251900Z 27005KT 0600 R28/1600 R29/1400 MIFG SCT100 07/07 Q1017 NOSIG=
201912251930 METAR VIDP 251930Z 27004KT 0600 R28/1700 R29/1500 MIFG SCT100 07/07 Q1017 NOSIG=
201912252000 METAR VIDP 252000Z 26004KT 0600 R28/1700 R29/1700 MIFG SCT100 07/07 Q1017 NOSIG=
201912252030 METAR VIDP 252030Z 28004KT 0600 R28/1900 R29/1900 MIFG SCT100 07/07 Q1017 NOSIG=
201912252100 METAR VIDP 252100Z 29006KT 0600 R28/1900 R29/2000 MIFG SCT100 07/07 Q1017 NOSIG=
201912252130 METAR VIDP 252130Z 29006KT 0600 R28/1900 R29/2000 MIFG SCT100 07/07 Q1017 NOSIG=
201912252200 METAR VIDP 252200Z 28005KT 0600 R28/1900 R29/1900 MIFG SCT100 07/07 Q1017 NOSIG=
201912252230 METAR VIDP 252230Z 30006KT 0600 R28/P2000 R29/P2000 MIFG SCT100 07/07 Q1016 NOSIG=
201912252300 METAR VIDP 252300Z 28005KT 0600 R28/1900 R29/1900 MIFG SCT100 07/07 Q1016 NOSIG=
201912252330 METAR VIDP 252330Z 28005KT 0600 R28/P2000 R29/P2000 MIFG SCT100 07/07 Q1016 NOSIG=
201912260000 METAR VIDP 260000Z 28006KT 0600 R28/P2000 R29/P2000 MIFG SCT100 07/07 Q1016 NOSIG=
201912260030 METAR VIDP 260030Z 28006KT 0600 R28/P2000 R29/P2000 MIFG SCT100 07/07 Q1017 NOSIG=
201912260100 METAR VIDP 260100Z 29006KT 0600 R28/P2000 R29/P2000 MIFG SCT100 07/07 Q1017 NOSIG=
201912260105 METAR VIDP NIL=
201912260130 METAR VIDP 260130Z 29007KT 0600 R28/P2000 R29/P2000 MIFG SCT100 06/06 Q1017 NOSIG=
201912260200 METAR VIDP 260200Z 29007KT 0600 R28/1400 R29/1500 MIFG SCT100 07/07 Q1018 NOSIG=
201912260205 METAR VIDP NIL=
201912260230 METAR COR VIDP 260230Z 28006KT 0700 R28/1200 R29/1300 MIFG SCT100 07/06 Q1018 BECMG 0800 MIFG=
201912260300 METAR VIDP 260300Z 30007KT 0800 R28/1200 R29/1300 MIFG SCT100 07/06 Q1018 NOSIG=
201912260330 METAR VIDP 260330Z 26006KT 0800 R28/1200 R29/1200 MIFG SCT100 07/06 Q1018 NOSIG=
201912260400 METAR VIDP 260400Z 30005KT 0800 R28/1200 R29/1200 MIFG SCT100 07/06 Q1018 NOSIG=
201912260430 METAR VIDP 260430Z 29005KT 0800 R28/1100 R29/1100 MIFG SCT100 07/07 Q1019 NOSIG=
201912260500 METAR VIDP 260500Z 29006KT 0800 R28/1000 R29/1000 MIFG SCT100 07/07 Q1019 NOSIG=
201912260530 METAR VIDP 260530Z 27004KT 0800 R28/0900 R29/1000 MIFG SCT100 07/07 Q1019 NOSIG=
201912260600 METAR VIDP 260600Z 29005KT 0800 R28/0900 R29/0900 MIFG SCT100 08/07 Q1018 NOSIG=
201912260630 METAR VIDP 260630Z 31005KT 0800 R28/0900 R29/1000 MIFG SCT100 08/07 Q1018 NOSIG=
201912260700 METAR VIDP 260700Z 27006KT 0800 R28/1000 R29/1100 MIFG SCT100 08/07 Q1017 NOSIG=
201912260730 METAR VIDP 260730Z 27006KT 0800 R28/1300 R29/1200 MIFG SCT100 09/06 Q1017 NOSIG=
201912260800 METAR VIDP 260800Z 25006KT 0900 R28/1300 R29/1200 MIFG SCT100 09/06 Q1017 NOSIG=
201912260830 METAR VIDP 260830Z 24005KT 0900 R28/1300 R29/1200 MIFG FEW100 10/06 Q1016 NOSIG=
201912260900 METAR VIDP 260900Z 27005KT 0900 R28/1400 R29/1200 FU FEW100 11/06 Q1016 NOSIG=
201912260905 METAR VIDP NIL=
201912260930 METAR VIDP 260930Z 26005KT 0900 R28/1500 R29/1200 FU FEW100 10/06 Q1016 NOSIG=
201912261000 METAR VIDP 261000Z 28005KT 0900 R28/1500 R29/1200 FU FEW100 11/06 Q1016 NOSIG=
201912261030 METAR VIDP 261030Z 28005KT 0900 R28/1500 R29/1300 FU FEW100 11/06 Q1016 NOSIG=
201912261100 METAR VIDP 261100Z 27004KT 1000 R28/1500 R29/1300 FU FEW100 11/06 Q1016 NOSIG=
201912261130 METAR VIDP 261130Z 26005KT 1000 R28/1600 R29/1500 BR FEW100 10/06 Q1016 NOSIG=
201912261200 METAR VIDP 261200Z 27004KT 1000 R28/1900 R29/1600 BR FEW100 10/07 Q1016 NOSIG=
201912261230 METAR VIDP 261230Z 29004KT 1200 R28/P2000 R29/P2000 BR FEW100 10/07 Q1016 NOSIG=
201912261300 METAR VIDP 261300Z 01004KT 1200 R28/P2000 R29/P2000 BR FEW100 10/07 Q1017 NOSIG=
201912261330 METAR VIDP 261330Z 33004KT 1000 R28/P2000 R29/P2000 BR FEW100 10/07 Q1017 NOSIG=
201912261400 METAR VIDP 261400Z 01004KT 1000 R28/P2000 R29/P2000 BR FEW100 09/07 Q1017 NOSIG=
201912261430 METAR VIDP 261430Z 36005KT 1000 R28/P2000 R29/P2000 BR FEW100 09/07 Q1017 NOSIG=
201912261500 METAR VIDP 261500Z 35005KT 0900 R28/2000 R29/2000 MIFG FEW100 09/07 Q1018 BECMG 0800 MIFG=
201912261530 METAR VIDP 261530Z 36005KT 0800 R28/2000 R29/2000 MIFG FEW100 08/07 Q1018 NOSIG=
201912261600 METAR VIDP 261600Z 36003KT 0600 R28/2000 R29/2000 MIFG FEW100 08/07 Q1018 NOSIG=
201912261630 METAR VIDP 261630Z 05003KT 0800 R28/2000 R29/2000 MIFG FEW100 08/07 Q1018 NOSIG=
201912261700 METAR VIDP 261700Z 00000KT 0800 R28/2000 R29/2000 MIFG FEW100 07/07 Q1019 NOSIG=
201912261730 METAR VIDP NIL=
201912261800 METAR VIDP 261800Z 00000KT 0800 R28/2000 R29/2000 MIFG FEW100 07/07 Q1019 NOSIG=
201912261805 METAR VIDP NIL=
201912261830 METAR VIDP 261830Z 00000KT 0800 R28/2000 R29/2000 MIFG FEW100 07/07 Q1018 NOSIG=
201912261900 METAR VIDP 261900Z 08003KT 0800 R28/2000 R29/2000 MIFG FEW100 07/07 Q1018 NOSIG=
201912261930 METAR VIDP 261930Z 06003KT 0800 R28/2000 R29/2000 MIFG FEW100 07/07 Q1018 NOSIG=
201912262000 METAR VIDP 262000Z 00000KT 0800 R28/2000 R29/2000 MIFG FEW100 07/06 Q1018 NOSIG=
201912262030 METAR VIDP 262030Z 00000KT 0800 R28/2000 R29/2000 MIFG FEW100 07/06 Q1018 NOSIG=
201912262100 METAR VIDP 262100Z 00000KT 0800 R28/1800 R29/2000 MIFG FEW100 06/06 Q1018 NOSIG=
201912262130 METAR VIDP NIL=
201912262200 METAR VIDP 262200Z 04003KT 0700 R28/2000 R29/2000 MIFG FEW100 06/06 Q1017 NOSIG=
201912262230 METAR VIDP 262230Z 02004KT 0700 R28/2000 R29/2000 MIFG FEW100 07/07 Q1017 BECMG 0600 MIFG=
201912262300 METAR VIDP 262300Z 31004KT 0600 R28/2000 R29/2000 MIFG FEW100 07/07 Q1017 NOSIG=
201912262330 METAR VIDP 262330Z 33005KT 0600 R28/2000 R29/2000 MIFG FEW100 07/07 Q1017 NOSIG=
201912270000 METAR VIDP 270000Z 32005KT 0600 R28/2000 R29/2000 MIFG FEW100 07/06 Q1017 NOSIG=
201912270030 METAR VIDP 270030Z 32005KT 0600 R28/2000 R29/2000 MIFG FEW100 07/06 Q1017 NOSIG=
201912270100 METAR VIDP 270100Z 30005KT 0600 R28/2000 R29/2000 MIFG FEW100 07/05 Q1017 NOSIG=
201912270130 METAR VIDP 270130Z 30005KT 0600 R28/2000 R29/2000 MIFG FEW100 07/06 Q1018 BECMG 0350 FG=
201912270200 METAR VIDP 270200Z 29005KT 0600 R28/1600 R29/1700 MIFG FEW100 07/06 Q1018 BECMG 0350 FG=
201912270230 METAR VIDP 270230Z 28004KT 0700 R28/1300 R29/1300 MIFG SCT100 07/06 Q1019 NOSIG=
201912270300 METAR VIDP 270300Z 32003KT 0700 R28/1200 R29/1300 MIFG SCT100 07/06 Q1019 NOSIG=
201912270330 METAR VIDP 270330Z 35004KT 0700 R28/1100 R29/1100 MIFG SCT100 07/06 Q1020 NOSIG=
201912270400 METAR VIDP 270400Z 30003KT 0700 R28/1100 R29/1200 MIFG SCT100 07/06 Q1020 BECMG 0800 MIFG=
201912270430 METAR VIDP 270430Z 26003KT 0800 R28/1100 R29/1100 MIFG SCT100 08/06 Q1020 NOSIG=
201912270500 METAR VIDP 270500Z 25004KT 0800 R28/1050 R29/1100 MIFG SCT100 08/06 Q1020 NOSIG=
201912270505 METAR VIDP NIL=
201912270530 METAR VIDP 270530Z 28004KT 0800 R28/1000 R29/1100 MIFG SCT100 08/06 Q1020 NOSIG=
201912270600 METAR VIDP 270600Z 27004KT 0800 R28/1000 R29/1100 MIFG SCT100 09/07 Q1020 NOSIG=
201912270630 METAR VIDP 270630Z 27004KT 0800 R28/1100 R29/1200 MIFG SCT100 10/06 Q1019 NOSIG=
201912270700 METAR VIDP 270700Z 26005KT 0800 R28/1000 R29/1200 MIFG SCT100 10/06 Q1019 NOSIG=
201912270730 METAR VIDP 270730Z 27005KT 0800 R28/1100 R29/1100 FU FEW100 11/06 Q1018 NOSIG=
201912270800 METAR VIDP 270800Z 22003KT 0800 R28/1100 R29/1100 FU FEW100 11/06 Q1018 NOSIG=
201912270830 METAR VIDP 270830Z 29005KT 0800 R28/1100 R29/1100 FU FEW100 12/06 Q1017 NOSIG=
201912270900 METAR VIDP 270900Z 26005KT 0900 R28/1100 R29/1100 FU FEW100 12/05 Q1017 NOSIG=
201912270930 METAR VIDP 270930Z 29005KT 1000 R28/1200 R29/1200 FU FEW100 12/05 Q1017 NOSIG=
201912271000 METAR VIDP 271000Z 28005KT 1000 R28/1200 R29/1200 FU FEW100 12/05 Q1017 NOSIG=
201912271030 METAR VIDP 271030Z 28005KT 1000 R28/1200 R29/1200 FU FEW100 12/05 Q1017 NOSIG=
201912271105 METAR VIDP NIL=
201912271130 METAR VIDP 271130Z 27005KT 1000 R28/1300 R29/1400 FU FEW100 11/06 Q1017 NOSIG=
201912271200 METAR VIDP 271200Z 28006KT 1200 R28/1500 R29/1600 FU FEW100 10/06 Q1017 NOSIG=
201912271230 METAR VIDP 271230Z 29006KT 1200 R28/1700 R29/1800 BR FEW100 10/06 Q1017 NOSIG=
201912271300 METAR VIDP 271300Z 32004KT 1200 R28/P2000 R29/P2000 BR NSC 10/07 Q1018 NOSIG=
201912271330 METAR VIDP 271330Z 00000KT 1200 R28/P2000 R29/P2000 BR NSC 10/07 Q1018 NOSIG=
201912271400 METAR VIDP 271400Z 00000KT 1200 R28/P2000 R29/P2000 BR NSC 10/07 Q1018 NOSIG=
201912271405 METAR VIDP NIL=
201912271430 METAR VIDP 271430Z 00000KT 1200 R28/P2000 R29/P2000 BR NSC 10/07 Q1018 NOSIG=
201912271500 METAR VIDP 271500Z 00000KT 1200 R28/P2000 R29/P2000 BR NSC 09/07 Q1018 NOSIG=
201912271530 METAR VIDP 271530Z 00000KT 1200 R28/P2000 R29/1800 BR NSC 09/07 Q1018 NOSIG=
201912271600 METAR VIDP 271600Z 00000KT 0900 R28/1700 R29/2000 MIFG NSC 08/07 Q1018 BECMG 0800 MIFG=
201912271630 METAR VIDP 271630Z 00000KT 0700 R28/1700 R29/1900 MIFG NSC 08/07 Q1018 BECMG 0600 MIFG=
201912271700 METAR VIDP 271700Z 00000KT 0600 R28/1700 R29/1900 MIFG NSC 08/07 Q1018 NOSIG=
201912271730 METAR VIDP 271730Z 00000KT 0600 R28/1500 R29/1900 MIFG NSC 08/07 Q1018 NOSIG=
201912271800 METAR VIDP 271800Z 00000KT 0600 R28/1500 R29/1700 MIFG NSC 08/07 Q1018 NOSIG=
201912271830 METAR VIDP 271830Z 00000KT 0500 R28/1500 R29/1400 FG NSC 08/07 Q1018 NOSIG=
201912271900 METAR VIDP 271900Z 00000KT 0500 R28/1400 R29/1200 FG NSC 07/07 Q1018 NOSIG=
201912271930 METAR VIDP 271930Z 00000KT 0500 R28/1400 R29/1400 FG NSC 07/07 Q1018 NOSIG=
201912272000 METAR VIDP 272000Z 00000KT 0500 R28/1500 R29/1100 FG NSC 07/07 Q1017 NOSIG=
201912272030 METAR VIDP 272030Z 00000KT 0400 R28/1400 R29/1100 FG NSC 07/06 Q1017 BECMG 0350 FG=
201912272100 METAR VIDP 272100Z 00000KT 0350 R28/1300 R29/1100 FG NSC 06/06 Q1017 NOSIG=
201912272130 METAR VIDP 272130Z 00000KT 0350 R28/1400 R29/1500 FG NSC 06/06 Q1017 NOSIG=
201912272200 METAR VIDP 272200Z 00000KT 0350 R28/1400 R29/1200 FG NSC 05/05 Q1017 NOSIG=
201912272230 METAR VIDP 272230Z 00000KT 0200 R28/1200 R29/0700 FG NSC 05/05 Q1017 BECMG 0150 FG=
201912272300 METAR VIDP 272300Z 00000KT 0100 R28/1050 R29/0200 FG VV/// 05/05 Q1017 NOSIG=
201912272330 METAR VIDP 272330Z 00000KT 0000 R28/0500 R29/0125 FG VV/// 05/05 Q1017 NOSIG=
201912280000 METAR VIDP 280000Z 00000KT 0000 R28/0100 R29/0150 FG VV/// 05/05 Q1017 NOSIG=
201912280030 METAR VIDP 280030Z 00000KT 0000 R28/0125 R29/0175 FG VV/// 04/04 Q1017 NOSIG=
201912280100 METAR VIDP 280100Z 00000KT 0000 R28/0150 R29/0175 FG VV/// 03/03 Q1018 NOSIG=
201912280130 METAR VIDP 280130Z 00000KT 0000 R28/0250 R29/0175 FG VV/// 04/04 Q1018 NOSIG=
201912280200 METAR VIDP 280200Z 00000KT 0000 R28/0250 R29/0150 FG VV/// 04/04 Q1019 NOSIG=
201912280230 METAR VIDP 280230Z 25004KT 0000 R28/0250 R29/0150 FG VV/// 04/04 Q1019 NOSIG=
201912280300 METAR VIDP 280300Z 24004KT 0050 R28/0450 R29/0200 FG VV/// 05/05 Q1020 NOSIG=
201912280330 METAR VIDP 280330Z 25004KT 0100 R28/0550 R29/0200 FG VV/// 05/05 Q1020 NOSIG=
201912280400 METAR VIDP 280400Z 26004KT 0150 R28/0550 R29/0200 FG VV/// 06/06 Q1020 NOSIG=
201912280430 METAR VIDP 280430Z 25004KT 0150 R28/0600 R29/0300 FG VV/// 06/06 Q1021 NOSIG=
201912280500 METAR VIDP 280500Z 28003KT 0200 R28/0800 R29/0700 FG VV/// 06/06 Q1021 NOSIG=
201912280530 METAR VIDP 280530Z 27003KT 0250 R28/0800 R29/0700 FG VV/// 06/06 Q1021 BECMG 0350 FG=
201912280600 METAR VIDP 280600Z 28003KT 0500 R28/0900 R29/0900 FG NSC 07/07 Q1021 BECMG 0600 MIFG=
201912280630 METAR VIDP 280630Z 29003KT 0600 R28/0900 R29/0900 MIFG NSC 07/07 Q1020 NOSIG=
201912280700 METAR VIDP 280700Z 28003KT 0600 R28/0900 R29/0900 MIFG NSC 08/08 Q1020 NOSIG=
201912280730 METAR VIDP 280730Z 27003KT 0700 R28/0900 R29/1000 MIFG NSC 10/09 Q1019 BECMG 0800 MIFG=
201912280800 METAR VIDP 280800Z 25003KT 0800 R28/1000 R29/1100 MIFG NSC 11/09 Q1019 NOSIG=
201912280805 METAR VIDP NIL=
201912280830 METAR VIDP 280830Z 27005KT 0800 R28/1000 R29/1000 MIFG NSC 11/09 Q1018 NOSIG=
201912280900 METAR VIDP 280900Z 26004KT 0800 R28/1000 R29/1000 MIFG NSC 11/07 Q1018 NOSIG=
201912280905 METAR VIDP NIL=
201912280930 METAR VIDP 280930Z 27006KT 0800 R28/1000 R29/1100 MIFG NSC 11/07 Q1018 NOSIG=
201912281000 METAR VIDP 281000Z 26004KT 0800 R28/1100 R29/1100 MIFG NSC 10/07 Q1018 NOSIG=
201912281005 METAR VIDP NIL=
201912281030 METAR VIDP 281030Z 26005KT 0800 R28/1100 R29/1100 MIFG NSC 10/07 Q1018 NOSIG=
201912281100 METAR VIDP 281100Z 26005KT 0900 R28/1200 R19/1200 FU NSC 10/07 Q1018 NOSIG=
201912281105 METAR VIDP NIL=
201912281130 METAR VIDP 281130Z 27005KT 0900 R28/1200 R29/1200 FU NSC 10/07 Q1018 NOSIG=
201912281205 METAR VIDP NIL=
201912281230 METAR VIDP 281230Z 26003KT 1200 R28/P2000 R29/P2000 BR NSC 09/07 Q1018 NOSIG=
201912281300 METAR VIDP 281300Z 25002KT 1200 R28/2000 R29/2000 BR NSC 08/07 Q1018 NOSIG=
201912281305 METAR VIDP NIL=
201912281330 METAR VIDP 281330Z 24003KT 1300 R28/2000 R29/1600 BR NSC 08/07 Q1019 BECMG 1500 BR=
201912281400 METAR VIDP 281400Z 24003KT 1300 R28/1700 R29/1600 BR NSC 08/07 Q1019 NOSIG=
201912281430 METAR VIDP 281430Z 00000KT 1000 R28/1800 R29/1500 BR NSC 07/07 Q1019 NOSIG=
201912281500 METAR VIDP 281500Z 00000KT 1000 R28/1700 R29/1500 BR NSC 07/07 Q1020 NOSIG=
201912281530 METAR VIDP 281530Z 00000KT 1000 R28/1700 R29/1500 BR NSC 07/07 Q1020 NOSIG=
201912281600 METAR VIDP 281600Z 00000KT 0900 R28/1600 R29/1600 BR NSC 07/07 Q1020 NOSIG=
201912281630 METAR VIDP 281630Z 00000KT 0900 R28/1700 R29/1500 BR NSC 07/07 Q1020 BECMG 0800 MIFG=
201912281700 METAR VIDP 281700Z 00000KT 0800 R28/1600 R29/1400 MIFG NSC 06/06 Q1020 NOSIG=
201912281730 METAR VIDP 281730Z 00000KT 0700 R28/1600 R29/1400 MIFG NSC 06/06 Q1020 BECMG 0600 MIFG=
201912281800 METAR VIDP 281800Z 00000KT 0500 R28/1400 R29/1200 MIFG NSC 06/06 Q1020 BECMG 0350 FG=
201912281830 METAR VIDP 281830Z 00000KT 0300 R28/1300 R29/1300 FG NSC 06/06 Q1019 NOSIG=
201912281900 METAR VIDP 281900Z 00000KT 0300 R28/1200 R29/0700 FG NSC 06/06 Q1019 NOSIG=
201912281930 METAR COR VIDP 281930Z 04003KT 0200 R28/0900 R29/1200 FG VV/// 06/06 Q1019 BECMG 0150 FG=
201912282000 METAR VIDP 282000Z 04005KT 0150 R28/0800 R29/0900 FG VV/// 06/06 Q1019 NOSIG=
201912282030 METAR VIDP 282030Z 07004KT 0150 R28/1000 R29/1100 FG VV/// 06/06 Q1019 NOSIG=
201912282100 METAR VIDP 282100Z 10004KT 0150 R28/1100 R29/1200 FG VV/// 06/06 Q1019 NOSIG=
201912282130 METAR VIDP 282130Z 00000KT 0150 R28/1100 R29/1300 FG VV/// 07/06 Q1019 NOSIG=
201912282200 METAR VIDP 282200Z 00000KT 0250 R28/1100 R29/1200 FG VV/// 07/07 Q1019 NOSIG=
201912282230 METAR VIDP 282230Z 03003KT 0250 R28/1200 R29/1400 FG VV/// 07/07 Q1019 NOSIG=
201912282300 METAR VIDP 282300Z 00000KT 0250 R28/1200 R29/1300 FG VV/// 07/07 Q1019 NOSIG=
201912282330 METAR VIDP 282330Z 01003KT 0300 R28/1200 R29/1300 FG VV/// 06/06 Q1019 NOSIG=
201912290000 METAR VIDP 290000Z 03004KT 0300 R28/1300 R29/1300 FG VV/// 06/06 Q1019 BECMG 0350 FG=
201912290005 METAR VIDP NIL=
201912290030 METAR VIDP 290030Z 28005KT 0350 R28/1400 R29/1500 FG VV/// 06/06 Q1020 NOSIG=
201912290100 METAR VIDP 290100Z 00000KT 0350 R28/1600 R29/1600 FG VV/// 06/06 Q1020 NOSIG=
201912290130 METAR VIDP 290130Z 00000KT 0500 R28/1700 R29/1700 FG VV/// 06/06 Q1020 NOSIG=
201912290200 METAR VIDP 290200Z 00000KT 0500 R28/1300 R29/1200 FG VV/// 06/06 Q1020 NOSIG=
201912290230 METAR VIDP 290230Z 00000KT 0400 R28/1000 R29/1000 FG VV/// 07/07 Q1021 NOSIG=
201912290300 METAR VIDP 290300Z 10003KT 0400 R28/1000 R29/1000 FG VV/// 07/07 Q1021 NOSIG=
201912290330 METAR VIDP 290330Z 00000KT 0400 R28/0950 R29/1000 FG VV/// 07/07 Q1021 BECMG 0350 FG=
201912290400 METAR VIDP 290400Z 00000KT 0400 R28/0900 R29/0900 FG VV/// 07/06 Q1022 BECMG 0350 FG=
201912290430 METAR VIDP 290430Z 00000KT 0400 R28/0800 R29/0800 FG VV/// 07/06 Q1022 BECMG 0350 FG=
201912290500 METAR VIDP 290500Z 00000KT 0400 R28/0800 R29/0800 FG VV/// 08/07 Q1022 NOSIG=
201912290530 METAR VIDP 290530Z 00000KT 0400 R28/0800 R29/0900 FG VV/// 09/08 Q1022 NOSIG=
201912290600 METAR VIDP 290600Z 00000KT 0500 R28/0900 R29/0900 MIFG SCT100 10/07 Q1022 BECMG 0600 MIFG=
201912290630 METAR VIDP 290630Z 28002KT 0500 R28/0850 R29/0900 MIFG SCT100 10/07 Q1021 BECMG 0600 MIFG=
201912290700 METAR VIDP 290700Z 30003KT 0500 R28/0900 R29/1000 MIFG SCT100 11/06 Q1020 BECMG 0600 MIFG=
201912290730 METAR VIDP 290730Z 27003KT 0600 R28/0900 R29/1000 MIFG SCT100 12/06 Q1019 NOSIG=
201912290800 METAR VIDP 290800Z 32004KT 0600 R28/0900 R29/1000 MIFG SCT100 13/06 Q1019 NOSIG=
201912290830 METAR VIDP 290830Z 31006KT 0600 R28/0900 R29/0900 FU SCT100 13/07 Q1018 NOSIG=
201912290900 METAR VIDP 290900Z 30005KT 0600 R28/0900 R29/0900 FU SCT100 13/07 Q1017 NOSIG=
201912290930 METAR VIDP 290930Z 30006KT 0600 R28/0900 R29/0900 FU FEW100 13/07 Q1017 NOSIG=
201912291000 METAR VIDP 291000Z 29006KT 0600 R28/0900 R29/0900 FU FEW100 13/07 Q1017 NOSIG=
201912291030 METAR VIDP 291030Z 27006KT 0700 R28/1000 R29/1000 FU FEW100 13/07 Q1017 BECMG 0800 FU=
201912291100 METAR VIDP 291100Z 26006KT 0800 R28/1000 R29/1000 FU FEW100 13/07 Q1017 NOSIG=
201912291105 METAR VIDP NIL=
201912291130 METAR VIDP 291130Z 25005KT 0800 R28/1100 R29/1100 MIFG FEW100 12/08 Q1018 NOSIG=
201912291200 METAR VIDP 291200Z 25004KT 0800 R28/1200 R29/1100 MIFG FEW100 11/08 Q1018 NOSIG=
201912291230 METAR VIDP 291230Z 25004KT 1000 R28/1800 R29/1800 BR FEW100 10/08 Q1018 NOSIG=
201912291300 METAR VIDP 291300Z 00000KT 1000 R28/1800 R29/1800 BR FEW100 10/09 Q1019 NOSIG=
201912291330 METAR VIDP 291330Z 00000KT 1000 R28/1800 R29/1900 BR FEW100 10/09 Q1019 NOSIG=
201912291400 METAR VIDP 291400Z 00000KT 1000 R28/1800 R29/1800 BR FEW100 10/09 Q1019 BECMG 0800 MIFG=
201912291430 METAR COR VIDP 291430Z 00000KT 0700 R28/1600 R29/1700 MIFG FEW100 09/09 Q1019 BECMG 0600 MIFG=
201912291500 METAR VIDP 291500Z 00000KT 0600 R28/1500 R29/1500 MIFG FEW100 09/09 Q1019 NOSIG=
201912291530 METAR VIDP 291530Z 00000KT 0600 R28/1400 R29/1400 MIFG FEW100 09/09 Q1019 NOSIG=
201912291600 METAR VIDP 291600Z 00000KT 0600 R28/1600 R29/1200 MIFG FEW100 09/09 Q1019 NOSIG=
201912291630 METAR VIDP 291630Z 00000KT 0600 R28/1400 R29/1800 MIFG FEW100 08/08 Q1018 NOSIG=
201912291700 METAR VIDP 291700Z 06003KT 0600 R28/1400 R29/1800 MIFG FEW100 08/08 Q1018 NOSIG=
201912291730 METAR VIDP 291730Z 00000KT 0600 R28/1100 R29/1500 MIFG FEW100 08/08 Q1018 NOSIG=
201912291800 METAR VIDP 291800Z 00000KT 0600 R28/1100 R29/1200 MIFG FEW100 08/08 Q1018 NOSIG=
201912291830 METAR VIDP 291830Z 00000KT 0500 R28/1100 R29/1100 MIFG FEW100 07/07 Q1018 NOSIG=
201912291900 METAR VIDP 291900Z 00000KT 0400 R28/1100 R29/0600 FG FEW100 07/07 Q1018 BECMG 0350 FG=
201912291930 METAR VIDP 291930Z 00000KT 0300 R28/0800 R29/0900 FG FEW100 07/07 Q1017 NOSIG=
201912292000 METAR VIDP 292000Z 00000KT 0300 R28/0600 R29/1100 FG FEW100 06/06 Q1017 NOSIG=
201912292030 METAR VIDP 292030Z 28004KT 0200 R28/0900 R29/0600 FG VV/// 06/06 Q1017 BECMG 0150 FG=
201912292100 METAR VIDP 292100Z 00000KT 0100 R28/0600 R29/0100 FG VV/// 06/06 Q1017 NOSIG=
201912292130 METAR VIDP 292130Z 00000KT 0050 R28/0800 R29/0100 FG VV/// 06/06 Q1017 NOSIG=
201912292200 METAR VIDP 292200Z 00000KT 0000 R28/0150 R29/0100 FG VV/// 06/06 Q1017 NOSIG=
201912292205 METAR VIDP NIL=
201912292230 METAR VIDP 292230Z 00000KT 0000 R28/0150 R29/0125 FG VV/// 05/05 Q1017 NOSIG=
201912292300 METAR VIDP 292300Z 00000KT 0000 R28/0125 R29/0100 FG VV/// 05/05 Q1017 NOSIG=
201912292305 METAR VIDP NIL=
201912292330 METAR VIDP 292330Z 00000KT 0000 R28/0125 R29/0100 FG VV/// 05/05 Q1017 NOSIG=
201912300000 METAR VIDP 300000Z 00000KT 0000 R28/0100 R29/0100 FG VV/// 05/05 Q1017 NOSIG=
201912300005 METAR VIDP NIL=
201912300030 METAR VIDP 300030Z 00000KT 0000 R28/0100 R29/0100 FG VV/// 05/05 Q1017 NOSIG=
201912300100 METAR VIDP 300100Z 00000KT 0000 R28/0175 R29/0150 FG VV/// 05/05 Q1018 NOSIG=
201912300130 METAR VIDP 300130Z 00000KT 0000 R28/0150 R29/0125 FG VV/// 05/05 Q1018 NOSIG=
201912300200 METAR VIDP 300200Z 26003KT 0000 R28/0150 R29/0125 FG VV/// 05/05 Q1018 NOSIG=
201912300205 METAR VIDP NIL=
201912300230 METAR VIDP 300230Z 00000KT 0000 R28/0100 R29/0100 FG VV/// 05/05 Q1018 NOSIG=
201912300300 METAR VIDP 300300Z 00000KT 0000 R28/0125 R29/0100 FG VV/// 05/05 Q1018 NOSIG=
201912300330 METAR VIDP 300330Z 00000KT 0000 R28/0125 R29/0100 FG VV/// 05/05 Q1019 NOSIG=
201912300400 METAR VIDP 300400Z 00000KT 0000 R28/0125 R29/0100 FG VV/// 05/05 Q1019 NOSIG=
201912300430 METAR VIDP 300430Z 00000KT 0050 R28/0150 R29/0125 FG VV/// 06/06 Q1020 NOSIG=
201912300500 METAR VIDP 300500Z 00000KT 0050 R28/0150 R29/0150 FG VV/// 06/06 Q1020 NOSIG=
201912300530 METAR VIDP 300530Z 00000KT 0100 R28/0450 R29/0300 FG VV/// 06/06 Q1020 BECMG 0150 FG=
201912300600 METAR VIDP 300600Z 13003KT 0100 R28/0400 R29/0400 FG VV/// 07/06 Q1020 BECMG 0150 FG=
201912300630 METAR VIDP 300630Z 19004KT 0300 R28/0600 R29/0600 FG VV/// 07/07 Q1020 BECMG 0350 FG=
201912300700 METAR VIDP 300700Z 17005KT 0400 R28/0700 R29/0750 FG NSC 07/07 Q1020 BECMG 0600 MIFG=
201912300730 METAR VIDP 300730Z 13005KT 0500 R28/0700 R29/0750 FG NSC 08/07 Q1019 BECMG 0600 MIFG=
201912300800 METAR VIDP 300800Z 15005KT 0600 R28/0700 R29/0750 MIFG NSC 08/07 Q1019 BECMG 0800 MIFG=
201912300830 METAR VIDP 300830Z 00000KT 0600 R28/0700 R29/0750 MIFG VV/// 08/08 Q1018 NOSIG=
201912300900 METAR VIDP 300900Z 12003KT 0600 R28/0750 R29/0800 MIFG VV/// 08/08 Q1018 NOSIG=
201912300930 METAR VIDP 300930Z 15004KT 0600 R28/0750 R29/0850 MIFG VV/// 09/08 Q1018 NOSIG=
201912301000 METAR VIDP 301000Z 12004KT 0600 R28/0750 R29/0800 MIFG VV/// 09/08 Q1018 NOSIG=
201912301030 METAR VIDP 301030Z 12005KT 0600 R28/0800 R29/0800 MIFG VV/// 09/09 Q1018 NOSIG=
201912301100 METAR VIDP 301100Z 12006KT 0600 R28/0800 R29/0900 MIFG VV/// 09/09 Q1018 NOSIG=
201912301130 METAR VIDP 301130Z 09006KT 0600 R28/0800 R29/0900 MIFG VV/// 09/09 Q1018 NOSIG=
201912301200 METAR VIDP 301200Z 11007KT 0700 R28/1000 R29/1000 MIFG VV/// 08/08 Q1018 NOSIG=
201912301230 METAR VIDP 301230Z 11006KT 0700 R28/1000 R29/1200 MIFG VV/// 07/07 Q1018 BECMG 0600 MIFG=
201912301300 METAR VIDP 301300Z 10006KT 0400 R28/1100 R29/1000 FG VV/// 07/07 Q1018 NOSIG=
201912301330 METAR VIDP 301330Z 10005KT 0400 R28/1100 R29/1100 FG VV/// 06/06 Q1018 BECMG 0350 FG=
201912301400 METAR VIDP 301400Z 10005KT 0300 R28/1100 R29/0900 FG VV/// 06/06 Q1019 NOSIG=
201912301405 METAR VIDP NIL=
201912301430 METAR VIDP 301430Z 11005KT 0250 R28/1000 R29/1100 FG VV/// 06/06 Q1019 NOSIG=
201912301505 METAR VIDP NIL=
201912301530 METAR VIDP NIL=
201912301605 METAR VIDP NIL=
201912301630 METAR VIDP NIL=
201912301705 METAR VIDP NIL=
201912301805 METAR VIDP NIL=
201912301830 METAR VIDP NIL=
201912301905 METAR VIDP NIL=
201912301930 METAR VIDP NIL=
201912302005 METAR VIDP NIL=
201912302030 METAR VIDP NIL=
201912302105 METAR VIDP NIL=
201912302130 METAR VIDP NIL=
201912302200 METAR VIDP 302200Z 11006KT 0700 R28/2000 R29/2000 MIFG NSC 05/05 Q1019 BECMG 0800 MIFG=
201912302205 METAR VIDP NIL=
201912302230 METAR VIDP NIL=
201912302300 METAR VIDP 302300Z 12006KT 0800 R28/2000 R29/2000 MIFG NSC 05/05 Q1019 NOSIG=
201912302330 METAR VIDP NIL=
