##########################################################
# Query made at 12/13/2025 04:26:09 UTC
# Time interval: from 12/10/2020 00:00  to 12/30/2020 23:59  UTC
##########################################################

##########################################################
# VIDP, New Delhi / Palam (India)
# WMO index: 42181. WIGOS ID: 0-20000-0-42181
# Latitude 28-34-00N. Longitude 077-07-00E. Altitude 225 m.
##########################################################

###################################
#  METAR/SPECI from VIDP
###################################
202012100000 METAR VIDP 100000Z 00000KT 1500 R28/P2000 R29/P2000 BR NSC 14/12 Q1014 NOSIG=
202012100030 METAR VIDP 100030Z 00000KT 1200 R28/P2000 R29/P2000 BR NSC 14/12 Q1014 NOSIG=
202012100100 METAR VIDP 100100Z 00000KT 1200 R28/P2000 R29/P2000 BR NSC 14/12 Q1015 NOSIG=
202012100130 METAR VIDP 100130Z 22003KT 1000 R28/P2000 R29/P2000 BR NSC 13/12 Q1015 BECMG 0800 MIFG=
202012100200 METAR COR VIDP 100200Z 22003KT 0800 R28/1800 R29/1700 MIFG NSC 13/12 Q1015 BECMG 0600 MIFG=
202012100230 METAR VIDP 100230Z 23003KT 0800 R28/1600 R29/1500 MIFG NSC 14/12 Q1016 NOSIG=
202012100300 METAR VIDP 100300Z 27003KT 1000 R28/1600 R29/1500 BR NSC 15/12 Q1016 NOSIG=
202012100330 METAR VIDP 100330Z 27004KT 1200 R28/1900 R29/2000 BR NSC 16/12 Q1017 NOSIG=
202012100400 METAR VIDP 100400Z 26004KT 1400 R28/2000 R29/2000 FU NSC 17/12 Q1017 BECMG 1500 FU=
202012100430 METAR VIDP 100430Z 25003KT 1500 R28/P2000 R29/P2000 FU NSC 18/12 Q1017 NOSIG=
202012100500 METAR VIDP 100500Z 26004KT 1800 R28/P2000 R29/P2000 FU NSC 19/12 Q1017 NOSIG=
202012100530 METAR VIDP 100530Z 27003KT 2000 FU NSC 20/12 Q1017 NOSIG=
202012100600 METAR VIDP 100600Z 27004KT 2200 FU NSC 22/12 Q1016 NOSIG=
202012100630 METAR VIDP 100630Z 28004KT 2200 FU NSC 23/11 Q1016 NOSIG=
202012100700 METAR VIDP 100700Z 30004KT 2500 FU NSC 24/11 Q1016 NOSIG=
202012100730 METAR VIDP 100730Z 29004KT 2500 FU NSC 25/11 Q1015 NOSIG=
202012100800 METAR VIDP 100800Z 28004KT 2500 FU NSC 26/11 Q1015 NOSIG=
202012100830 METAR VIDP 100830Z 29005KT 2500 FU NSC 26/11 Q1014 NOSIG=
202012100900 METAR VIDP 100900Z 31004KT 2500 FU NSC 26/11 Q1014 NOSIG=
202012100905 METAR VIDP NIL=
202012100930 METAR VIDP 100930Z 31004KT 2800 FU NSC 26/11 Q1014 NOSIG=
202012101000 METAR VIDP 101000Z 32004KT 2800 HZ NSC 26/11 Q1014 NOSIG=
202012101005 METAR VIDP NIL=
202012101030 METAR VIDP 101030Z 30004KT 2800 HZ NSC 26/11 Q1014 NOSIG=
202012101100 METAR VIDP 101100Z 30004KT 2800 HZ NSC 26/11 Q1014 NOSIG=
202012101105 METAR VIDP NIL=
202012101130 METAR VIDP 101130Z 31004KT 2800 HZ NSC 25/11 Q1014 NOSIG=
202012101200 METAR VIDP 101200Z 27003KT 2800 HZ NSC 24/12 Q1014 NOSIG=
202012101230 METAR VIDP 101230Z 00000KT 2500 HZ NSC 24/12 Q1014 NOSIG=
202012101300 METAR VIDP 101300Z 00000KT 2500 HZ NSC 23/12 Q1014 NOSIG=
202012101330 METAR VIDP 101330Z 00000KT 2200 FU NSC 22/13 Q1014 NOSIG=
202012101400 METAR VIDP 101400Z 00000KT 2200 FU NSC 22/13 Q1015 NOSIG=
202012101430 METAR VIDP 101430Z 00000KT 2200 FU NSC 21/13 Q1015 NOSIG=
202012101500 METAR VIDP 101500Z 00000KT 2200 FU NSC 20/14 Q1015 NOSIG=
202012101530 METAR VIDP 101530Z 00000KT 2200 BR NSC 19/15 Q1016 NOSIG=
202012101600 METAR VIDP 101600Z 00000KT 2000 BR NSC 19/15 Q1016 NOSIG=
202012101630 METAR VIDP 101630Z 00000KT 2000 BR NSC 19/15 Q1016 NOSIG=
202012101700 METAR VIDP 101700Z 00000KT 2000 BR NSC 19/15 Q1016 NOSIG=
202012101730 METAR VIDP 101730Z 00000KT 2000 BR NSC 19/15 Q1016 NOSIG=
202012101800 METAR VIDP 101800Z 00000KT 2000 BR NSC 17/15 Q1016 NOSIG=
202012101830 METAR VIDP 101830Z 00000KT 1800 R28/P2000 R29/P2000 BR NSC 17/15 Q1016 NOSIG=
202012101900 METAR VIDP 101900Z 00000KT 1800 R28/P2000 R29/P2000 BR NSC 17/15 Q1016 NOSIG=
202012101930 METAR VIDP 101930Z 00000KT 1800 R28/P2000 R29/P2000 BR NSC 16/14 Q1015 NOSIG=
202012102000 METAR VIDP 102000Z 00000KT 1800 R28/P2000 R29/P2000 BR NSC 16/14 Q1015 NOSIG=
202012102030 METAR VIDP 102030Z 00000KT 1800 R28/P2000 R29/P2000 BR NSC 16/14 Q1015 NOSIG=
202012102100 METAR VIDP 102100Z 00000KT 1600 R28/P2000 R29/P2000 BR NSC 16/14 Q1015 BECMG 1500 BR=
202012102130 METAR VIDP 102130Z 00000KT 1500 R28/P2000 R29/P2000 BR NSC 15/13 Q1015 NOSIG=
202012102200 METAR VIDP 102200Z 00000KT 1500 R28/P2000 R29/P2000 BR NSC 15/13 Q1015 NOSIG=
202012102230 METAR COR VIDP 102230Z 00000KT 1200 R28/P2000 R29/P2000 BR NSC 15/13 Q1015 NOSIG=
202012102300 METAR VIDP 102300Z 00000KT 1200 R28/P2000 R29/P2000 BR NSC 15/13 Q1015 NOSIG=
202012102330 METAR VIDP 102330Z 00000KT 1200 R28/P2000 R29/P2000 BR NSC 15/13 Q1015 NOSIG=
202012110000 METAR VIDP 110000Z 00000KT 1000 R28/P2000 R29/P2000 BR NSC 14/13 Q1015 BECMG 0800 MIFG=
202012110030 METAR VIDP 110030Z 00000KT 0800 R28/P2000 R29/P2000 MIFG NSC 14/13 Q1015 NOSIG=
202012110100 METAR VIDP 110100Z 00000KT 0800 R28/P2000 R29/P2000 MIFG NSC 14/13 Q1016 NOSIG=
202012110130 METAR VIDP 110130Z 00000KT 0700 R28/P2000 R29/1600 MIFG NSC 14/13 Q1016 TEMPO 0600 MIFG=
202012110200 METAR VIDP 110200Z 00000KT 0600 R28/1800 R29/1000 MIFG NSC 14/13 Q1016 NOSIG=
202012110230 METAR VIDP 110230Z 00000KT 0600 R28/1200 R29/1200 MIFG NSC 14/13 Q1017 NOSIG=
202012110300 METAR VIDP 110300Z 00000KT 0700 R28/1300 R29/1300 MIFG NSC 15/14 Q1017 BECMG 0800 MIFG=
202012110330 METAR VIDP 110330Z 00000KT 0800 R28/1300 R29/1500 MIFG FEW100 16/14 Q1017 NOSIG=
202012110400 METAR VIDP 110400Z 00000KT 1000 R28/1400 R29/P2000 BR FEW100 18/14 Q1017 NOSIG=
202012110430 METAR VIDP 110430Z 06003KT 1200 R28/1700 R29/1700 BR FEW040 SCT100 19/15 Q1017 NOSIG=
202012110500 METAR VIDP 110500Z 00000KT 1200 R28/1900 R29/1400 FU SCT040 BKN100 20/15 Q1017 NOSIG=
202012110530 METAR VIDP 110530Z 00000KT 1200 R28/P2000 R29/1400 FU SCT040 BKN100 21/15 Q1017 NOSIG=
202012110600 METAR VIDP 110600Z 00000KT 1200 R28/1800 R29/1500 FU SCT040 BKN100 22/14 Q1017 NOSIG=
202012110630 METAR VIDP 110630Z 15004KT 1300 R28/P2000 R29/1700 FU SCT040 BKN100 22/14 Q1016 BECMG 1500 FU=
202012110700 METAR VIDP 110700Z 15003KT 1600 R28/P2000 R29/1700 FU SCT040 BKN100 23/14 Q1016 NOSIG=
202012110730 METAR VIDP 110730Z 12004KT 1600 R28/P2000 R29/1600 FU SCT040 BKN100 23/14 Q1015 NOSIG=
202012110800 METAR VIDP 110800Z 16004KT 1800 R28/P2000 R29/1800 FU SCT040 BKN100 24/13 Q1015 NOSIG=
202012110830 METAR VIDP 110830Z 14004KT 2000 FU SCT040 BKN100 25/12 Q1014 NOSIG=
202012110900 METAR VIDP 110900Z 13004KT 2100 FU SCT040 BKN100 25/12 Q1013 NOSIG=
202012110930 METAR VIDP 110930Z 08003KT 2100 FU FEW040 SCT100 25/12 Q1013 NOSIG=
202012111000 METAR VIDP 111000Z 21007KT 2500 FU FEW040 SCT100 24/11 Q1013 NOSIG=
202012111030 METAR VIDP 111030Z 21006KT 2500 FU FEW040 SCT100 23/11 Q1013 NOSIG=
202012111100 METAR VIDP 111100Z 25004KT 2500 FU FEW040 SCT100 23/11 Q1013 NOSIG=
202012111130 METAR VIDP 111130Z 26005KT 2500 FU FEW040 SCT100 22/12 Q1013 NOSIG=
202012111200 METAR VIDP 111200Z 27004KT 2500 FU FEW040 SCT100 21/12 Q1013 NOSIG=
202012111230 METAR VIDP 111230Z 15003KT 2100 FU FEW040 SCT100 20/12 Q1013 NOSIG=
202012111300 METAR VIDP 111300Z 12004KT 2100 FU SCT040 BKN100 19/12 Q1013 NOSIG=
202012111330 METAR VIDP 111330Z 10004KT 2500 FU SCT040 BKN100 19/12 Q1014 NOSIG=
202012111400 METAR VIDP 111400Z 12004KT 2500 FU SCT040 BKN100 18/12 Q1014 NOSIG=
202012111430 METAR VIDP 111430Z 09003KT 2200 FU SCT040 BKN100 18/12 Q1014 NOSIG=
202012111500 METAR VIDP 111500Z 12004KT 2200 FU SCT040 BKN100 18/12 Q1014 NOSIG=
202012111530 METAR VIDP 111530Z 10004KT 2200 BR SCT040 BKN100 17/13 Q1014 NOSIG=
202012111600 METAR VIDP 111600Z 09004KT 2200 BR SCT040 BKN100 17/14 Q1014 NOSIG=
202012111630 METAR VIDP 111630Z 09003KT 2200 BR SCT040 BKN100 17/14 Q1014 NOSIG=
202012111705 METAR VIDP NIL=
202012111730 METAR VIDP 111730Z 14006KT 2200 BR SCT040 FEW040CB BKN100 16/14 Q1014 NOSIG=
202012111800 METAR VIDP 111800Z 14006KT 2200 BR SCT040 BKN100 16/14 Q1014 NOSIG=
202012111830 METAR VIDP 111830Z 14004KT 2200 BR SCT040 BKN100 16/14 Q1013 NOSIG=
202012111900 METAR VIDP 111900Z 14004KT 1800 R28/P2000 R29/P2000 BR SCT040 BKN100 16/14 Q1013 NOSIG=
202012111905 METAR VIDP NIL=
202012111930 METAR VIDP 111930Z 15004KT 1800 R28/P2000 R29/P2000 BR SCT040 BKN100 16/14 Q1013 NOSIG=
202012112000 METAR VIDP 112000Z 14004KT 1600 R28/P2000 R29/P2000 BR SCT040 BKN100 16/14 Q1013 BECMG 1500 BR=
202012112005 METAR VIDP NIL=
202012112030 METAR VIDP 112030Z 15004KT 1500 R28/P2000 R29/1800 BR SCT040 BKN100 16/14 Q1013 NOSIG=
202012112100 METAR COR VIDP 112100Z 13004KT 1000 R28/2000 R29/1800 BR SCT035 FEW040CB BKN100 16/14 Q1013 BECMG 0800 MIFG=
202012112130 METAR VIDP 112130Z 14004KT 0800 R28/2000 R29/1600 MIFG SCT035 FEW040CB BKN100 16/14 Q1013 NOSIG=
202012112200 METAR VIDP 112200Z 12006KT 0700 R28/2000 R29/1700 MIFG SCT035 FEW040CB BKN100 16/14 Q1013 NOSIG=
202012112230 METAR VIDP NIL=
202012112300 METAR VIDP 112300Z 13003KT 0700 R28/P2000 R29/1800 MIFG SCT035 FEW040CB BKN100 16/14 Q1013 NOSIG=
202012112330 METAR VIDP 112330Z 00000KT 0700 R28/P2000 R29/1800 MIFG SCT035 FEW040CB BKN100 16/14 Q1013 NOSIG=
202012120000 METAR VIDP 120000Z 00000KT 0700 R28/P2000 R29/1500 MIFG SCT035 FEW040CB BKN100 16/14 Q1013 NOSIG=
202012120030 METAR VIDP 120030Z 00000KT 0700 R28/P2000 R29/1800 MIFG SCT040 FEW040CB BKN100 16/15 Q1013 NOSIG=
202012120100 METAR VIDP 120100Z 25004KT 0700 R28/P2000 R29/P2000 MIFG SCT040 FEW040CB BKN100 15/14 Q1014 NOSIG=
202012120130 METAR VIDP 120130Z 24004KT 0700 R28/P2000 R29/P2000 MIFG SCT040 BKN100 15/14 Q1014 NOSIG=
202012120200 METAR VIDP 120200Z 28004KT 0700 R28/1800 R29/1500 MIFG SCT040 BKN100 15/14 Q1015 NOSIG=
202012120230 METAR VIDP 120230Z 26004KT 0700 R28/1600 R29/1200 MIFG SCT030 FEW035CB BKN100 16/15 Q1015 NOSIG=
202012120300 METAR VIDP 120300Z 27005KT 0700 R28/1600 R29/1200 MIFG SCT030 FEW035CB BKN100 17/15 Q1016 BECMG 0800 MIFG=
202012120330 METAR VIDP 120330Z 24005KT 1000 R28/1800 R29/1500 FU SCT030 FEW035CB BKN100 17/15 Q1017 NOSIG=
202012120400 METAR VIDP 120400Z 26005KT 1000 R28/P2000 R29/1400 FU SCT030 FEW035CB BKN100 17/15 Q1017 NOSIG=
202012120430 METAR VIDP 120430Z 25005KT 1000 R28/1900 R29/1700 FU SCT030 FEW035CB BKN100 17/15 Q1017 NOSIG=
202012120500 METAR VIDP 120500Z 23004KT 1000 R28/P2000 R29/1700 BR SCT030 BKN100 18/15 Q1017 NOSIG=
202012120530 METAR VIDP 120530Z 29005KT 1200 R28/P2000 R29/1500 BR SCT035 BKN100 18/15 Q1017 NOSIG=
202012120600 METAR VIDP 120600Z 27005KT 1200 R28/P2000 R29/1500 BR SCT035 BKN100 18/15 Q1017 NOSIG=
202012120630 METAR VIDP 120630Z 26005KT 1200 R28/P2000 R29/1800 BR SCT035 BKN100 18/15 Q1017 NOSIG=
202012120700 METAR VIDP 120700Z 26004KT 1200 R28/1900 R29/1500 BR SCT035 BKN100 19/15 Q1016 NOSIG=
202012120730 METAR VIDP 120730Z 27006KT 1200 R28/P2000 R29/1500 FU SCT035 BKN100 20/15 Q1016 NOSIG=
202012120800 METAR VIDP 120800Z 29005KT 1200 R28/P2000 R29/1300 FU SCT035 BKN100 20/15 Q1016 NOSIG=
202012120830 METAR VIDP 120830Z 31005KT 1200 R28/1700 R29/1300 FU SCT035 BKN100 21/16 Q1016 NOSIG=
202012120900 METAR VIDP 120900Z 32005KT 1200 R28/1600 R29/1200 FU SCT035 BKN100 21/16 Q1015 NOSIG=
202012120930 METAR VIDP 120930Z 31005KT 1200 R28/1700 R29/1300 FU SCT035 BKN100 21/16 Q1015 NOSIG=
202012121000 METAR VIDP 121000Z 32005KT 1200 R28/1700 R29/1200 FU SCT035 BKN100 21/16 Q1015 NOSIG=
202012121030 METAR VIDP 121030Z 34006KT 1000 R28/1300 R29/1200 FU SCT035 BKN100 21/16 Q1015 NOSIG=
202012121100 METAR VIDP 121100Z 03005KT 0900 R28/1300 R29/1100 MIFG SCT035 BKN100 20/17 Q1015 BECMG 0800 MIFG=
202012121130 METAR VIDP 121130Z 02006KT 0800 R28/1400 R29/1100 MIFG SCT035 BKN100 19/17 Q1015 BECMG 0600 MIFG=
202012121200 METAR VIDP 121200Z 04005KT 0600 R28/1600 R29/1400 MIFG SCT100 19/17 Q1015 NOSIG=
202012121230 METAR VIDP 121230Z 04004KT 0600 R28/P2000 R29/P2000 MIFG SCT100 19/17 Q1015 NOSIG=
202012121300 METAR VIDP 121300Z 04003KT 0600 R28/P2000 R29/1900 MIFG FEW100 17/17 Q1015 NOSIG=
202012121330 METAR VIDP 121330Z 00000KT 0600 R28/P2000 R29/P2000 MIFG FEW100 17/17 Q1016 NOSIG=
202012121400 METAR VIDP 121400Z 00000KT 0600 R28/P2000 R29/P2000 MIFG FEW100 17/17 Q1016 NOSIG=
202012121430 METAR VIDP 121430Z 00000KT 0600 R28/P2000 R29/1800 MIFG FEW100 16/15 Q1016 NOSIG=
202012121500 METAR VIDP 121500Z 00000KT 0600 R28/P2000 R29/1800 MIFG FEW100 15/15 Q1016 NOSIG=
202012121530 METAR VIDP 121530Z 00000KT 0600 R28/P2000 R29/1300 MIFG FEW100 15/15 Q1016 NOSIG=
202012121600 METAR VIDP 121600Z 00000KT 0500 R28/P2000 R29/1400 MIFG FEW100 15/15 Q1017 NOSIG=
202012121630 METAR VIDP 121630Z 00000KT 0500 R28/1900 R29/1000 MIFG FEW100 15/15 Q1017 NOSIG=
202012121700 METAR VIDP 121700Z 00000KT 0500 R28/1800 R29/0900 MIFG FEW100 15/15 Q1017 NOSIG=
202012121705 METAR VIDP NIL=
202012121730 METAR VIDP 121730Z 00000KT 0500 R28/1900 R29/1200 MIFG FEW100 15/15 Q1017 NOSIG=
202012121800 METAR VIDP 121800Z 00000KT 0500 R28/1700 R29/1200 MIFG FEW100 15/15 Q1017 NOSIG=
202012121805 METAR VIDP NIL=
202012121830 METAR VIDP 121830Z 00000KT 0500 R28/1800 R29/1200 MIFG FEW100 15/15 Q1017 NOSIG=
202012121900 METAR VIDP 121900Z 00000KT 0500 R28/1700 R29/1100 MIFG FEW100 15/15 Q1017 NOSIG=
202012121930 METAR VIDP 121930Z 30004KT 0150 R28/1500 R29/0700 FG FEW100 14/14 Q1016 NOSIG=
202012122000 METAR VIDP 122000Z 31005KT 0150 R28/1800 R29/0250 FG FEW100 14/14 Q1016 NOSIG=
202012122030 METAR VIDP 122030Z 31006KT 0300 R28/2000 R29/2000 FG FEW100 14/14 Q1016 NOSIG=
202012122100 METAR VIDP 122100Z 27006KT 0300 R28/1900 R29/2000 FG FEW100 13/13 Q1016 BECMG 0350 FG=
202012122130 METAR VIDP 122130Z 33007KT 0500 R28/P2000 R29/P2000 FG SCT100 13/13 Q1016 NOSIG=
202012122200 METAR VIDP 122200Z 33005KT 0500 R28/P2000 R29/P2000 FG SCT100 13/13 Q1016 BECMG 0600 MIFG=
202012122230 METAR VIDP 122230Z 34006KT 0600 R28/P2000 R29/P2000 MIFG FEW040 SCT100 14/14 Q1016 NOSIG=
202012122300 METAR VIDP 122300Z 33006KT 0600 R28/P2000 R29/P2000 MIFG FEW040 SCT100 14/14 Q1016 NOSIG=
202012122330 METAR VIDP 122330Z 33005KT 0600 R28/P2000 R29/P2000 MIFG FEW040 SCT100 14/14 Q1016 NOSIG=
202012130000 METAR VIDP 130000Z 32004KT 0700 R28/P2000 R29/P2000 MIFG SCT100 14/14 Q1016 NOSIG=
202012130030 METAR VIDP 130030Z 30003KT 0700 R28/P2000 R29/P2000 MIFG SCT100 13/13 Q1016 NOSIG=
202012130100 METAR VIDP 130100Z 00000KT 0700 R28/P2000 R29/P2000 MIFG SCT100 13/13 Q1016 NOSIG=
202012130130 METAR VIDP 130130Z 00000KT 0700 R28/P2000 R29/1100 MIFG FEW100 13/13 Q1016 BECMG 0600 MIFG=
202012130200 METAR VIDP 130200Z 25003KT 0100 R28/1200 R29/0200 FG NSC 12/12 Q1016 NOSIG=
202012130230 METAR VIDP 130230Z 27004KT 0100 R28/0150 R29/0125 FG VV/// 12/12 Q1017 NOSIG=
202012130300 METAR VIDP 130300Z 26004KT 0100 R28/0175 R29/0175 FG VV/// 12/12 Q1017 NOSIG=
202012130330 METAR VIDP 130330Z 26005KT 0100 R28/0300 R29/0200 FG VV/// 12/12 Q1017 BECMG 0150 FG=
202012130400 METAR VIDP 130400Z 26004KT 0100 R28/0400 R29/0200 FG VV/// 13/12 Q1017 BECMG 0150 FG=
202012130430 METAR VIDP 130430Z 26004KT 0300 R28/1100 R29/0900 FG VV/// 13/12 Q1018 BECMG 0350 FG=
202012130500 METAR VIDP 130500Z 26005KT 0500 R28/1800 R29/1200 MIFG VV/// 13/12 Q1018 BECMG 0600 MIFG=
202012130530 METAR VIDP 130530Z 26005KT 0700 R28/2000 R29/1200 MIFG VV/// 14/13 Q1018 BECMG 0800 MIFG=
202012130600 METAR VIDP 130600Z 27005KT 1000 R28/2000 R29/1800 MIFG FEW100 14/12 Q1017 NOSIG=
202012130630 METAR VIDP 130630Z 28005KT 1300 R28/2000 R29/2000 BR NSC 15/12 Q1017 BECMG 1500 BR=
202012130700 METAR VIDP 130700Z 27007KT 1800 R28/2000 R29/1800 BR NSC 16/12 Q1016 NOSIG=
202012130730 METAR VIDP 130730Z 29008KT 1800 R28/2000 R29/1800 FU NSC 17/12 Q1016 NOSIG=
202012130800 METAR VIDP 130800Z 31008KT 1800 R28/2000 R29/1800 FU NSC 17/11 Q1016 NOSIG=
202012130830 METAR VIDP 130830Z 30008KT 2200 HZ NSC 18/12 Q1015 NOSIG=
202012130900 METAR VIDP 130900Z 30008KT 2500 HZ NSC 19/11 Q1015 NOSIG=
202012130930 METAR VIDP 130930Z 31008KT 2500 HZ NSC 19/10 Q1015 NOSIG=
202012131000 METAR VIDP 131000Z 31008KT 2800 HZ NSC 18/11 Q1014 BECMG 3000 HZ=
202012131030 METAR VIDP 131030Z 31008KT 3200 HZ NSC 18/11 Q1014 NOSIG=
202012131100 METAR VIDP 131100Z 31008KT 3500 HZ NSC 17/11 Q1014 NOSIG=
202012131130 METAR VIDP 131130Z 31008KT 3500 HZ NSC 17/11 Q1014 NOSIG=
202012131200 METAR VIDP 131200Z 32007KT 3500 HZ NSC 17/11 Q1014 NOSIG=
202012131205 METAR VIDP NIL=
202012131230 METAR VIDP 131230Z 32005KT 3500 HZ NSC 17/11 Q1014 NOSIG=
202012131300 METAR VIDP 131300Z 30005KT 3500 HZ NSC 16/11 Q1015 NOSIG=
202012131330 METAR VIDP 131330Z 30004KT 3200 BR NSC 15/12 Q1015 NOSIG=
202012131400 METAR VIDP 131400Z 29004KT 3200 BR NSC 15/12 Q1015 NOSIG=
202012131430 METAR VIDP 131430Z 28004KT 3200 BR NSC 14/12 Q1015 NOSIG=
202012131500 METAR VIDP 131500Z 29004KT 3200 BR NSC 13/12 Q1016 BECMG 3000 BR=
202012131530 METAR VIDP 131530Z 28003KT 2500 BR NSC 13/12 Q1016 NOSIG=
202012131600 METAR VIDP 131600Z 32005KT 2500 BR NSC 13/12 Q1016 NOSIG=
202012131630 METAR VIDP 131630Z 31003KT 2500 BR NSC 13/12 Q1016 NOSIG=
202012131700 METAR VIDP 131700Z 32003KT 2500 BR NSC 13/12 Q1016 NOSIG=
202012131730 METAR VIDP 131730Z 23003KT 2200 BR NSC 13/12 Q1016 NOSIG=
202012131800 METAR VIDP 131800Z 29004KT 2200 BR NSC 13/12 Q1015 NOSIG=
202012131830 METAR VIDP 131830Z 31005KT 2200 BR NSC 12/11 Q1015 NOSIG=
202012131900 METAR VIDP 131900Z 29004KT 2200 BR NSC 12/11 Q1015 NOSIG=
202012131930 METAR VIDP 131930Z 31004KT 2200 BR NSC 12/11 Q1015 NOSIG=
202012132000 METAR VIDP 132000Z 31004KT 2200 BR NSC 12/11 Q1015 NOSIG=
202012132030 METAR VIDP 132030Z 30004KT 2200 BR NSC 12/11 Q1015 NOSIG=
202012132100 METAR VIDP 132100Z 31005KT 2200 BR NSC 12/11 Q1015 NOSIG=
202012132130 METAR VIDP 132130Z 31006KT 2200 BR NSC 12/11 Q1015 NOSIG=
202012132200 METAR VIDP 132200Z 28005KT 1800 R28/P2000 R29/P2000 BR NSC 11/10 Q1015 NOSIG=
202012132230 METAR VIDP 132230Z 31005KT 1800 R28/P2000 R29/P2000 BR NSC 11/10 Q1015 BECMG 1500 BR=
202012132300 METAR VIDP 132300Z 30006KT 1500 R28/P2000 R29/P2000 BR NSC 11/10 Q1015 NOSIG=
202012132330 METAR VIDP 132330Z 30007KT 1500 R28/P2000 R29/P2000 BR NSC 11/10 Q1015 NOSIG=
202012140000 METAR VIDP 140000Z 32005KT 1500 R28/P2000 R29/P2000 BR NSC 10/09 Q1015 NOSIG=
202012140030 METAR VIDP 140030Z 30005KT 1500 R28/P2000 R29/P2000 BR NSC 10/09 Q1016 NOSIG=
202012140100 METAR VIDP 140100Z 29006KT 1200 R28/P2000 R29/P2000 BR NSC 10/09 Q1016 NOSIG=
202012140130 METAR VIDP 140130Z 31005KT 1200 R28/P2000 R29/P2000 BR NSC 10/09 Q1017 NOSIG=
202012140200 METAR VIDP 140200Z 31006KT 1200 R28/P2000 R29/P2000 BR NSC 10/09 Q1017 BECMG 0800 MIFG=
202012140230 METAR VIDP 140230Z 28004KT 1200 R28/P2000 R29/P2000 BR FEW040 10/09 Q1018 NOSIG=
202012140300 METAR VIDP 140300Z 27003KT 1200 R28/P2000 R29/P2000 BR FEW040 11/09 Q1018 BECMG 1500 BR=
202012140330 METAR VIDP 140330Z 29005KT 1500 R28/P2000 R29/P2000 BR FEW040 11/08 Q1019 NOSIG=
202012140400 METAR VIDP 140400Z 32005KT 1800 R28/P2000 R29/P2000 BR FEW040 12/09 Q1019 NOSIG=
202012140430 METAR VIDP 140430Z 30005KT 2200 BR NSC 13/09 Q1019 NOSIG=
202012140500 METAR VIDP 140500Z 28004KT 2500 BR NSC 14/10 Q1019 NOSIG=
202012140530 METAR VIDP 140530Z 31004KT 2800 HZ NSC 16/09 Q1019 BECMG 3000 HZ=
202012140600 METAR VIDP 140600Z 30004KT 3000 HZ NSC 16/09 Q1019 NOSIG=
202012140630 METAR VIDP 140630Z 29004KT 3000 HZ NSC 16/09 Q1019 NOSIG=
202012140700 METAR VIDP 140700Z 30005KT 3000 HZ NSC 16/09 Q1018 NOSIG=
202012140730 METAR VIDP 140730Z 31006KT 3000 HZ NSC 17/10 Q1017 NOSIG=
202012140800 METAR VIDP 140800Z 30006KT 3000 HZ NSC 17/10 Q1017 NOSIG=
202012140830 METAR VIDP 140830Z 30006KT 3000 HZ NSC 17/09 Q1017 NOSIG=
202012140900 METAR VIDP 140900Z 32006KT 3000 HZ NSC 17/09 Q1017 NOSIG=
202012140930 METAR VIDP 140930Z 33007KT 3200 HZ NSC 17/08 Q1016 NOSIG=
202012141000 METAR VIDP 141000Z 30007KT 3500 HZ NSC 17/08 Q1016 NOSIG=
202012141030 METAR VIDP 141030Z 30006KT 3500 HZ NSC 17/08 Q1016 NOSIG=
202012141100 METAR VIDP 141100Z 31006KT 3500 HZ NSC 17/08 Q1016 NOSIG=
202012141130 METAR VIDP 141130Z 30006KT 3500 HZ NSC 17/08 Q1016 NOSIG=
202012141200 METAR VIDP 141200Z 32006KT 3500 HZ NSC 16/08 Q1016 NOSIG=
202012141230 METAR VIDP 141230Z 33005KT 3500 HZ NSC 15/09 Q1016 NOSIG=
202012141300 METAR VIDP 141300Z 33005KT 3500 HZ NSC 15/09 Q1017 NOSIG=
202012141330 METAR VIDP 141330Z 34006KT 3200 HZ NSC 15/10 Q1017 NOSIG=
202012141400 METAR VIDP 141400Z 33005KT 3200 BR NSC 14/10 Q1017 NOSIG=
202012141430 METAR VIDP 141430Z 33005KT 3200 HZ NSC 14/10 Q1017 BECMG 3000 BR=
202012141500 METAR VIDP 141500Z 33005KT 3000 BR NSC 14/10 Q1017 NOSIG=
202012141505 METAR VIDP NIL=
202012141530 METAR VIDP 141530Z 34004KT 2500 BR NSC 13/11 Q1018 NOSIG=
202012141600 METAR VIDP 141600Z 32003KT 2200 BR NSC 13/11 Q1018 NOSIG=
202012141630 METAR VIDP 141630Z 33003KT 2200 BR NSC 13/11 Q1018 NOSIG=
202012141700 METAR VIDP 141700Z 34003KT 2200 BR NSC 13/11 Q1018 NOSIG=
202012141730 METAR VIDP 141730Z 35003KT 2200 BR NSC 12/10 Q1018 NOSIG=
202012141800 METAR VIDP 141800Z 33003KT 2200 BR NSC 12/10 Q1018 NOSIG=
202012141830 METAR VIDP 141830Z 34003KT 2200 BR NSC 12/10 Q1018 NOSIG=
202012141900 METAR VIDP 141900Z 31003KT 2200 BR NSC 12/10 Q1018 NOSIG=
202012141905 METAR VIDP NIL=
202012141930 METAR VIDP 141930Z 00000KT 2200 BR NSC 11/10 Q1017 NOSIG=
202012142000 METAR VIDP 142000Z 00000KT 2000 R28/P2000 R29/P2000 BR NSC 11/10 Q1017 NOSIG=
202012142030 METAR VIDP 142030Z 00000KT 1800 R28/P2000 R29/P2000 BR NSC 11/10 Q1017 NOSIG=
202012142100 METAR VIDP 142100Z 00000KT 1800 R28/P2000 R29/P2000 BR NSC 10/09 Q1017 NOSIG=
202012142105 METAR VIDP NIL=
202012142130 METAR VIDP 142130Z 00000KT 1600 R28/P2000 R29/P2000 BR NSC 10/09 Q1017 NOSIG=
202012142200 METAR VIDP 142200Z 00000KT 1600 R28/P2000 R29/P2000 BR NSC 10/09 Q1017 BECMG 1500 BR=
202012142230 METAR VIDP 142230Z 00000KT 1500 R28/P2000 R29/P2000 BR NSC 10/09 Q1017 NOSIG=
202012142300 METAR VIDP 142300Z 00000KT 1500 R28/P2000 R29/P2000 BR NSC 10/08 Q1017 NOSIG=
202012142330 METAR VIDP 142330Z 00000KT 1500 R28/P2000 R29/P2000 BR NSC 10/08 Q1017 NOSIG=
202012150000 METAR VIDP 150000Z 00000KT 1200 R28/P2000 R29/P2000 BR NSC 08/07 Q1017 NOSIG=
202012150030 METAR VIDP 150030Z 00000KT 1200 R28/P2000 R29/P2000 BR NSC 07/07 Q1018 NOSIG=
202012150100 METAR VIDP 150100Z 29004KT 1000 R28/P2000 R29/P2000 BR NSC 07/07 Q1018 BECMG 0800 BR=
202012150130 METAR VIDP 150130Z 29004KT 0800 R28/P2000 R29/P2000 MIFG NSC 07/07 Q1018 NOSIG=
202012150200 METAR VIDP 150200Z 32005KT 0800 R28/P2000 R29/P2000 MIFG NSC 08/07 Q1019 NOSIG=
202012150230 METAR VIDP 150230Z 33005KT 1000 R28/1600 R29/P2000 BR NSC 09/08 Q1019 NOSIG=
202012150300 METAR VIDP 150300Z 32004KT 1000 R28/1500 R29/P2000 BR NSC 09/08 Q1020 NOSIG=
202012150330 METAR VIDP 150330Z 33004KT 1000 R28/1400 R29/P2000 BR NSC 10/09 Q1020 NOSIG=
202012150400 METAR VIDP 150400Z 34005KT 1000 R28/1400 R29/P2000 BR NSC 11/10 Q1021 NOSIG=
202012150430 METAR VIDP 150430Z 01005KT 1000 R28/1400 R29/P2000 BR FEW100 11/10 Q1021 NOSIG=
202012150500 METAR VIDP 150500Z 35004KT 1200 R28/1400 R29/P2000 BR FEW100 12/11 Q1021 NOSIG=
202012150530 METAR VIDP 150530Z 34004KT 1300 R28/1700 R29/P2000 BR NSC 13/10 Q1021 BECMG 1500 BR=
202012150600 METAR VIDP 150600Z 32004KT 1500 R28/1800 R29/P2000 BR NSC 14/10 Q1021 NOSIG=
202012150630 METAR VIDP 150630Z 31005KT 1600 R28/P2000 R29/P2000 FU NSC 15/09 Q1020 NOSIG=
202012150700 METAR VIDP 150700Z 30004KT 1800 R28/P2000 R29/P2000 FU NSC 15/08 Q1020 NOSIG=
202012150730 METAR VIDP 150730Z 32004KT 1800 R28/P2000 R29/P2000 FU NSC 16/08 Q1020 NOSIG=
202012150800 METAR VIDP 150800Z 31005KT 2200 FU NSC 16/08 Q1019 NOSIG=
202012150830 METAR VIDP 150830Z 29005KT 2200 FU NSC 16/08 Q1019 NOSIG=
202012150900 METAR VIDP 150900Z 30006KT 2200 FU NSC 17/07 Q1019 NOSIG=
202012150930 METAR VIDP 150930Z 30006KT 2200 FU NSC 17/07 Q1019 NOSIG=
202012151000 METAR VIDP 151000Z 31005KT 2200 FU NSC 17/07 Q1018 NOSIG=
202012151030 METAR VIDP 151030Z 32006KT 2200 FU NSC 17/07 Q1018 NOSIG=
202012151100 METAR VIDP 151100Z 32006KT 2200 FU NSC 17/07 Q1018 NOSIG=
202012151130 METAR VIDP 151130Z 31006KT 2200 FU NSC 16/07 Q1018 NOSIG=
202012151200 METAR VIDP 151200Z 32006KT 2200 FU NSC 16/07 Q1018 NOSIG=
202012151230 METAR VIDP 151230Z 31005KT 2200 FU NSC 15/08 Q1018 NOSIG=
202012151300 METAR VIDP 151300Z 29004KT 2200 FU NSC 14/09 Q1018 NOSIG=
202012151330 METAR VIDP 151330Z 29003KT 2200 FU NSC 14/09 Q1019 NOSIG=
202012151400 METAR VIDP 151400Z 31004KT 2200 FU NSC 13/08 Q1019 NOSIG=
202012151430 METAR VIDP 151430Z 31004KT 2200 BR NSC 13/09 Q1019 NOSIG=
202012151500 METAR VIDP 151500Z 32004KT 2200 BR NSC 12/09 Q1019 NOSIG=
202012151530 METAR VIDP 151530Z 31003KT 2200 BR NSC 12/09 Q1020 NOSIG=
202012151600 METAR VIDP 151600Z 31003KT 2200 BR NSC 12/09 Q1020 NOSIG=
202012151630 METAR VIDP 151630Z 31004KT 2200 BR NSC 12/09 Q1020 NOSIG=
202012151700 METAR VIDP 151700Z 30004KT 2200 BR NSC 12/09 Q1020 NOSIG=
202012151730 METAR VIDP 151730Z 31004KT 2200 BR NSC 11/09 Q1020 NOSIG=
202012151800 METAR VIDP 151800Z 29004KT 2200 BR NSC 11/09 Q1020 NOSIG=
202012151830 METAR VIDP 151830Z 28003KT 2200 BR NSC 10/09 Q1020 NOSIG=
202012151900 METAR VIDP 151900Z 27003KT 1800 R28/P2000 R29/P2000 BR NSC 10/09 Q1020 NOSIG=
202012151930 METAR VIDP 151930Z 27003KT 1600 R28/P2000 R29/P2000 BR NSC 10/09 Q1020 BECMG 1500 BR=
202012152000 METAR VIDP 152000Z 24003KT 1500 R28/P2000 R29/P2000 BR NSC 10/09 Q1020 NOSIG=
202012152030 METAR VIDP 152030Z 24003KT 1500 R28/P2000 R29/P2000 BR NSC 09/08 Q1020 NOSIG=
202012152100 METAR VIDP 152100Z 23003KT 1400 R28/P2000 R29/P2000 BR NSC 09/08 Q1020 NOSIG=
202012152130 METAR VIDP 152130Z 00000KT 1400 R28/P2000 R29/P2000 BR NSC 09/08 Q1020 NOSIG=
202012152200 METAR VIDP 152200Z 00000KT 1400 R28/P2000 R29/P2000 BR NSC 09/08 Q1020 NOSIG=
202012152230 METAR VIDP 152230Z 00000KT 1400 R28/P2000 R29/P2000 BR NSC 09/08 Q1020 NOSIG=
202012152300 METAR VIDP 152300Z 00000KT 1200 R28/P2000 R29/P2000 BR NSC 09/08 Q1019 NOSIG=
202012152330 METAR VIDP 152330Z 00000KT 1200 R28/P2000 R29/P2000 BR NSC 09/08 Q1019 NOSIG=
202012160000 METAR VIDP 160000Z 00000KT 1000 R28/P2000 R29/P2000 BR NSC 08/08 Q1019 NOSIG=
202012160005 METAR VIDP NIL=
202012160030 METAR VIDP 160030Z 00000KT 1000 R28/P2000 R29/P2000 BR NSC 08/08 Q1020 NOSIG=
202012160100 METAR VIDP 160100Z 00000KT 0200 R28/2000 R29/0300 FG NSC 08/08 Q1020 NOSIG=
202012160130 METAR VIDP 160130Z 26003KT 0200 R28/1400 R29/0250 FG NSC 07/07 Q1021 TEMPO 0150 FG=
202012160200 METAR VIDP 160200Z 24003KT 0100 R28/1300 R29/0150 FG NSC 07/07 Q1021 NOSIG=
202012160230 METAR VIDP 160230Z 27004KT 0100 R28/1100 R29/0200 FG VV/// 07/07 Q1021 TEMPO 0150 FG=
202012160300 METAR VIDP 160300Z 26005KT 0100 R28/1100 R29/0350 FG VV/// 07/07 Q1021 TEMPO 0150 FG=
202012160330 METAR VIDP 160330Z 27007KT 0150 R28/1000 R29/0450 FG VV/// 08/08 Q1022 NOSIG=
202012160400 METAR VIDP 160400Z 27005KT 0200 R28/0900 R29/0700 FG VV/// 08/08 Q1023 TEMPO 0350 FG=
202012160430 METAR VIDP 160430Z 28007KT 0350 R28/1100 R29/0800 FG VV/// 08/08 Q1023 NOSIG=
202012160500 METAR VIDP 160500Z 27007KT 0500 R28/1300 R29/1700 FG VV/// 09/08 Q1023 TEMPO 0600 FG=
202012160530 METAR VIDP 160530Z 28006KT 0600 R28/1400 R29/1700 MIFG NSC 10/08 Q1023 BECMG 0800 MIFG=
202012160600 METAR VIDP 160600Z 27005KT 0800 R28/1400 R29/P2000 MIFG NSC 10/08 Q1023 NOSIG=
202012160630 METAR COR VIDP 160630Z 27005KT 0800 R28/1600 R29/P2000 MIFG NSC 11/09 Q1023 NOSIG=
202012160700 METAR VIDP 160700Z 29006KT 1000 R28/1800 R29/P2000 FU NSC 12/07 Q1022 NOSIG=
202012160730 METAR VIDP 160730Z 27005KT 1200 R28/P2000 R29/P2000 FU NSC 14/08 Q1022 NOSIG=
202012160800 METAR VIDP 160800Z 28005KT 1200 R28/P2000 R29/P2000 FU NSC 15/08 Q1021 NOSIG=
202012160830 METAR VIDP 160830Z 28005KT 1200 R28/P2000 R29/P2000 FU NSC 15/09 Q1021 NOSIG=
202012160900 METAR VIDP 160900Z 29006KT 1400 R28/P2000 R29/P2000 FU NSC 16/09 Q1021 NOSIG=
202012160930 METAR VIDP 160930Z 30006KT 1400 R28/P2000 R29/P2000 FU NSC 16/08 Q1020 BECMG 1500 FU=
202012161000 METAR VIDP 161000Z 32005KT 1800 R28/P2000 R29/P2000 FU NSC 16/08 Q1020 NOSIG=
202012161030 METAR VIDP 161030Z 30006KT 2200 FU NSC 16/08 Q1020 NOSIG=
202012161100 METAR VIDP 161100Z 30005KT 2200 FU NSC 15/08 Q1020 NOSIG=
202012161130 METAR VIDP 161130Z 28006KT 2200 FU NSC 15/08 Q1020 NOSIG=
202012161200 METAR VIDP 161200Z 27003KT 2200 FU NSC 15/08 Q1020 NOSIG=
202012161230 METAR VIDP 161230Z 26004KT 1800 R28/P2000 R29/P2000 FU NSC 14/08 Q1020 NOSIG=
202012161300 METAR VIDP 161300Z 25005KT 1800 R28/P2000 R29/P2000 FU NSC 13/08 Q1020 NOSIG=
202012161330 METAR VIDP 161330Z 26005KT 1800 R28/P2000 R29/P2000 FU NSC 12/09 Q1020 NOSIG=
202012161400 METAR VIDP 161400Z 26005KT 1600 R28/P2000 R29/P2000 BR NSC 12/09 Q1020 NOSIG=
202012161430 METAR VIDP 161430Z 28005KT 1600 R28/P2000 R29/P2000 BR NSC 12/09 Q1020 NOSIG=
202012161500 METAR VIDP 161500Z 29006KT 1600 R28/P2000 R29/P2000 BR NSC 11/09 Q1021 NOSIG=
202012161530 METAR VIDP 161530Z 30006KT 1600 R28/P2000 R29/P2000 BR NSC 11/09 Q1021 BECMG 1500 BR=
202012161600 METAR VIDP 161600Z 30006KT 1500 R28/P2000 R29/P2000 BR NSC 11/09 Q1021 NOSIG=
202012161630 METAR VIDP 161630Z 30006KT 1500 R28/P2000 R29/P2000 BR NSC 11/10 Q1021 NOSIG=
202012161700 METAR VIDP 161700Z 31006KT 1500 R28/P2000 R29/P2000 BR NSC 10/10 Q1021 NOSIG=
202012161705 METAR VIDP NIL=
202012161730 METAR VIDP 161730Z 30007KT 1500 R28/P2000 R29/P2000 BR NSC 10/10 Q1021 NOSIG=
202012161800 METAR VIDP 161800Z 29007KT 1500 R28/P2000 R29/P2000 BR NSC 10/10 Q1021 NOSIG=
202012161805 METAR VIDP NIL=
202012161830 METAR VIDP 161830Z 28007KT 1500 R28/P2000 R29/P2000 BR NSC 10/10 Q1021 NOSIG=
202012161900 METAR VIDP 161900Z 29007KT 1500 R28/P2000 R29/P2000 BR NSC 10/09 Q1021 NOSIG=
202012161930 METAR VIDP 161930Z 27006KT 1500 R28/P2000 R29/P2000 BR NSC 09/08 Q1021 NOSIG=
202012162000 METAR VIDP 162000Z 26004KT 1200 R28/P2000 R29/P2000 BR NSC 08/08 Q1020 NOSIG=
202012162030 METAR VIDP 162030Z 27006KT 1000 R28/P2000 R29/P2000 BR NSC 08/08 Q1020 NOSIG=
202012162100 METAR VIDP 162100Z 28006KT 1000 R28/P2000 R29/P2000 BR NSC 07/07 Q1020 BECMG 0800 MIFG=
202012162130 METAR VIDP 162130Z 29006KT 0800 R28/P2000 R29/P2000 MIFG NSC 07/07 Q1020 NOSIG=
202012162200 METAR VIDP 162200Z 28009KT 0800 R28/P2000 R29/P2000 MIFG FEW100 07/07 Q1020 NOSIG=
202012162230 METAR VIDP 162230Z 27009KT 0800 R28/P2000 R29/P2000 MIFG SCT100 06/06 Q1020 NOSIG=
202012162300 METAR VIDP 162300Z 28010KT 0800 R28/P2000 R29/P2000 MIFG SCT100 06/06 Q1020 NOSIG=
202012162330 METAR VIDP 162330Z 28009KT 0800 R28/P2000 R29/P2000 MIFG SCT100 06/06 Q1020 NOSIG=
202012170000 METAR VIDP 170000Z 27009KT 0800 R28/P2000 R29/P2000 MIFG FEW040 SCT100 06/06 Q1020 NOSIG=
202012170030 METAR VIDP 170030Z 27009KT 0800 R28/P2000 R29/P2000 MIFG FEW040 SCT100 05/05 Q1021 BECMG 0600 MIFG=
202012170100 METAR VIDP 170100Z 29008KT 0800 R28/P2000 R29/P2000 MIFG FEW040 SCT100 05/05 Q1021 BECMG 0600 MIFG=
202012170130 METAR VIDP 170130Z 27008KT 0600 R28/P2000 R29/P2000 MIFG FEW040 SCT100 05/05 Q1021 NOSIG=
202012170200 METAR VIDP 170200Z 29008KT 0600 R28/1800 R29/P2000 MIFG FEW040 SCT100 05/05 Q1021 NOSIG=
202012170230 METAR VIDP 170230Z 29008KT 0600 R28/1500 R29/1900 MIFG FEW040 SCT100 05/05 Q1022 NOSIG=
202012170300 METAR VIDP 170300Z 29008KT 0600 R28/1600 R29/1900 MIFG FEW040 SCT100 05/05 Q1022 NOSIG=
202012170330 METAR VIDP 170330Z 28008KT 0700 R28/1400 R29/2000 MIFG FEW040 SCT100 06/05 Q1022 BECMG 0800 MIFG=
202012170400 METAR COR VIDP 170400Z 27008KT 1000 R28/1500 R29/2000 BR FEW100 07/06 Q1023 NOSIG=
202012170430 METAR VIDP 170430Z 27008KT 1000 R28/1500 R29/2000 BR FEW100 08/07 Q1023 NOSIG=
202012170500 METAR VIDP 170500Z 28008KT 1200 R28/P2000 R29/P2000 BR FEW100 08/07 Q1023 BECMG 1500 BR=
202012170530 METAR VIDP 170530Z 27007KT 1500 R28/P2000 R29/P2000 BR FEW100 09/07 Q1023 NOSIG=
202012170600 METAR VIDP 170600Z 28008KT 1500 R28/P2000 R29/P2000 BR FEW100 09/07 Q1022 NOSIG=
202012170630 METAR VIDP 170630Z 27007KT 1600 R28/P2000 R29/P2000 BR FEW100 10/07 Q1022 NOSIG=
202012170700 METAR VIDP 170700Z 29009KT 1800 R28/P2000 R29/P2000 BR FEW100 11/08 Q1021 NOSIG=
202012170705 METAR VIDP NIL=
202012170730 METAR VIDP 170730Z 28009KT 1800 R28/P2000 R29/P2000 BR FEW100 11/08 Q1021 NOSIG=
202012170800 METAR COR VIDP 170800Z 29008KT 1800 R28/P2000 R29/P2000 BR FEW100 11/08 Q1020 NOSIG=
202012170830 METAR VIDP 170830Z 30008KT 2200 BR FEW100 12/08 Q1020 NOSIG=
202012170900 METAR VIDP 170900Z 29007KT 2200 BR NSC 13/09 Q1019 NOSIG=
202012170930 METAR VIDP 170930Z 29007KT 2500 HZ NSC 13/08 Q1019 NOSIG=
202012171000 METAR VIDP 171000Z 29007KT 2500 HZ NSC 14/08 Q1019 NOSIG=
202012171005 METAR VIDP NIL=
202012171030 METAR VIDP 171030Z 28008KT 2500 HZ NSC 14/07 Q1018 NOSIG=
202012171100 METAR VIDP 171100Z 30009KT 2500 HZ NSC 14/07 Q1018 NOSIG=
202012171130 METAR VIDP 171130Z 30009KT 2500 HZ NSC 13/07 Q1018 NOSIG=
202012171200 METAR VIDP 171200Z 30006KT 2500 HZ NSC 13/07 Q1018 NOSIG=
202012171230 METAR VIDP 171230Z 29005KT 2500 HZ NSC 12/07 Q1018 NOSIG=
202012171300 METAR VIDP 171300Z 29005KT 2500 HZ NSC 11/07 Q1018 NOSIG=
202012171330 METAR VIDP 171330Z 28004KT 2500 BR NSC 11/08 Q1018 NOSIG=
202012171400 METAR VIDP 171400Z 27004KT 2500 BR NSC 11/08 Q1018 NOSIG=
202012171430 METAR VIDP 171430Z 24004KT 2500 BR NSC 10/08 Q1018 NOSIG=
202012171500 METAR COR VIDP 171500Z 27004KT 2500 BR NSC 10/07 Q1018 NOSIG=
202012171530 METAR VIDP 171530Z 27004KT 2200 BR NSC 10/08 Q1018 NOSIG=
202012171600 METAR VIDP 171600Z 26004KT 2200 BR NSC 09/08 Q1019 NOSIG=
202012171630 METAR VIDP 171630Z 26004KT 2200 BR NSC 08/08 Q1019 NOSIG=
202012171700 METAR VIDP 171700Z 26004KT 2200 BR NSC 07/07 Q1018 NOSIG=
202012171730 METAR VIDP 171730Z 27004KT 2200 BR NSC 07/07 Q1018 NOSIG=
202012171800 METAR VIDP 171800Z 26004KT 2200 BR NSC 07/07 Q1018 NOSIG=
202012171830 METAR VIDP 171830Z 26004KT 2000 BR NSC 07/07 Q1018 NOSIG=
202012171900 METAR VIDP 171900Z 25004KT 2000 BR NSC 07/07 Q1018 NOSIG=
202012171930 METAR VIDP 171930Z 25005KT 1800 R28/P2000 R29/P2000 BR NSC 07/06 Q1018 BECMG 1500 BR=
202012172000 METAR VIDP 172000Z 26004KT 1500 R28/P2000 R29/P2000 BR NSC 07/06 Q1018 NOSIG=
202012172030 METAR VIDP 172030Z 27005KT 1500 R28/P2000 R29/P2000 BR NSC 07/06 Q1017 NOSIG=
202012172100 METAR VIDP 172100Z 26004KT 1500 R28/P2000 R29/P2000 BR NSC 07/06 Q1017 NOSIG=
202012172130 METAR VIDP 172130Z 27005KT 1500 R28/P2000 R29/P2000 BR NSC 07/06 Q1017 NOSIG=
202012172200 METAR VIDP 172200Z 26005KT 1500 R28/P2000 R29/P2000 BR NSC 07/05 Q1017 NOSIG=
202012172230 METAR VIDP 172230Z 26005KT 1500 R28/P2000 R29/P2000 BR NSC 07/05 Q1016 NOSIG=
202012172300 METAR VIDP 172300Z 25005KT 1500 R28/P2000 R29/P2000 BR NSC 06/05 Q1016 NOSIG=
202012172330 METAR VIDP 172330Z 27005KT 1500 R28/P2000 R29/P2000 BR NSC 06/05 Q1016 NOSIG=
202012180000 METAR VIDP 180000Z 27004KT 1500 R28/P2000 R29/P2000 BR NSC 06/05 Q1017 NOSIG=
202012180030 METAR VIDP 180030Z 25005KT 1500 R28/P2000 R29/P2000 BR NSC 06/04 Q1017 NOSIG=
202012180100 METAR VIDP 180100Z 25004KT 1200 R28/P2000 R29/P2000 BR NSC 06/04 Q1017 NOSIG=
202012180130 METAR VIDP 180130Z 25005KT 1000 R28/P2000 R29/P2000 BR NSC 05/04 Q1018 BECMG 0800 MIFG=
202012180200 METAR VIDP 180200Z 26005KT 0800 R28/P2000 R29/P2000 MIFG NSC 05/04 Q1018 NOSIG=
202012180230 METAR VIDP 180230Z 27006KT 1400 R28/P2000 R29/P2000 BR NSC 06/04 Q1018 BECMG 1500 BR=
202012180300 METAR VIDP 180300Z 27006KT 1800 R28/P2000 R29/P2000 BR NSC 07/05 Q1019 NOSIG=
202012180330 METAR VIDP 180330Z 27006KT 2200 BR NSC 07/05 Q1020 NOSIG=
202012180400 METAR VIDP 180400Z 29007KT 2500 HZ NSC 10/05 Q1020 NOSIG=
202012180430 METAR VIDP 180430Z 29008KT 2800 HZ NSC 11/05 Q1020 BECMG 3000 HZ=
202012180500 METAR VIDP 180500Z 29009KT 3000 HZ NSC 12/04 Q1020 NOSIG=
202012180505 METAR VIDP NIL=
202012180530 METAR VIDP 180530Z 29007KT 3000 HZ NSC 14/03 Q1020 NOSIG=
202012180600 METAR VIDP 180600Z 29008KT 3000 HZ NSC 15/02 Q1020 NOSIG=
202012180630 METAR VIDP 180630Z 30008KT 3000 HZ NSC 16/03 Q1020 NOSIG=
202012180700 METAR VIDP 180700Z 28008KT 3000 HZ NSC 17/03 Q1019 NOSIG=
202012180730 METAR VIDP 180730Z 30009KT 3000 HZ NSC 17/03 Q1019 NOSIG=
202012180800 METAR VIDP 180800Z 30009KT 3500 HZ NSC 18/02 Q1018 NOSIG=
202012180830 METAR VIDP 180830Z 29010KT 3500 HZ NSC 18/02 Q1018 NOSIG=
202012180900 METAR VIDP 180900Z 30009KT 3500 HZ NSC 19/01 Q1017 NOSIG=
202012180930 METAR VIDP 180930Z 30008KT 3500 HZ NSC 19/01 Q1017 NOSIG=
202012181000 METAR VIDP 181000Z 29010KT 4000 HZ NSC 19/01 Q1018 NOSIG=
202012181030 METAR VIDP 181030Z 30009KT 4000 HZ NSC 19/01 Q1018 NOSIG=
202012181100 METAR VIDP 181100Z 29007KT 4000 HZ NSC 18/01 Q1018 NOSIG=
202012181130 METAR VIDP 181130Z 28007KT 4000 HZ NSC 18/01 Q1018 NOSIG=
202012181200 METAR VIDP 181200Z 29006KT 4000 HZ NSC 17/02 Q1018 NOSIG=
202012181230 METAR VIDP 181230Z 28005KT 3500 HZ NSC 15/02 Q1018 NOSIG=
202012181300 METAR VIDP 181300Z 27004KT 3500 HZ NSC 14/02 Q1018 NOSIG=
202012181330 METAR VIDP 181330Z 26004KT 3500 HZ NSC 14/02 Q1019 NOSIG=
202012181400 METAR VIDP 181400Z 25003KT 3200 HZ NSC 13/02 Q1019 BECMG 3000 HZ=
202012181430 METAR VIDP 181430Z 26004KT 3000 HZ NSC 13/03 Q1019 NOSIG=
202012181500 METAR VIDP 181500Z 00000KT 3000 HZ NSC 12/03 Q1019 NOSIG=
202012181530 METAR VIDP 181530Z 00000KT 2500 HZ NSC 11/04 Q1019 NOSIG=
202012181600 METAR VIDP 181600Z 00000KT 2500 HZ NSC 10/04 Q1019 NOSIG=
202012181630 METAR VIDP 181630Z 00000KT 2500 HZ NSC 10/04 Q1019 NOSIG=
202012181700 METAR VIDP 181700Z 00000KT 2500 HZ NSC 10/05 Q1019 NOSIG=
202012181730 METAR VIDP 181730Z 00000KT 2500 HZ NSC 10/05 Q1019 NOSIG=
202012181800 METAR VIDP 181800Z 00000KT 2500 HZ NSC 10/05 Q1019 NOSIG=
202012181830 METAR VIDP 181830Z 00000KT 2500 BR NSC 09/05 Q1019 NOSIG=
202012181900 METAR VIDP 181900Z 00000KT 2500 BR NSC 09/05 Q1019 NOSIG=
202012181930 METAR VIDP 181930Z 00000KT 2500 BR NSC 08/05 Q1018 NOSIG=
202012182000 METAR VIDP 182000Z 00000KT 2500 BR NSC 08/05 Q1018 NOSIG=
202012182005 METAR VIDP NIL=
202012182030 METAR VIDP 182030Z 00000KT 2200 BR NSC 08/05 Q1018 NOSIG=
202012182100 METAR VIDP 182100Z 00000KT 2200 BR NSC 08/05 Q1018 NOSIG=
202012182130 METAR VIDP 182130Z 00000KT 2200 BR NSC 08/05 Q1018 NOSIG=
202012182200 METAR VIDP 182200Z 00000KT 2200 BR NSC 07/05 Q1018 NOSIG=
202012182230 METAR VIDP 182230Z 28003KT 2200 BR NSC 07/05 Q1018 NOSIG=
202012182300 METAR VIDP 182300Z 27004KT 1800 R28/P2000 R29/P2000 BR NSC 07/05 Q1018 NOSIG=
202012182330 METAR VIDP 182330Z 26004KT 1800 R28/P2000 R29/P2000 BR NSC 06/04 Q1018 NOSIG=
202012190000 METAR VIDP 190000Z 27004KT 1800 R28/P2000 R29/P2000 BR NSC 06/04 Q1018 NOSIG=
202012190030 METAR VIDP 190030Z 26004KT 1600 R28/P2000 R29/P2000 BR NSC 06/04 Q1018 BECMG 1500 BR=
202012190100 METAR VIDP 190100Z 26004KT 1500 R28/P2000 R29/P2000 BR NSC 06/04 Q1019 NOSIG=
202012190130 METAR VIDP 190130Z 25003KT 1200 R28/P2000 R29/P2000 BR NSC 06/04 Q1019 NOSIG=
202012190200 METAR VIDP 190200Z 26003KT 1100 R28/P2000 R29/P2000 BR NSC 06/04 Q1019 NOSIG=
202012190230 METAR VIDP 190230Z 27003KT 1200 R28/1600 R29/P2000 BR NSC 07/04 Q1019 NOSIG=
202012190300 METAR VIDP 190300Z 26004KT 1200 R28/1600 R29/P2000 BR NSC 08/04 Q1020 BECMG 1500 BR=
202012190305 METAR VIDP NIL=
202012190330 METAR VIDP 190330Z 26004KT 1400 R28/1800 R29/P2000 BR NSC 08/04 Q1020 BECMG 1500 BR=
202012190400 METAR COR VIDP 190400Z 28008KT 1400 R28/1800 R29/P2000 BR NSC 10/05 Q1020 BECMG 1500 BR=
202012190430 METAR VIDP 190430Z 28006KT 1600 R28/1700 R29/P2000 FU NSC 11/05 Q1021 NOSIG=
202012190500 METAR VIDP 190500Z 27007KT 1800 R28/1900 R29/P2000 FU NSC 13/04 Q1021 NOSIG=
202012190530 METAR VIDP 190530Z 28007KT 2200 HZ NSC 14/05 Q1021 NOSIG=
202012190600 METAR VIDP 190600Z 28007KT 2200 HZ NSC 15/05 Q1020 NOSIG=
202012190605 METAR VIDP NIL=
202012190630 METAR VIDP 190630Z 29008KT 2500 HZ NSC 16/05 Q1020 NOSIG=
202012190700 METAR VIDP 190700Z 28009KT 2500 HZ NSC 17/04 Q1020 NOSIG=
202012190705 METAR VIDP NIL=
202012190730 METAR VIDP 190730Z 27008KT 2800 HZ NSC 17/04 Q1019 NOSIG=
202012190800 METAR VIDP 190800Z 28007KT 2800 HZ NSC 18/03 Q1019 NOSIG=
202012190830 METAR VIDP 190830Z 27009KT 2800 HZ NSC 18/03 Q1019 NOSIG=
202012190900 METAR VIDP 190900Z 27009KT 2800 HZ NSC 19/04 Q1018 BECMG 3000 HZ=
202012190930 METAR VIDP 190930Z 26010KT 3000 HZ NSC 20/04 Q1018 NOSIG=
202012191000 METAR VIDP 191000Z 27009KT 3000 HZ NSC 20/04 Q1018 NOSIG=
202012191030 METAR VIDP 191030Z 26009KT 3000 HZ NSC 20/04 Q1018 NOSIG=
202012191100 METAR VIDP 191100Z 26008KT 3000 HZ NSC 20/04 Q1018 NOSIG=
202012191130 METAR VIDP 191130Z 27005KT 3000 HZ NSC 19/04 Q1018 NOSIG=
202012191200 METAR VIDP 191200Z 27005KT 3000 HZ NSC 18/04 Q1018 NOSIG=
202012191230 METAR VIDP 191230Z 25004KT 3000 HZ NSC 16/05 Q1018 NOSIG=
202012191300 METAR VIDP 191300Z 25004KT 3000 HZ NSC 15/05 Q1018 NOSIG=
202012191330 METAR VIDP 191330Z 24005KT 3000 HZ NSC 14/05 Q1018 NOSIG=
202012191400 METAR VIDP 191400Z 26004KT 3000 HZ NSC 13/05 Q1018 NOSIG=
202012191430 METAR VIDP 191430Z 26005KT 3000 HZ NSC 13/06 Q1019 NOSIG=
202012191500 METAR VIDP 191500Z 28003KT 2500 FU NSC 12/06 Q1019 NOSIG=
202012191530 METAR VIDP 191530Z 24004KT 2500 FU NSC 12/06 Q1019 NOSIG=
202012191600 METAR VIDP 191600Z 26004KT 2500 FU NSC 12/06 Q1020 NOSIG=
202012191630 METAR VIDP 191630Z 00000KT 2500 FU NSC 12/06 Q1020 NOSIG=
202012191700 METAR VIDP 191700Z 00000KT 2500 FU NSC 11/06 Q1020 NOSIG=
202012191730 METAR VIDP 191730Z 00000KT 2500 FU NSC 10/05 Q1020 NOSIG=
202012191800 METAR VIDP 191800Z 00000KT 2200 FU NSC 11/05 Q1020 NOSIG=
202012191830 METAR VIDP 191830Z 00000KT 2200 FU NSC 10/05 Q1020 NOSIG=
202012191900 METAR VIDP 191900Z 00000KT 2200 FU NSC 10/05 Q1020 NOSIG=
202012191930 METAR VIDP 191930Z 00000KT 2200 FU NSC 10/05 Q1020 NOSIG=
202012192000 METAR VIDP 192000Z 00000KT 2200 FU NSC 10/05 Q1020 NOSIG=
202012192030 METAR VIDP 192030Z 00000KT 2200 BR NSC 09/05 Q1019 NOSIG=
202012192100 METAR VIDP 192100Z 00000KT 2200 BR NSC 09/05 Q1019 NOSIG=
202012192130 METAR VIDP 192130Z 00000KT 2200 BR NSC 08/05 Q1019 NOSIG=
202012192200 METAR VIDP 192200Z 00000KT 2100 BR NSC 08/05 Q1019 NOSIG=
202012192205 METAR VIDP NIL=
202012192230 METAR VIDP 192230Z 00000KT 1800 R28/P2000 R29/P2000 BR NSC 08/05 Q1019 NOSIG=
202012192300 METAR VIDP 192300Z 00000KT 1600 R28/P2000 R29/P2000 BR NSC 08/05 Q1019 BECMG 1500 BR=
202012192330 METAR VIDP 192330Z 00000KT 1500 R28/P2000 R29/P2000 BR NSC 08/05 Q1019 NOSIG=
202012200000 METAR VIDP 200000Z 00000KT 1400 R28/P2000 R29/P2000 BR NSC 07/05 Q1020 NOSIG=
202012200030 METAR VIDP 200030Z 00000KT 1200 R28/P2000 R29/P2000 BR NSC 07/05 Q1020 NOSIG=
202012200100 METAR VIDP 200100Z 00000KT 1000 R28/P2000 R29/P2000 BR NSC 07/05 Q1020 NOSIG=
202012200130 METAR VIDP 200130Z 00000KT 1000 R28/P2000 R29/P2000 BR FEW100 07/05 Q1020 NOSIG=
202012200200 METAR VIDP 200200Z 00000KT 1000 R28/2000 R29/2000 BR FEW100 06/05 Q1020 NOSIG=
202012200230 METAR VIDP 200230Z 00000KT 1000 R28/1800 R29/1500 BR FEW100 07/05 Q1020 NOSIG=
202012200300 METAR VIDP 200300Z 25004KT 1000 R28/1700 R29/2000 BR FEW100 08/05 Q1021 NOSIG=
202012200330 METAR VIDP 200330Z 26006KT 1000 R28/1700 R29/2000 BR FEW100 09/05 Q1021 NOSIG=
202012200400 METAR VIDP 200400Z 25006KT 1000 R28/1700 R29/2000 FU FEW100 10/05 Q1022 NOSIG=
202012200430 METAR VIDP 200430Z 26005KT 1000 R28/1800 R29/2000 FU FEW100 11/05 Q1022 NOSIG=
202012200500 METAR VIDP 200500Z 27005KT 1000 R28/1900 R29/2000 FU SCT100 13/06 Q1022 NOSIG=
202012200530 METAR COR VIDP 200530Z 28005KT 1200 R28/2000 R29/2000 FU SCT100 14/06 Q1022 BECMG 1500 FU=
202012200600 METAR VIDP 200600Z 28005KT 1400 R28/2000 R29/2000 FU SCT100 15/06 Q1021 BECMG 1500 FU=
202012200630 METAR VIDP 200630Z 30007KT 1500 R28/P2000 R29/P2000 FU SCT100 16/05 Q1021 NOSIG=
202012200700 METAR VIDP 200700Z 30008KT 1500 R28/P2000 R29/P2000 FU SCT100 17/04 Q1020 NOSIG=
202012200730 METAR VIDP 200730Z 29007KT 1500 R28/P2000 R29/P2000 FU SCT100 18/04 Q1020 NOSIG=
202012200800 METAR VIDP 200800Z 30008KT 1500 R28/P2000 R29/P2000 FU SCT100 18/04 Q1019 NOSIG=
202012200830 METAR VIDP 200830Z 32008KT 1800 R28/P2000 R29/P2000 HZ SCT100 19/04 Q1018 NOSIG=
202012200900 METAR VIDP 200900Z 30007KT 2200 HZ SCT100 20/04 Q1018 NOSIG=
202012200930 METAR VIDP 200930Z 31006KT 2200 HZ SCT100 21/04 Q1018 NOSIG=
202012201000 METAR VIDP 201000Z 31006KT 2200 HZ SCT100 21/04 Q1018 NOSIG=
202012201005 METAR VIDP NIL=
202012201030 METAR VIDP 201030Z 31006KT 2200 HZ SCT100 21/04 Q1017 NOSIG=
202012201100 METAR VIDP 201100Z 30006KT 2500 HZ SCT100 22/04 Q1017 NOSIG=
202012201130 METAR VIDP 201130Z 29005KT 2500 HZ SCT100 21/04 Q1017 NOSIG=
202012201200 METAR VIDP 201200Z 28005KT 2500 HZ SCT100 21/04 Q1017 NOSIG=
202012201230 METAR VIDP 201230Z 27004KT 2500 HZ SCT100 19/05 Q1017 NOSIG=
202012201300 METAR VIDP 201300Z 00000KT 2500 HZ SCT100 18/06 Q1018 NOSIG=
202012201330 METAR VIDP 201330Z 00000KT 2500 HZ SCT100 16/08 Q1018 NOSIG=
202012201400 METAR VIDP 201400Z 00000KT 2200 HZ SCT100 14/09 Q1018 NOSIG=
202012201430 METAR VIDP 201430Z 24003KT 2200 HZ SCT100 14/08 Q1018 NOSIG=
202012201500 METAR VIDP 201500Z 00000KT 2200 HZ SCT100 14/08 Q1018 NOSIG=
202012201530 METAR VIDP 201530Z 00000KT 2200 HZ FEW100 13/08 Q1018 NOSIG=
202012201600 METAR VIDP 201600Z 26003KT 2200 HZ FEW100 13/08 Q1019 NOSIG=
202012201630 METAR VIDP 201630Z 25003KT 2200 HZ FEW100 12/08 Q1019 NOSIG=
202012201700 METAR VIDP 201700Z 25003KT 2200 HZ FEW100 12/08 Q1019 NOSIG=
202012201730 METAR VIDP 201730Z 26003KT 2200 BR FEW100 12/08 Q1019 NOSIG=
202012201800 METAR VIDP 201800Z 00000KT 2200 BR FEW100 12/08 Q1018 NOSIG=
202012201805 METAR VIDP NIL=
202012201830 METAR VIDP 201830Z 00000KT 2200 BR FEW100 11/08 Q1018 NOSIG=
202012201900 METAR VIDP 201900Z 00000KT 2200 BR FEW100 11/08 Q1018 NOSIG=
202012201905 METAR VIDP NIL=
202012201930 METAR VIDP 201930Z 00000KT 2200 BR FEW100 10/08 Q1018 NOSIG=
202012202000 METAR VIDP 202000Z 00000KT 2200 BR FEW100 10/08 Q1017 NOSIG=
202012202030 METAR VIDP 202030Z 00000KT 2200 BR FEW100 10/08 Q1018 NOSIG=
202012202100 METAR VIDP 202100Z 00000KT 2200 BR FEW100 10/08 Q1018 NOSIG=
202012202130 METAR VIDP 202130Z 00000KT 2200 BR FEW100 09/08 Q1018 NOSIG=
202012202200 METAR VIDP 202200Z 00000KT 2200 BR FEW100 09/07 Q1018 NOSIG=
202012202230 METAR VIDP 202230Z 00000KT 1800 R28/P2000 R29/P2000 BR FEW100 09/07 Q1018 NOSIG=
202012202300 METAR VIDP 202300Z 00000KT 1800 R28/P2000 R29/P2000 BR FEW100 09/07 Q1017 NOSIG=
202012202330 METAR VIDP 202330Z 00000KT 1600 R28/P2000 R29/P2000 BR FEW100 09/07 Q1017 NOSIG=
202012210000 METAR VIDP 210000Z 00000KT 1600 R28/P2000 R29/P2000 BR FEW100 09/07 Q1018 BECMG 1500 BR=
202012210030 METAR VIDP 210030Z 00000KT 1500 R28/P2000 R29/P2000 BR FEW100 09/07 Q1018 NOSIG=
202012210100 METAR VIDP 210100Z 00000KT 1500 R28/P2000 R29/P2000 BR FEW100 09/07 Q1018 NOSIG=
202012210105 METAR VIDP NIL=
202012210130 METAR VIDP 210130Z 00000KT 1500 R28/P2000 R29/P2000 BR BKN100 09/07 Q1018 NOSIG=
202012210200 METAR VIDP 210200Z 00000KT 1200 R28/P2000 R29/P2000 BR BKN100 09/07 Q1018 NOSIG=
202012210230 METAR VIDP 210230Z 00000KT 1000 R28/P2000 R29/P2000 BR BKN100 09/07 Q1018 NOSIG=
202012210300 METAR VIDP 210300Z 23003KT 1000 R28/1800 R29/P2000 BR BKN100 09/07 Q1019 NOSIG=
202012210330 METAR VIDP 210330Z 25003KT 1000 R28/1700 R29/2000 BR BKN100 09/07 Q1019 NOSIG=
202012210400 METAR VIDP 210400Z 26006KT 1000 R28/1700 R29/2000 BR SCT100 10/07 Q1019 NOSIG=
202012210430 METAR VIDP 210430Z 26004KT 1000 R28/1700 R29/2000 FU SCT100 12/07 Q1019 NOSIG=
202012210500 METAR VIDP 210500Z 26004KT 1000 R28/1700 R29/2000 FU FEW100 13/07 Q1019 NOSIG=
202012210530 METAR VIDP 210530Z 25004KT 1200 R28/1900 R29/P2000 FU FEW100 15/07 Q1019 BECMG 1500 FU=
202012210600 METAR VIDP 210600Z 29005KT 1500 R28/P2000 R29/P2000 FU FEW100 16/07 Q1019 NOSIG=
202012210630 METAR VIDP 210630Z 30005KT 1800 R28/P2000 R29/P2000 FU SCT100 18/07 Q1018 NOSIG=
202012210700 METAR VIDP 210700Z 29005KT 1800 R28/P2000 R29/P2000 FU SCT100 19/07 Q1018 NOSIG=
202012210730 METAR VIDP 210730Z 30005KT 1800 R28/1900 R29/P2000 FU SCT100 20/07 Q1018 NOSIG=
202012210800 METAR VIDP 210800Z 29005KT 1800 R28/1800 R29/P2000 FU FEW100 21/06 Q1017 NOSIG=
202012210830 METAR VIDP 210830Z 31005KT 2100 FU FEW100 20/07 Q1016 NOSIG=
202012210900 METAR VIDP 210900Z 29005KT 2100 FU FEW100 20/07 Q1016 NOSIG=
202012210930 METAR VIDP 210930Z 30006KT 2200 FU FEW100 21/08 Q1016 NOSIG=
202012211000 METAR VIDP 211000Z 28006KT 2200 HZ FEW100 21/08 Q1016 NOSIG=
202012211030 METAR VIDP 211030Z 28005KT 2200 HZ FEW100 20/08 Q1015 NOSIG=
202012211100 METAR VIDP 211100Z 29005KT 2200 HZ FEW100 20/08 Q1015 NOSIG=
202012211130 METAR VIDP 211130Z 29005KT 2200 HZ FEW100 20/08 Q1015 NOSIG=
202012211200 METAR VIDP 211200Z 28003KT 2200 FU FEW100 19/08 Q1015 NOSIG=
202012211230 METAR VIDP 211230Z 00000KT 2200 FU FEW100 18/09 Q1015 NOSIG=
202012211300 METAR VIDP 211300Z 00000KT 2200 FU FEW100 17/10 Q1016 NOSIG=
202012211330 METAR VIDP 211330Z 00000KT 2200 FU FEW100 17/10 Q1016 NOSIG=
202012211400 METAR VIDP 211400Z 00000KT 2200 FU FEW100 17/10 Q1016 NOSIG=
202012211430 METAR VIDP 211430Z 00000KT 2200 FU FEW100 15/10 Q1016 NOSIG=
202012211500 METAR VIDP 211500Z 00000KT 2200 BR FEW100 13/09 Q1017 NOSIG=
202012211530 METAR VIDP 211530Z 00000KT 2200 BR FEW100 12/09 Q1017 NOSIG=
202012211600 METAR VIDP 211600Z 00000KT 2200 BR FEW100 12/09 Q1017 NOSIG=
202012211630 METAR VIDP 211630Z 00000KT 2200 BR FEW100 12/09 Q1017 NOSIG=
202012211700 METAR VIDP 211700Z 00000KT 2200 BR FEW100 11/09 Q1017 NOSIG=
202012211730 METAR VIDP 211730Z 00000KT 1800 R28/P2000 R29/P2000 BR FEW100 11/09 Q1017 BECMG 1500 BR=
202012211800 METAR VIDP 211800Z 00000KT 1500 R28/P2000 R29/P2000 BR FEW100 10/09 Q1017 NOSIG=
202012211830 METAR VIDP 211830Z 00000KT 1500 R28/P2000 R29/P2000 BR FEW100 10/09 Q1017 NOSIG=
202012211900 METAR VIDP 211900Z 00000KT 1200 R28/P2000 R29/P2000 BR FEW100 10/09 Q1016 NOSIG=
202012211930 METAR VIDP 211930Z 00000KT 1200 R28/P2000 R29/P2000 BR FEW100 10/09 Q1016 NOSIG=
202012212000 METAR VIDP 212000Z 00000KT 1200 R28/P2000 R29/P2000 BR FEW100 10/09 Q1016 NOSIG=
202012212030 METAR VIDP 212030Z 00000KT 1000 R28/P2000 R29/P2000 BR FEW100 10/09 Q1016 BECMG 0800 MIFG=
202012212100 METAR VIDP 212100Z 00000KT 0800 R28/P2000 R29/P2000 MIFG FEW100 10/09 Q1016 NOSIG=
202012212130 METAR VIDP 212130Z 00000KT 0800 R28/P2000 R29/P2000 MIFG FEW100 10/09 Q1016 NOSIG=
202012212200 METAR VIDP 212200Z 00000KT 0800 R28/2000 R29/2000 MIFG FEW100 09/08 Q1016 BECMG 0600 MIFG=
202012212230 METAR VIDP 212230Z 00000KT 0600 R28/2000 R29/2000 MIFG FEW100 09/08 Q1016 NOSIG=
202012212300 METAR VIDP 212300Z 00000KT 0600 R28/1900 R29/2000 MIFG FEW100 09/08 Q1016 NOSIG=
202012212330 METAR VIDP 212330Z 00000KT 0400 R28/2000 R29/2000 FG FEW100 09/08 Q1016 BECMG 0350 FG=
202012220000 METAR VIDP 220000Z 00000KT 0350 R28/2000 R29/1600 FG FEW100 09/08 Q1016 NOSIG=
202012220030 METAR VIDP 220030Z 00000KT 0350 R28/1800 R29/1800 FG FEW100 09/08 Q1016 NOSIG=
202012220100 METAR VIDP 220100Z 00000KT 0350 R28/1900 R29/1600 FG FEW100 08/07 Q1017 NOSIG=
202012220130 METAR VIDP 220130Z 00000KT 0300 R28/1600 R29/1600 FG FEW100 08/07 Q1017 NOSIG=
202012220200 METAR VIDP 220200Z 00000KT 0300 R28/1200 R29/1000 FG FEW100 08/07 Q1017 NOSIG=
202012220230 METAR VIDP 220230Z 00000KT 0500 R28/1000 R29/0900 FG FEW100 08/06 Q1018 TEMPO 0600 MIFG=
202012220300 METAR VIDP 220300Z 00000KT 0600 R28/0900 R29/0800 MIFG FEW100 09/07 Q1018 NOSIG=
202012220330 METAR VIDP 220330Z 00000KT 0600 R28/1000 R29/1100 MIFG FEW100 10/07 Q1018 NOSIG=
202012220400 METAR VIDP 220400Z 00000KT 0700 R28/1100 R29/1300 MIFG FEW100 10/07 Q1019 BECMG 0800 MIFG=
202012220430 METAR VIDP 220430Z 00000KT 0800 R28/1000 R29/1500 MIFG FEW100 11/07 Q1019 NOSIG=
202012220500 METAR VIDP 220500Z 00000KT 0800 R28/1000 R29/1500 FU FEW100 12/07 Q1019 NOSIG=
202012220505 METAR VIDP NIL=
202012220530 METAR VIDP 220530Z 00000KT 0800 R28/1100 R29/1600 FU FEW100 13/07 Q1019 NOSIG=
202012220600 METAR VIDP 220600Z 26004KT 0900 R28/1100 R29/2000 FU FEW100 15/07 Q1018 NOSIG=
202012220630 METAR VIDP 220630Z 27003KT 1000 R28/1100 R29/2000 FU FEW100 17/07 Q1018 NOSIG=
202012220700 METAR VIDP 220700Z 31005KT 1200 R28/1600 R29/2000 FU FEW100 19/06 Q1017 BECMG 1500 FU=
202012220730 METAR VIDP 220730Z 32003KT 1500 R28/1700 R29/2000 FU FEW100 20/06 Q1017 NOSIG=
202012220800 METAR VIDP 220800Z 31004KT 1500 R28/1600 R29/2000 FU FEW100 20/06 Q1016 NOSIG=
202012220830 METAR VIDP 220830Z 32004KT 1500 R28/1600 R29/2000 FU FEW100 20/06 Q1016 NOSIG=
202012220900 METAR VIDP 220900Z 30004KT 2000 R28/P2000 R29/P2000 HZ FEW100 21/06 Q1015 NOSIG=
202012220930 METAR VIDP 220930Z 31004KT 2200 HZ FEW100 22/06 Q1015 NOSIG=
202012221000 METAR VIDP 221000Z 30004KT 2500 HZ FEW100 22/06 Q1015 NOSIG=
202012221030 METAR VIDP 221030Z 31004KT 2500 HZ FEW100 22/06 Q1014 NOSIG=
202012221100 METAR VIDP 221100Z 29003KT 2500 HZ FEW100 21/06 Q1014 NOSIG=
202012221105 METAR VIDP NIL=
202012221130 METAR VIDP 221130Z 28003KT 2500 HZ FEW100 21/06 Q1014 NOSIG=
202012221200 METAR VIDP 221200Z 29003KT 2200 HZ FEW100 20/06 Q1014 NOSIG=
202012221230 METAR VIDP 221230Z 00000KT 2200 FU FEW100 19/07 Q1014 NOSIG=
202012221300 METAR VIDP 221300Z 00000KT 2200 FU FEW100 18/08 Q1014 NOSIG=
202012221330 METAR VIDP 221330Z 00000KT 2200 FU FEW100 16/08 Q1014 NOSIG=
202012221400 METAR VIDP 221400Z 00000KT 2200 FU FEW100 14/08 Q1014 NOSIG=
202012221430 METAR VIDP 221430Z 00000KT 1800 R28/P2000 R29/P2000 FU FEW100 13/08 Q1015 BECMG 1500 BR=
202012221500 METAR VIDP 221500Z 00000KT 1400 R28/P2000 R29/P2000 BR FEW100 12/08 Q1015 NOSIG=
202012221530 METAR VIDP 221530Z 00000KT 1400 R28/P2000 R29/P2000 BR FEW100 12/08 Q1015 NOSIG=
202012221600 METAR VIDP 221600Z 00000KT 1400 R28/P2000 R29/P2000 BR FEW100 12/08 Q1016 NOSIG=
202012221630 METAR VIDP 221630Z 00000KT 1400 R28/P2000 R29/P2000 BR FEW100 12/08 Q1015 NOSIG=
202012221700 METAR VIDP 221700Z 00000KT 1400 R28/P2000 R29/P2000 BR FEW100 11/08 Q1015 NOSIG=
202012221730 METAR VIDP 221730Z 00000KT 1400 R28/P2000 R29/P2000 BR FEW100 11/08 Q1015 NOSIG=
202012221800 METAR VIDP 221800Z 00000KT 1200 R28/P2000 R29/P2000 BR FEW100 11/09 Q1015 NOSIG=
202012221830 METAR VIDP 221830Z 00000KT 1200 R28/2000 R29/2000 BR FEW100 10/09 Q1015 NOSIG=
202012221900 METAR VIDP 221900Z 00000KT 1000 R28/2000 R29/2000 BR FEW100 10/09 Q1015 NOSIG=
202012221930 METAR VIDP 221930Z 00000KT 1000 R28/2000 R29/2000 BR FEW100 10/08 Q1015 NOSIG=
202012222000 METAR VIDP 222000Z 00000KT 1000 R28/2000 R29/2000 BR FEW100 09/08 Q1015 BECMG 0800 MIFG=
202012222030 METAR VIDP 222030Z 00000KT 1000 R28/2000 R29/2000 BR FEW100 09/08 Q1015 BECMG 0800 MIFG=
202012222100 METAR VIDP 222100Z 00000KT 0700 R28/2000 R29/2000 MIFG FEW100 09/08 Q1015 NOSIG=
202012222130 METAR VIDP 222130Z 00000KT 0700 R28/2000 R29/2000 MIFG FEW100 09/08 Q1015 NOSIG=
202012222200 METAR VIDP 222200Z 00000KT 0700 R28/2000 R29/2000 MIFG FEW100 08/07 Q1015 NOSIG=
202012222230 METAR VIDP 222230Z 00000KT 0700 R28/2000 R29/2000 MIFG FEW100 08/07 Q1015 BECMG 0600 MIFG=
202012222300 METAR VIDP 222300Z 00000KT 0600 R28/2000 R29/2000 MIFG FEW100 08/07 Q1015 NOSIG=
202012222330 METAR VIDP 222330Z 00000KT 0600 R28/2000 R29/2000 MIFG FEW100 08/07 Q1015 NOSIG=
202012230000 METAR VIDP 230000Z 00000KT 0600 R28/1800 R29/2000 MIFG FEW100 08/07 Q1015 NOSIG=
202012230030 METAR VIDP 230030Z 00000KT 0600 R28/1800 R29/2000 MIFG FEW100 08/07 Q1015 NOSIG=
202012230100 METAR VIDP 230100Z 00000KT 0600 R28/1800 R29/2000 MIFG FEW100 08/07 Q1015 NOSIG=
202012230130 METAR VIDP 230130Z 00000KT 0600 R28/1800 R29/2000 MIFG FEW100 08/07 Q1016 NOSIG=
202012230200 METAR VIDP 230200Z 00000KT 0400 R28/1100 R29/1200 FG FEW100 08/07 Q1016 BECMG 0350 FG=
202012230230 METAR VIDP 230230Z 00000KT 0350 R28/0800 R29/0800 FG NSC 08/07 Q1016 NOSIG=
202012230300 METAR VIDP 230300Z 00000KT 0350 R28/0900 R29/0800 FG NSC 08/07 Q1017 NOSIG=
202012230330 METAR VIDP 230330Z 00000KT 0400 R28/0900 R29/0900 FG NSC 10/09 Q1017 NOSIG=
202012230400 METAR VIDP 230400Z 00000KT 0500 R28/1000 R29/1000 FG NSC 12/10 Q1018 BECMG 0600 MIFG=
202012230430 METAR VIDP 230430Z 00000KT 0600 R28/1000 R29/1000 MIFG NSC 14/11 Q1018 NOSIG=
202012230500 METAR COR VIDP 230500Z 00000KT 0600 R28/1200 R29/1500 MIFG NSC 15/11 Q1018 BECMG 0800 FU=
202012230530 METAR VIDP 230530Z 00000KT 0800 R28/P2000 R29/1200 FU NSC 17/11 Q1018 NOSIG=
202012230600 METAR VIDP 230600Z 25004KT 0800 R28/1600 R29/1300 FU NSC 18/11 Q1018 NOSIG=
202012230630 METAR VIDP 230630Z 30004KT 1000 R28/1700 R29/1700 FU NSC 19/11 Q1017 NOSIG=
202012230700 METAR VIDP 230700Z 27003KT 1200 R28/P2000 R29/P2000 FU NSC 20/10 Q1016 NOSIG=
202012230730 METAR VIDP 230730Z 27005KT 1200 R28/1900 R29/P2000 FU NSC 20/09 Q1016 BECMG 1500 FU=
202012230800 METAR VIDP 230800Z 26004KT 1500 R28/P2000 R29/P2000 FU NSC 21/08 Q1015 NOSIG=
202012230830 METAR VIDP 230830Z 29004KT 1500 R28/P2000 R29/P2000 FU NSC 21/07 Q1015 NOSIG=
202012230900 METAR VIDP 230900Z 29005KT 1500 R28/P2000 R29/P2000 FU NSC 21/06 Q1014 NOSIG=
202012230930 METAR VIDP 230930Z 31005KT 1500 R28/P2000 R29/P2000 FU NSC 22/05 Q1014 NOSIG=
202012231000 METAR VIDP 231000Z 29005KT 1500 R28/P2000 R29/P2000 FU NSC 22/05 Q1014 NOSIG=
202012231005 METAR VIDP NIL=
202012231030 METAR VIDP 231030Z 29005KT 1500 R28/P2000 R29/1900 FU NSC 21/06 Q1014 NOSIG=
202012231100 METAR VIDP 231100Z 30004KT 1500 R28/P2000 R29/P2000 FU NSC 20/07 Q1014 NOSIG=
202012231130 METAR VIDP 231130Z 31004KT 1500 R28/P2000 R29/P2000 FU NSC 19/07 Q1014 NOSIG=
202012231200 METAR VIDP 231200Z 29004KT 1500 R28/P2000 R29/P2000 FU NSC 18/07 Q1013 NOSIG=
202012231230 METAR VIDP 231230Z 21003KT 1500 R28/P2000 R29/P2000 FU NSC 16/08 Q1013 NOSIG=
202012231300 METAR VIDP 231300Z 00000KT 1500 R28/P2000 R29/P2000 FU NSC 15/09 Q1014 NOSIG=
202012231330 METAR VIDP 231330Z 00000KT 1500 R28/P2000 R29/P2000 FU NSC 14/09 Q1014 NOSIG=
202012231400 METAR VIDP 231400Z 00000KT 1500 R28/P2000 R29/P2000 FU NSC 14/09 Q1014 NOSIG=
202012231430 METAR VIDP 231430Z 00000KT 1400 R28/P2000 R29/P2000 BR NSC 14/10 Q1015 NOSIG=
202012231500 METAR VIDP 231500Z 00000KT 1200 R28/P2000 R29/P2000 BR NSC 14/10 Q1015 NOSIG=
202012231530 METAR VIDP 231530Z 00000KT 1200 R28/P2000 R29/P2000 BR NSC 13/10 Q1015 NOSIG=
202012231600 METAR VIDP 231600Z 00000KT 1000 R28/P2000 R29/P2000 BR NSC 13/10 Q1015 NOSIG=
202012231630 METAR VIDP 231630Z 00000KT 0900 R28/P2000 R29/1700 MIFG NSC 13/10 Q1015 BECMG 0800 MIFG=
202012231700 METAR VIDP 231700Z 00000KT 0800 R28/P2000 R29/P2000 MIFG NSC 13/10 Q1015 NOSIG=
202012231705 METAR VIDP NIL=
202012231730 METAR VIDP 231730Z 00000KT 0800 R28/P2000 R29/1600 MIFG NSC 12/10 Q1015 NOSIG=
202012231800 METAR VIDP 231800Z 00000KT 0700 R28/1600 R29/1600 MIFG NSC 11/09 Q1015 NOSIG=
202012231830 METAR VIDP 231830Z 00000KT 0700 R28/1600 R29/1600 MIFG NSC 11/09 Q1015 BECMG 0600 MIFG=
202012231900 METAR VIDP 231900Z 00000KT 0600 R28/1600 R29/1500 MIFG NSC 10/08 Q1015 NOSIG=
202012231930 METAR VIDP 231930Z 00000KT 0500 R28/1800 R29/1700 FG NSC 10/09 Q1015 NOSIG=
202012232000 METAR VIDP 232000Z 00000KT 0500 R28/1700 R29/1500 FG NSC 10/09 Q1015 NOSIG=
202012232030 METAR VIDP 232030Z 00000KT 0500 R28/1800 R29/1500 FG NSC 10/09 Q1015 NOSIG=
202012232100 METAR COR VIDP 232100Z 00000KT 0500 R28/1600 R29/1600 FG NSC 09/08 Q1015 NOSIG=
202012232105 METAR VIDP NIL=
202012232130 METAR VIDP 232130Z 00000KT 0500 R28/1600 R29/1600 FG NSC 09/08 Q1015 NOSIG=
202012232200 METAR COR VIDP 232200Z 00000KT 0400 R28/1500 R29/1300 FG NSC 09/08 Q1015 TEMPO 0350 FG=
202012232205 METAR VIDP NIL=
202012232230 METAR VIDP 232230Z 00000KT 0300 R28/1400 R29/1000 FG NSC 09/08 Q1015 NOSIG=
202012232300 METAR VIDP 232300Z 00000KT 0200 R28/1200 R29/0600 FG NSC 09/08 Q1015 TEMPO 0150 FG=
202012232305 METAR VIDP NIL=
202012232330 METAR VIDP 232330Z 00000KT 0150 R28/1200 R29/0800 FG NSC 08/08 Q1015 NOSIG=
202012240000 METAR VIDP 240000Z 00000KT 0100 R28/1000 R29/0400 FG NSC 08/08 Q1015 NOSIG=
202012240030 METAR VIDP 240030Z 00000KT 0100 R28/1200 R29/0400 FG VV/// 08/08 Q1015 NOSIG=
202012240100 METAR VIDP 240100Z 00000KT 0100 R28/1200 R29/0500 FG VV/// 08/08 Q1015 NOSIG=
202012240130 METAR VIDP 240130Z 00000KT 0100 R28/1200 R29/0600 FG VV/// 08/07 Q1015 NOSIG=
202012240200 METAR VIDP 240200Z 00000KT 0100 R28/0800 R29/0200 FG NSC 08/07 Q1016 NOSIG=
202012240230 METAR VIDP 240230Z 00000KT 0100 R28/0750 R29/0500 FG NSC 08/07 Q1016 BECMG 0150 FG=
202012240300 METAR VIDP 240300Z 00000KT 0300 R28/0700 R29/0600 FG NSC 08/07 Q1016 TEMPO 0350 FG=
202012240330 METAR VIDP 240330Z 25003KT 0500 R28/0900 R29/0800 FG NSC 09/08 Q1017 TEMPO 0600 MIFG=
202012240400 METAR VIDP 240400Z 27004KT 0500 R28/1100 R29/0900 FG NSC 11/09 Q1018 TEMPO 0600 MIFG=
202012240430 METAR VIDP 240430Z 27004KT 0600 R28/1200 R29/1100 MIFG NSC 12/10 Q1018 NOSIG=
202012240500 METAR VIDP 240500Z 27004KT 0700 R28/1600 R29/1600 MIFG NSC 13/11 Q1018 TEMPO 0800 MIFG=
202012240530 METAR VIDP 240530Z 30003KT 0800 R28/1900 R29/1600 MIFG NSC 15/11 Q1018 NOSIG=
202012240600 METAR VIDP 240600Z 29003KT 0800 R28/P2000 R29/P2000 MIFG NSC 16/11 Q1017 NOSIG=
202012240630 METAR VIDP 240630Z 29004KT 1000 R28/P2000 R29/P2000 FU NSC 17/11 Q1017 NOSIG=
202012240700 METAR VIDP 240700Z 31004KT 1000 R28/P2000 R29/P2000 FU NSC 18/10 Q1017 NOSIG=
202012240730 METAR VIDP 240730Z 31004KT 1000 R28/P2000 R29/P2000 FU NSC 19/10 Q1016 NOSIG=
202012240800 METAR VIDP 240800Z 30004KT 1000 R28/P2000 R29/P2000 FU NSC 20/10 Q1016 NOSIG=
202012240830 METAR VIDP 240830Z 31004KT 1200 R28/P2000 R29/P2000 FU NSC 21/10 Q1015 NOSIG=
202012240900 METAR VIDP 240900Z 29005KT 1300 R28/P2000 R29/P2000 FU NSC 21/09 Q1015 BECMG 1500 FU=
202012240905 METAR VIDP NIL=
202012240930 METAR VIDP 240930Z 29004KT 1500 R28/P2000 R29/P2000 FU NSC 21/09 Q1015 NOSIG=
202012241000 METAR VIDP 241000Z 31004KT 1800 R28/P2000 R29/P2000 FU NSC 21/09 Q1015 NOSIG=
202012241030 METAR VIDP 241030Z 32005KT 1800 R28/P2000 R29/P2000 FU NSC 20/09 Q1014 NOSIG=
202012241100 METAR VIDP 241100Z 31004KT 1800 R28/P2000 R29/P2000 FU NSC 20/09 Q1014 NOSIG=
202012241130 METAR VIDP 241130Z 32004KT 2000 FU NSC 19/09 Q1014 NOSIG=
202012241200 METAR VIDP 241200Z 00000KT 2000 FU NSC 18/09 Q1014 NOSIG=
202012241230 METAR VIDP 241230Z 00000KT 2200 HZ NSC 18/09 Q1014 NOSIG=
202012241300 METAR VIDP 241300Z 00000KT 2200 HZ NSC 16/09 Q1015 NOSIG=
202012241330 METAR VIDP 241330Z 00000KT 2200 HZ NSC 15/10 Q1016 NOSIG=
202012241400 METAR VIDP 241400Z 00000KT 2200 HZ NSC 15/10 Q1016 NOSIG=
202012241430 METAR VIDP 241430Z 00000KT 1800 R28/P2000 R29/P2000 HZ NSC 14/09 Q1016 NOSIG=
202012241500 METAR VIDP 241500Z 00000KT 1800 R28/P2000 R29/P2000 BR NSC 13/09 Q1016 NOSIG=
202012241530 METAR VIDP 241530Z 00000KT 1600 R28/P2000 R29/P2000 BR NSC 12/09 Q1016 BECMG 1500 BR=
202012241600 METAR VIDP 241600Z 00000KT 1300 R28/P2000 R29/P2000 BR NSC 12/09 Q1017 NOSIG=
202012241605 METAR VIDP NIL=
202012241630 METAR VIDP 241630Z 00000KT 1100 R28/2000 R29/2000 BR NSC 12/09 Q1017 NOSIG=
202012241700 METAR VIDP 241700Z 00000KT 1100 R28/2000 R29/2000 BR NSC 11/09 Q1017 NOSIG=
202012241730 METAR VIDP 241730Z 00000KT 0900 R28/2000 R29/2000 MIFG NSC 11/09 Q1017 NOSIG=
202012241800 METAR VIDP 241800Z 00000KT 0900 R28/2000 R29/2000 MIFG NSC 11/10 Q1017 NOSIG=
202012241830 METAR VIDP 241830Z 00000KT 0900 R28/2000 R29/2000 MIFG NSC 11/10 Q1017 BECMG 0800 MIFG=
202012241900 METAR VIDP 241900Z 00000KT 0700 R28/1800 R29/1800 MIFG NSC 10/09 Q1016 NOSIG=
202012241930 METAR VIDP 241930Z 00000KT 0700 R28/2000 R29/1800 MIFG NSC 10/09 Q1016 NOSIG=
202012242000 METAR VIDP 242000Z 00000KT 0700 R28/2000 R29/1400 MIFG NSC 10/09 Q1016 BECMG 0600 MIFG=
202012242030 METAR VIDP 242030Z 00000KT 0500 R28/2000 R29/1900 MIFG NSC 09/09 Q1016 NOSIG=
202012242100 METAR VIDP 242100Z 00000KT 0500 R28/2000 R29/0800 MIFG NSC 09/09 Q1016 NOSIG=
202012242130 METAR VIDP NIL=
202012242205 METAR VIDP NIL=
202012242230 METAR VIDP 242230Z 00000KT 0500 R28/P2000 R29/0800 MIFG NSC 08/08 Q1016 NOSIG=
202012242300 METAR VIDP 242300Z 00000KT 0500 R28/1900 R29/1000 MIFG NSC 08/08 Q1016 NOSIG=
202012242305 METAR VIDP NIL=
202012242330 METAR VIDP 242330Z 00000KT 0500 R28/P2000 R29/1000 MIFG NSC 08/08 Q1017 NOSIG=
202012250000 METAR VIDP 250000Z 00000KT 0500 R28/P2000 R29/1200 MIFG NSC 08/08 Q1017 NOSIG=
202012250005 METAR VIDP NIL=
202012250030 METAR VIDP 250030Z 00000KT 0500 R28/P2000 R29/1600 MIFG NSC 08/08 Q1017 NOSIG=
202012250100 METAR VIDP 250100Z 00000KT 0500 R28/P2000 R29/1300 MIFG NSC 08/08 Q1017 NOSIG=
202012250105 METAR VIDP NIL=
202012250130 METAR VIDP 250130Z 00000KT 0500 R28/P2000 R29/1600 MIFG NSC 08/08 Q1017 NOSIG=
202012250200 METAR VIDP 250200Z 00000KT 0500 R28/1800 R29/1000 MIFG NSC 08/08 Q1018 NOSIG=
202012250205 METAR VIDP NIL=
202012250230 METAR VIDP 250230Z 00000KT 0500 R28/1300 R29/1100 MIFG NSC 08/08 Q1018 NOSIG=
202012250300 METAR VIDP 250300Z 00000KT 0500 R28/1500 R29/1300 MIFG NSC 08/08 Q1018 NOSIG=
202012250330 METAR VIDP 250330Z 00000KT 0500 R28/1500 R29/1300 MIFG NSC 09/08 Q1019 BECMG 0600 MIFG=
202012250400 METAR VIDP 250400Z 28004KT 0700 R28/1600 R29/2000 MIFG NSC 10/08 Q1019 BECMG 0800 MIFG=
202012250430 METAR VIDP NIL=
202012250505 METAR VIDP NIL=
202012250530 METAR VIDP NIL=
202012250605 METAR VIDP NIL=
202012250630 METAR VIDP NIL=
202012250705 METAR VIDP NIL=
202012250730 METAR VIDP NIL=
202012250805 METAR VIDP NIL=
202012250830 METAR VIDP NIL=
202012250900 METAR VIDP 250900Z 29009KT 2500 HZ NSC 21/05 Q1016 NOSIG=
202012250905 METAR VIDP NIL=
202012250930 METAR VIDP 250930Z 30007KT 2800 HZ NSC 21/05 Q1016 BECMG 3000 HZ=
202012251005 METAR VIDP NIL=
202012251030 METAR VIDP NIL=
202012251100 METAR VIDP 251100Z 29008KT 3000 HZ NSC 21/05 Q1015 NOSIG=
202012251105 METAR VIDP NIL=
202012251130 METAR VIDP 251130Z 29007KT 2500 HZ NSC 20/06 Q1015 NOSIG=
202012251200 METAR VIDP 251200Z 30005KT 2500 HZ NSC 19/07 Q1015 NOSIG=
202012251205 METAR VIDP NIL=
202012251230 METAR VIDP 251230Z 28004KT 2500 FU NSC 19/07 Q1015 NOSIG=
202012251300 METAR VIDP 251300Z 00000KT 2500 FU NSC 18/08 Q1015 NOSIG=
202012251305 METAR VIDP NIL=
202012251330 METAR VIDP 251330Z 00000KT 2500 FU NSC 18/08 Q1016 NOSIG=
202012251400 METAR VIDP 251400Z 00000KT 2500 FU NSC 17/09 Q1016 NOSIG=
202012251430 METAR VIDP 251430Z 00000KT 2200 FU NSC 16/10 Q1016 NOSIG=
202012251500 METAR VIDP 251500Z 00000KT 2200 FU NSC 15/10 Q1016 NOSIG=
202012251530 METAR VIDP 251530Z 00000KT 2200 FU NSC 14/09 Q1016 NOSIG=
202012251600 METAR VIDP 251600Z 00000KT 1800 R28/P2000 R29/P2000 FU NSC 13/08 Q1016 NOSIG=
202012251630 METAR VIDP 251630Z 00000KT 1800 R28/P2000 R29/P2000 BR NSC 12/08 Q1016 NOSIG=
202012251700 METAR VIDP 251700Z 00000KT 1800 R28/P2000 R29/P2000 BR NSC 11/08 Q1016 BECMG 1500 BR=
202012251730 METAR VIDP 251730Z 00000KT 1500 R28/P2000 R29/P2000 BR NSC 10/08 Q1016 NOSIG=
202012251800 METAR VIDP 251800Z 00000KT 1500 R28/P2000 R29/P2000 BR NSC 10/08 Q1016 NOSIG=
202012251830 METAR VIDP 251830Z 00000KT 1200 R28/P2000 R29/P2000 BR NSC 10/08 Q1016 NOSIG=
202012251900 METAR VIDP 251900Z 00000KT 1000 R28/P2000 R29/P2000 BR NSC 10/08 Q1015 NOSIG=
202012251930 METAR VIDP 251930Z 00000KT 1000 R28/P2000 R29/P2000 BR NSC 10/08 Q1015 BECMG 0800 MIFG=
202012252000 METAR VIDP 252000Z 00000KT 0800 R28/P2000 R29/P2000 MIFG NSC 10/08 Q1015 NOSIG=
202012252030 METAR VIDP 252030Z 00000KT 0800 R28/P2000 R29/P2000 MIFG NSC 10/08 Q1015 NOSIG=
202012252100 METAR VIDP 252100Z 00000KT 0800 R28/P2000 R29/P2000 MIFG NSC 10/08 Q1015 NOSIG=
202012252130 METAR VIDP 252130Z 00000KT 0800 R28/P2000 R29/P2000 MIFG NSC 10/08 Q1015 NOSIG=
202012252200 METAR VIDP 252200Z 29004KT 0800 R28/2000 R29/2000 MIFG NSC 09/07 Q1015 NOSIG=
202012252230 METAR VIDP 252230Z 28004KT 0800 R28/2000 R29/2000 MIFG NSC 09/07 Q1015 NOSIG=
202012252300 METAR VIDP 252300Z 00000KT 0800 R28/2000 R29/2000 MIFG NSC 08/06 Q1015 NOSIG=
202012252330 METAR VIDP 252330Z 00000KT 0800 R28/2000 R29/2000 MIFG NSC 08/06 Q1015 NOSIG=
202012260000 METAR VIDP 260000Z 00000KT 0800 R28/2000 R29/2000 MIFG NSC 08/06 Q1015 NOSIG=
202012260030 METAR VIDP 260030Z 00000KT 0800 R28/2000 R29/2000 MIFG NSC 08/06 Q1015 NOSIG=
202012260100 METAR VIDP 260100Z 00000KT 0800 R28/2000 R29/2000 MIFG NSC 07/05 Q1015 NOSIG=
202012260130 METAR VIDP 260130Z 00000KT 0800 R28/2000 R29/2000 MIFG NSC 07/05 Q1015 BECMG 0600 MIFG=
202012260200 METAR VIDP 260200Z 00000KT 0600 R28/2000 R29/1200 MIFG NSC 07/05 Q1016 NOSIG=
202012260230 METAR VIDP 260230Z 00000KT 0700 R28/1900 R29/1600 MIFG NSC 08/05 Q1016 BECMG 0800 MIFG=
202012260300 METAR VIDP 260300Z 00000KT 0800 R28/1500 R29/1400 MIFG NSC 09/05 Q1017 NOSIG=
202012260330 METAR VIDP 260330Z 00000KT 1000 R28/1900 R29/2000 BR NSC 10/06 Q1018 NOSIG=
202012260400 METAR VIDP 260400Z 28003KT 1000 R28/2000 R29/2000 FU NSC 11/05 Q1018 NOSIG=
202012260430 METAR VIDP 260430Z 28004KT 1100 R28/2000 R29/2000 FU NSC 13/07 Q1018 NOSIG=
202012260500 METAR VIDP 260500Z 28004KT 1300 R28/2000 R29/2000 FU NSC 15/08 Q1018 BECMG 1500 FU=
202012260530 METAR VIDP 260530Z 30004KT 1500 R28/P2000 R29/P2000 FU NSC 16/08 Q1018 NOSIG=
202012260600 METAR VIDP 260600Z 31005KT 1500 R28/P2000 R29/P2000 FU NSC 16/08 Q1018 NOSIG=
202012260630 METAR VIDP 260630Z 30004KT 1500 R28/P2000 R29/P2000 FU NSC 17/08 Q1017 NOSIG=
202012260700 METAR VIDP 260700Z 31006KT 1500 R28/P2000 R29/P2000 FU NSC 17/08 Q1017 NOSIG=
202012260730 METAR VIDP 260730Z 29005KT 1700 R28/P2000 R29/P2000 FU NSC 19/07 Q1017 NOSIG=
202012260800 METAR VIDP 260800Z 29005KT 1800 R28/P2000 R29/P2000 FU NSC 19/06 Q1016 NOSIG=
202012260805 METAR VIDP NIL=
202012260830 METAR VIDP 260830Z 28006KT 2200 FU NSC 20/06 Q1016 NOSIG=
202012260900 METAR VIDP 260900Z 27007KT 2500 HZ NSC 20/07 Q1016 NOSIG=
202012260905 METAR VIDP NIL=
202012260930 METAR VIDP 260930Z 27006KT 2500 HZ NSC 20/07 Q1015 NOSIG=
202012261000 METAR VIDP 261000Z 30006KT 2500 HZ NSC 20/06 Q1015 NOSIG=
202012261005 METAR VIDP NIL=
202012261030 METAR VIDP 261030Z 30005KT 2500 HZ NSC 20/06 Q1015 NOSIG=
202012261100 METAR VIDP 261100Z 28005KT 2300 FU NSC 19/06 Q1015 NOSIG=
202012261105 METAR VIDP NIL=
202012261130 METAR VIDP 261130Z 26004KT 2300 FU FEW100 19/06 Q1015 NOSIG=
202012261200 METAR VIDP 261200Z 27004KT 2300 FU FEW100 18/07 Q1015 NOSIG=
202012261230 METAR VIDP 261230Z 00000KT 2300 FU FEW100 17/07 Q1015 NOSIG=
202012261300 METAR VIDP 261300Z 00000KT 2200 FU FEW100 15/07 Q1015 NOSIG=
202012261330 METAR VIDP 261330Z 00000KT 2200 FU FEW100 14/07 Q1016 NOSIG=
202012261400 METAR VIDP 261400Z 00000KT 2200 FU FEW100 14/07 Q1016 NOSIG=
202012261430 METAR VIDP 261430Z 00000KT 2200 FU FEW100 12/07 Q1016 NOSIG=
202012261500 METAR VIDP 261500Z 00000KT 2000 BR FEW100 11/07 Q1016 NOSIG=
202012261530 METAR VIDP 261530Z 00000KT 1800 R28/P2000 R29/P2000 BR FEW100 11/07 Q1016 NOSIG=
202012261600 METAR VIDP 261600Z 00000KT 1600 R28/P2000 R29/P2000 BR FEW100 11/07 Q1016 BECMG 1500 BR=
202012261630 METAR VIDP 261630Z 00000KT 1400 R28/P2000 R29/P2000 BR FEW100 11/07 Q1017 NOSIG=
202012261700 METAR VIDP 261700Z 00000KT 1400 R28/P2000 R29/P2000 BR FEW100 11/07 Q1017 NOSIG=
202012261730 METAR VIDP 261730Z 00000KT 1100 R28/P2000 R29/P2000 BR FEW100 11/07 Q1017 NOSIG=
202012261800 METAR VIDP 261800Z 09003KT 1100 R28/P2000 R29/P2000 BR FEW100 11/08 Q1017 NOSIG=
202012261830 METAR VIDP 261830Z 00000KT 1100 R28/P2000 R29/P2000 BR FEW100 11/09 Q1017 NOSIG=
202012261900 METAR VIDP 261900Z 00000KT 0900 R28/2000 R29/2000 MIFG FEW100 10/09 Q1016 NOSIG=
202012261930 METAR VIDP 261930Z 00000KT 0900 R28/2000 R29/2000 MIFG FEW100 10/09 Q1016 NOSIG=
202012262000 METAR VIDP 262000Z 00000KT 0900 R28/2000 R29/2000 MIFG FEW100 10/09 Q1016 NOSIG=
202012262030 METAR VIDP 262030Z 00000KT 0900 R28/2000 R29/2000 MIFG FEW100 10/09 Q1016 NOSIG=
202012262100 METAR VIDP 262100Z 00000KT 0900 R28/2000 R29/2000 MIFG FEW100 10/09 Q1016 NOSIG=
202012262130 METAR VIDP 262130Z 00000KT 0900 R28/2000 R29/2000 MIFG FEW100 10/09 Q1016 NOSIG=
202012262200 METAR VIDP 262200Z 00000KT 0900 R28/2000 R29/2000 MIFG FEW100 10/09 Q1016 NOSIG=
202012262205 METAR VIDP NIL=
202012262230 METAR VIDP 262230Z 00000KT 0900 R28/2000 R29/2000 MIFG FEW100 09/08 Q1015 NOSIG=
202012262300 METAR VIDP 262300Z 00000KT 0900 R28/2000 R29/2000 MIFG FEW100 09/08 Q1015 BECMG 0800 MIFG=
202012262305 METAR VIDP NIL=
202012262330 METAR VIDP 262330Z 00000KT 0800 R28/2000 R29/2000 MIFG FEW100 09/08 Q1015 NOSIG=
202012270000 METAR VIDP 270000Z 00000KT 0800 R28/2000 R29/2000 MIFG FEW100 09/08 Q1015 NOSIG=
202012270005 METAR VIDP NIL=
202012270030 METAR VIDP 270030Z 00000KT 0700 R28/2000 R29/2000 MIFG FEW100 09/08 Q1015 BECMG 0600 MIFG=
202012270100 METAR VIDP 270100Z 00000KT 0600 R28/2000 R29/2000 MIFG FEW100 09/08 Q1015 NOSIG=
202012270130 METAR VIDP 270130Z 00000KT 0600 R28/2000 R29/2000 MIFG FEW100 09/08 Q1015 NOSIG=
202012270200 METAR VIDP 270200Z 00000KT 0600 R28/2000 R29/1300 MIFG SCT100 09/08 Q1015 NOSIG=
202012270230 METAR VIDP 270230Z 00000KT 0700 R28/1500 R29/1300 MIFG SCT100 10/08 Q1015 BECMG 0800 MIFG=
202012270300 METAR VIDP 270300Z 00000KT 0800 R28/1500 R29/1300 MIFG SCT100 10/08 Q1015 NOSIG=
202012270305 METAR VIDP NIL=
202012270330 METAR VIDP 270330Z 00000KT 1000 R28/1700 R29/1600 BR SCT100 11/08 Q1015 NOSIG=
202012270400 METAR VIDP 270400Z 09004KT 1200 R28/1800 R29/2000 FU SCT100 13/07 Q1016 NOSIG=
202012270430 METAR VIDP 270430Z 12004KT 1200 R28/1700 R29/2000 FU SCT100 15/07 Q1016 NOSIG=
202012270500 METAR VIDP 270500Z 12005KT 1200 R28/2000 R29/2000 FU SCT100 16/07 Q1016 NOSIG=
202012270505 METAR VIDP NIL=
202012270530 METAR VIDP 270530Z 13006KT 1400 R28/P2000 R29/P2000 FU SCT100 17/07 Q1015 BECMG 1500 FU=
202012270600 METAR VIDP 270600Z 14005KT 1600 R28/2000 R29/2000 FU SCT100 17/07 Q1015 NOSIG=
202012270630 METAR VIDP 270630Z 15006KT 1800 R28/P2000 R29/P2000 FU FEW100 18/07 Q1015 NOSIG=
202012270700 METAR VIDP 270700Z 16005KT 2000 R28/P2000 R29/P2000 FU FEW100 18/07 Q1014 NOSIG=
202012270705 METAR VIDP NIL=
202012270730 METAR VIDP 270730Z 15006KT 2000 R28/P2000 R29/P2000 FU FEW100 19/07 Q1013 NOSIG=
202012270800 METAR VIDP 270800Z 14006KT 2000 R28/P2000 R29/P2000 FU FEW100 20/07 Q1013 NOSIG=
202012270805 METAR VIDP NIL=
202012270830 METAR VIDP 270830Z 14006KT 1600 R28/2000 R29/2000 FU FEW100 20/07 Q1012 NOSIG=
202012270900 METAR VIDP 270900Z 14007KT 1600 R28/2000 R29/2000 FU FEW100 20/08 Q1012 NOSIG=
202012270930 METAR VIDP 270930Z 13007KT 1600 R28/2000 R29/1800 FU FEW100 21/09 Q1011 BECMG 1500 FU=
202012271000 METAR VIDP 271000Z 13007KT 1500 R28/2000 R29/1700 FU FEW100 21/09 Q1010 NOSIG=
202012271030 METAR VIDP 271030Z 14007KT 1400 R28/2000 R29/1800 FU FEW100 21/10 Q1010 NOSIG=
202012271100 METAR VIDP 271100Z 14006KT 1400 R28/2000 R29/2000 FU FEW100 20/10 Q1010 NOSIG=
202012271130 METAR VIDP 271130Z 13006KT 1400 R28/2000 R29/1800 FU FEW100 20/11 Q1010 NOSIG=
202012271200 METAR VIDP 271200Z 13007KT 1400 R28/2000 R29/1900 FU FEW100 19/11 Q1010 NOSIG=
202012271230 METAR VIDP 271230Z 11006KT 1400 R28/P2000 R29/P2000 FU SCT100 18/12 Q1010 NOSIG=
202012271300 METAR VIDP 271300Z 11007KT 1400 R28/P2000 R29/P2000 FU SCT100 17/12 Q1010 NOSIG=
202012271330 METAR VIDP 271330Z 12009KT 1400 R28/P2000 R29/P2000 FU SCT100 17/12 Q1010 NOSIG=
202012271400 METAR VIDP 271400Z 12009KT 1400 R28/P2000 R29/P2000 FU SCT100 16/11 Q1010 NOSIG=
202012271430 METAR VIDP 271430Z 11009KT 1400 R28/P2000 R29/P2000 BR SCT100 16/12 Q1010 NOSIG=
202012271500 METAR VIDP 271500Z 26012G22KT 1200 R28/P2000 R29/P2000 BR FEW040 SCT100 16/12 Q1012 NOSIG=
202012271530 METAR VIDP 271530Z 26009KT 1200 R28/P2000 R29/P2000 BR FEW040 SCT100 16/12 Q1013 NOSIG=
202012271600 METAR COR VIDP 271600Z 30011KT 1400 R28/P2000 R29/P2000 HZ FEW040 SCT100 16/10 Q1013 BECMG 1500 HZ=
202012271630 METAR VIDP 271630Z 30008KT 2200 HZ FEW040 SCT100 16/10 Q1013 NOSIG=
202012271700 METAR VIDP 271700Z 31011KT 2200 HZ FEW040 SCT100 16/10 Q1014 NOSIG=
202012271730 METAR VIDP 271730Z 31009KT 2200 HZ FEW040 SCT100 15/08 Q1014 NOSIG=
202012271800 METAR VIDP 271800Z 30006KT 2200 HZ FEW040 SCT100 15/06 Q1014 NOSIG=
202012271830 METAR VIDP 271830Z 31004KT 2200 HZ FEW040 SCT100 15/06 Q1014 NOSIG=
202012271900 METAR VIDP 271900Z 30005KT 2200 HZ FEW040 SCT100 14/06 Q1014 NOSIG=
202012271930 METAR VIDP 271930Z 32004KT 2200 HZ FEW040 SCT100 14/05 Q1014 NOSIG=
202012272000 METAR VIDP 272000Z 34004KT 2200 HZ FEW040 SCT100 13/05 Q1014 NOSIG=
202012272030 METAR VIDP 272030Z 32004KT 2200 HZ FEW040 SCT100 13/05 Q1014 NOSIG=
202012272100 METAR COR VIDP 272100Z 34003KT 2200 HZ FEW040 SCT100 12/05 Q1014 NOSIG=
202012272130 METAR VIDP 272130Z 28003KT 2200 HZ FEW040 SCT100 12/05 Q1014 NOSIG=
202012272200 METAR VIDP 272200Z 30004KT 2200 FU FEW040 SCT100 11/05 Q1014 NOSIG=
202012272230 METAR VIDP 272230Z 23004KT 2200 FU SCT100 11/05 Q1014 NOSIG=
202012272300 METAR VIDP 272300Z 27003KT 2200 FU SCT100 11/05 Q1014 NOSIG=
202012272330 METAR VIDP 272330Z 00000KT 2200 BR SCT100 10/06 Q1015 NOSIG=
202012280000 METAR VIDP 280000Z 00000KT 2200 BR SCT100 10/06 Q1015 NOSIG=
202012280030 METAR VIDP 280030Z 27003KT 1800 R28/P2000 R29/P2000 BR SCT100 09/07 Q1015 BECMG 1500 BR=
202012280100 METAR VIDP 280100Z 30003KT 1500 R28/P2000 R29/P2000 BR FEW100 09/07 Q1016 NOSIG=
202012280130 METAR VIDP 280130Z 00000KT 1500 R28/P2000 R29/P2000 BR NSC 09/07 Q1016 NOSIG=
202012280200 METAR VIDP 280200Z 00000KT 1500 R28/P2000 R29/P2000 BR NSC 08/07 Q1016 NOSIG=
202012280230 METAR VIDP 280230Z 00000KT 1200 R28/2000 R29/2000 BR NSC 08/06 Q1017 NOSIG=
202012280300 METAR VIDP 280300Z 00000KT 1200 R28/2000 R29/2000 BR NSC 08/06 Q1018 NOSIG=
202012280330 METAR VIDP 280330Z 33004KT 1200 R28/2000 R29/2000 FU NSC 10/05 Q1018 NOSIG=
202012280400 METAR VIDP 280400Z 32004KT 1400 R28/P2000 R29/P2000 FU NSC 11/04 Q1019 BECMG 1500 FU=
202012280430 METAR VIDP 280430Z 33006KT 1500 R28/P2000 R29/P2000 FU NSC 13/04 Q1019 NOSIG=
202012280500 METAR VIDP 280500Z 34007KT 1500 R28/P2000 R29/P2000 FU NSC 14/04 Q1019 NOSIG=
202012280530 METAR VIDP 280530Z 32006KT 1800 R28/P2000 R29/P2000 FU NSC 15/04 Q1019 NOSIG=
202012280600 METAR COR VIDP 280600Z 32007KT 2000 R28/P2000 R29/P2000 FU NSC 15/03 Q1019 NOSIG=
202012280630 METAR VIDP 280630Z 34007KT 2200 FU NSC 16/02 Q1018 NOSIG=
202012280700 METAR VIDP 280700Z 33006KT 2500 HZ NSC 17/02 Q1018 NOSIG=
202012280730 METAR VIDP 280730Z 32006KT 2500 HZ NSC 17/02 Q1018 NOSIG=
202012280800 METAR VIDP 280800Z 31006KT 2500 HZ NSC 18/02 Q1017 NOSIG=
202012280830 METAR VIDP 280830Z 31007KT 2500 HZ NSC 18/02 Q1017 BECMG 3000 HZ=
202012280900 METAR VIDP 280900Z 32008KT 3000 HZ NSC 18/03 Q1017 NOSIG=
202012280930 METAR VIDP 280930Z 31008KT 3000 HZ NSC 19/04 Q1017 NOSIG=
202012281000 METAR VIDP 281000Z 31007KT 3000 HZ NSC 19/04 Q1016 NOSIG=
202012281030 METAR VIDP 281030Z 31006KT 3000 HZ NSC 18/04 Q1016 NOSIG=
202012281100 METAR VIDP 281100Z 32007KT 3000 HZ NSC 18/04 Q1016 NOSIG=
202012281130 METAR VIDP 281130Z 30006KT 3000 HZ NSC 17/05 Q1016 NOSIG=
202012281200 METAR VIDP 281200Z 31006KT 3000 HZ NSC 16/05 Q1016 NOSIG=
202012281230 METAR VIDP 281230Z 31005KT 3000 HZ NSC 16/06 Q1016 NOSIG=
202012281300 METAR VIDP 281300Z 31004KT 2800 HZ NSC 15/07 Q1016 NOSIG=
202012281330 METAR VIDP 281330Z 33004KT 2800 HZ NSC 15/07 Q1016 NOSIG=
202012281400 METAR VIDP 281400Z 32004KT 2500 HZ NSC 14/08 Q1017 NOSIG=
202012281430 METAR VIDP 281430Z 28004KT 2500 HZ NSC 13/07 Q1017 NOSIG=
202012281500 METAR VIDP 281500Z 29003KT 2500 HZ NSC 12/07 Q1017 NOSIG=
202012281530 METAR VIDP 281530Z 33003KT 2500 HZ NSC 12/07 Q1017 NOSIG=
202012281600 METAR VIDP 281600Z 30004KT 2500 HZ NSC 11/06 Q1017 NOSIG=
202012281630 METAR VIDP 281630Z 30004KT 2500 HZ NSC 11/06 Q1017 NOSIG=
202012281700 METAR VIDP 281700Z 25004KT 2500 HZ NSC 11/06 Q1018 NOSIG=
202012281705 METAR VIDP NIL=
202012281730 METAR VIDP 281730Z 26003KT 2500 HZ NSC 10/05 Q1018 NOSIG=
202012281800 METAR VIDP 281800Z 00000KT 2500 BR NSC 09/06 Q1018 NOSIG=
202012281830 METAR VIDP 281830Z 00000KT 2500 BR NSC 09/06 Q1017 NOSIG=
202012281900 METAR VIDP 281900Z 00000KT 2500 BR NSC 09/06 Q1017 NOSIG=
202012281930 METAR VIDP 281930Z 32003KT 2500 BR NSC 09/06 Q1017 NOSIG=
202012282000 METAR VIDP 282000Z 32003KT 2500 BR NSC 09/06 Q1017 NOSIG=
202012282030 METAR VIDP 282030Z 00000KT 2200 BR NSC 09/06 Q1017 NOSIG=
202012282100 METAR VIDP 282100Z 00000KT 2200 BR NSC 08/05 Q1017 NOSIG=
202012282130 METAR VIDP 282130Z 00000KT 2200 BR NSC 08/05 Q1017 NOSIG=
202012282200 METAR VIDP 282200Z 28004KT 2200 BR NSC 08/05 Q1017 NOSIG=
202012282230 METAR VIDP 282230Z 24004KT 2200 BR NSC 08/06 Q1016 NOSIG=
202012282300 METAR VIDP 282300Z 28005KT 2200 BR NSC 07/05 Q1016 NOSIG=
202012282330 METAR VIDP 282330Z 24004KT 2200 BR NSC 07/05 Q1016 NOSIG=
202012290000 METAR VIDP 290000Z 23004KT 1800 R28/P2000 R29/P2000 BR NSC 07/05 Q1016 NOSIG=
202012290030 METAR VIDP 290030Z 28004KT 1600 R28/P2000 R29/P2000 BR NSC 07/05 Q1016 BECMG 1500 BR=
202012290100 METAR VIDP 290100Z 27003KT 1500 R28/P2000 R29/P2000 BR NSC 06/05 Q1017 NOSIG=
202012290105 METAR VIDP NIL=
202012290130 METAR VIDP 290130Z 28003KT 1300 R28/P2000 R29/P2000 BR NSC 06/05 Q1017 NOSIG=
202012290200 METAR VIDP 290200Z 00000KT 1200 R28/P2000 R29/P2000 BR NSC 06/05 Q1017 NOSIG=
202012290205 METAR VIDP NIL=
202012290230 METAR VIDP 290230Z 25004KT 1000 R28/2000 R29/1700 BR NSC 06/05 Q1017 NOSIG=
202012290300 METAR VIDP 290300Z 25004KT 1000 R28/1900 R29/1700 BR NSC 07/05 Q1018 NOSIG=
202012290330 METAR VIDP 290330Z 25005KT 1000 R28/1900 R29/2000 BR NSC 07/05 Q1019 NOSIG=
202012290400 METAR VIDP 290400Z 26005KT 1000 R28/1900 R29/2000 BR NSC 08/04 Q1019 NOSIG=
202012290430 METAR VIDP 290430Z 28005KT 1200 R28/2000 R29/2000 FU NSC 09/04 Q1020 NOSIG=
202012290500 METAR VIDP 290500Z 27004KT 1200 R28/P2000 R29/P2000 FU NSC 10/04 Q1020 NOSIG=
202012290530 METAR VIDP 290530Z 29005KT 1200 R28/P2000 R29/P2000 FU NSC 10/04 Q1020 NOSIG=
202012290600 METAR VIDP 290600Z 31006KT 1400 R28/P2000 R29/P2000 FU NSC 11/04 Q1019 NOSIG=
202012290630 METAR VIDP 290630Z 32008KT 1400 R28/P2000 R29/P2000 FU NSC 12/04 Q1019 BECMG 1500 FU=
202012290700 METAR VIDP 290700Z 30007KT 1500 R28/P2000 R29/P2000 FU NSC 14/04 Q1019 NOSIG=
202012290730 METAR VIDP 290730Z 31007KT 1800 R28/P2000 R29/P2000 FU NSC 15/04 Q1018 NOSIG=
202012290800 METAR VIDP 290800Z 30007KT 1800 R28/P2000 R29/P2000 FU NSC 15/04 Q1018 NOSIG=
202012290830 METAR VIDP 290830Z 31008KT 1800 R28/P2000 R29/P2000 FU NSC 15/04 Q1017 NOSIG=
202012290900 METAR VIDP 290900Z 29010KT 1800 R28/P2000 R29/1800 FU NSC 16/05 Q1017 NOSIG=
202012290930 METAR VIDP 290930Z 30008KT 2100 FU NSC 16/05 Q1017 NOSIG=
202012291000 METAR VIDP 291000Z 30008KT 2100 FU NSC 16/05 Q1016 NOSIG=
202012291030 METAR VIDP 291030Z 30008KT 2100 FU NSC 15/05 Q1016 NOSIG=
202012291100 METAR VIDP 291100Z 30008KT 2500 HZ NSC 15/05 Q1016 NOSIG=
202012291130 METAR VIDP 291130Z 29007KT 2500 HZ NSC 15/05 Q1016 NOSIG=
202012291200 METAR VIDP 291200Z 29007KT 2500 HZ NSC 15/06 Q1016 NOSIG=
202012291230 METAR VIDP 291230Z 28004KT 2500 FU NSC 14/07 Q1016 NOSIG=
202012291300 METAR VIDP 291300Z 26003KT 2500 FU NSC 13/07 Q1017 NOSIG=
202012291330 METAR VIDP 291330Z 25004KT 2500 FU NSC 13/07 Q1017 NOSIG=
202012291400 METAR VIDP 291400Z 25004KT 2500 FU NSC 13/07 Q1017 NOSIG=
202012291430 METAR VIDP 291430Z 26004KT 2500 BR NSC 12/08 Q1017 NOSIG=
202012291500 METAR VIDP 291500Z 25004KT 2500 BR NSC 11/08 Q1018 NOSIG=
202012291530 METAR VIDP 291530Z 25004KT 2500 BR NSC 10/08 Q1018 NOSIG=
202012291600 METAR VIDP 291600Z 24005KT 2500 BR NSC 10/08 Q1018 NOSIG=
202012291630 METAR VIDP 291630Z 26005KT 2500 BR NSC 10/08 Q1019 NOSIG=
202012291700 METAR VIDP 291700Z 26005KT 2500 BR NSC 09/08 Q1019 NOSIG=
202012291730 METAR VIDP 291730Z 25003KT 2200 BR NSC 09/08 Q1018 NOSIG=
202012291800 METAR VIDP 291800Z 27004KT 2200 BR NSC 09/08 Q1018 NOSIG=
202012291830 METAR VIDP 291830Z 26004KT 2200 BR NSC 08/07 Q1018 NOSIG=
202012291900 METAR VIDP 291900Z 29004KT 2200 BR NSC 08/07 Q1018 NOSIG=
202012291930 METAR VIDP 291930Z 26004KT 2000 BR NSC 07/07 Q1018 NOSIG=
202012292000 METAR VIDP 292000Z 26005KT 1600 R28/P2000 R29/P2000 BR NSC 07/07 Q1018 BECMG 1500 BR=
202012292030 METAR VIDP 292030Z 26004KT 1500 R28/P2000 R29/P2000 BR NSC 06/06 Q1018 NOSIG=
202012292100 METAR VIDP 292100Z 26004KT 1500 R28/P2000 R29/P2000 BR NSC 06/06 Q1017 NOSIG=
202012292105 METAR VIDP NIL=
202012292130 METAR VIDP 292130Z 26004KT 1500 R28/P2000 R29/P2000 BR NSC 06/06 Q1017 NOSIG=
202012292200 METAR VIDP 292200Z 26004KT 1200 R28/2000 R29/2000 BR NSC 06/06 Q1017 NOSIG=
202012292230 METAR VIDP 292230Z 26005KT 1000 R28/2000 R29/1700 BR NSC 06/06 Q1018 BECMG 0800 MIFG=
202012292300 METAR VIDP 292300Z 26005KT 0800 R28/2000 R29/1300 MIFG NSC 06/06 Q1018 NOSIG=
202012292330 METAR VIDP 292330Z 26006KT 0700 R28/2000 R29/1200 MIFG NSC 06/05 Q1018 BECMG 0600 MIFG=
202012300000 METAR VIDP 300000Z 25005KT 0400 R28/2000 R29/1000 FG NSC 06/05 Q1018 BECMG 0350 FG=
202012300030 METAR VIDP 300030Z 26006KT 0050 R28/0800 R29/0200 FG VV/// 05/05 Q1018 NOSIG=
202012300100 METAR VIDP 300100Z 26006KT 0050 R28/0600 R29/0200 FG VV/// 05/05 Q1018 NOSIG=
202012300130 METAR VIDP 300130Z 28006KT 0050 R28/0900 R29/0250 FG VV/// 05/05 Q1019 NOSIG=
202012300200 METAR VIDP 300200Z 29006KT 0100 R28/1200 R29/0900 FG VV/// 06/05 Q1019 BECMG 0150 FG=
202012300230 METAR VIDP 300230Z 30007KT 0300 R28/1000 R29/1000 FG VV/// 07/06 Q1019 TEMPO 0350 FG=
202012300300 METAR VIDP 300300Z 29006KT 0400 R28/1000 R29/1000 FG VV/// 08/06 Q1020 NOSIG=
202012300330 METAR VIDP 300330Z 28006KT 0500 R28/1200 R29/1200 FG NSC 08/06 Q1020 TEMPO 0600 MIFG=
202012300400 METAR COR VIDP 300400Z 30006KT 0600 R28/1000 R29/1200 MIFG NSC 08/06 Q1021 NOSIG=
202012300430 METAR VIDP 300430Z 29006KT 0700 R28/1000 R29/1200 MIFG NSC 09/06 Q1021 BECMG 0800 MIFG=
202012300500 METAR VIDP 300500Z 28006KT 0800 R28/1100 R29/1600 MIFG NSC 10/06 Q1021 NOSIG=
202012300530 METAR VIDP 300530Z 30007KT 1000 R28/1200 R29/1500 BR SCT100 11/07 Q1021 NOSIG=
202012300600 METAR VIDP 300600Z 28006KT 1100 R28/1200 R29/1800 FU SCT100 11/05 Q1020 NOSIG=
202012300630 METAR VIDP 300630Z 27005KT 1100 R28/1200 R29/1600 FU FEW100 11/05 Q1020 NOSIG=
202012300700 METAR VIDP 300700Z 27005KT 1200 R28/1200 R29/2000 FU FEW100 12/06 Q1020 NOSIG=
202012300730 METAR VIDP 300730Z 29006KT 1300 R28/1300 R29/1700 FU FEW100 13/07 Q1019 BECMG 1500 FU=
202012300800 METAR VIDP 300800Z 29006KT 1500 R28/1500 R29/1600 FU FEW100 14/07 Q1019 NOSIG=
202012300830 METAR VIDP 300830Z 30006KT 1500 R28/1500 R29/1500 FU FEW100 14/07 Q1019 NOSIG=
202012300900 METAR VIDP 300900Z 31006KT 1500 R28/1500 R29/1500 FU FEW100 15/07 Q1019 NOSIG=
202012300905 METAR VIDP NIL=
202012300930 METAR VIDP NIL=
202012301000 METAR VIDP 301000Z 29005KT 1500 R28/1600 R29/1600 FU FEW100 15/07 Q1019 NOSIG=
202012301005 METAR VIDP NIL=
202012301030 METAR VIDP 301030Z 29006KT 1500 R28/1600 R29/1500 FU FEW100 15/07 Q1018 NOSIG=
202012301100 METAR VIDP 301100Z 30006KT 1500 R28/1600 R29/1500 FU FEW100 15/07 Q1018 NOSIG=
202012301130 METAR VIDP 301130Z 31005KT 1500 R28/1600 R29/1600 FU FEW100 15/07 Q1018 NOSIG=
202012301200 METAR VIDP 301200Z 30005KT 1500 R28/1600 R29/1600 FU FEW100 15/07 Q1018 NOSIG=
202012301205 METAR VIDP NIL=
202012301230 METAR VIDP 301230Z 31005KT 1500 R28/P2000 R29/P2000 FU FEW100 13/08 Q1018 NOSIG=
202012301300 METAR VIDP 301300Z 32005KT 1500 R28/P2000 R29/P2000 BR FEW100 13/09 Q1019 NOSIG=
202012301330 METAR VIDP 301330Z 32005KT 1500 R28/P2000 R29/P2000 BR FEW100 12/09 Q1019 NOSIG=
202012301400 METAR VIDP 301400Z 32004KT 1500 R28/P2000 R29/P2000 BR FEW100 12/09 Q1019 NOSIG=
202012301430 METAR VIDP 301430Z 31004KT 1500 R28/P2000 R29/P2000 BR FEW100 12/09 Q1019 NOSIG=
202012301500 METAR VIDP 301500Z 32004KT 1500 R28/P2000 R29/P2000 BR FEW100 12/09 Q1019 NOSIG=
202012301530 METAR VIDP 301530Z 27003KT 1500 R28/P2000 R29/P2000 BR FEW100 11/08 Q1019 NOSIG=
202012301600 METAR VIDP 301600Z 00000KT 1200 R28/P2000 R29/P2000 BR FEW100 11/08 Q1020 NOSIG=
202012301630 METAR VIDP 301630Z 00000KT 1200 R28/P2000 R29/P2000 BR FEW100 11/08 Q1019 NOSIG=
202012301700 METAR VIDP 301700Z 00000KT 1000 R28/P2000 R29/P2000 BR FEW100 10/08 Q1019 BECMG 0800 MIFG=
202012301730 METAR VIDP 301730Z 00000KT 0900 R28/P2000 R29/P2000 BR FEW100 10/08 Q1019 BECMG 0800 MIFG=
202012301800 METAR VIDP 301800Z 00000KT 0800 R28/1800 R29/1400 MIFG FEW100 10/08 Q1019 NOSIG=
202012301830 METAR VIDP 301830Z 00000KT 0700 R28/1300 R29/1300 MIFG FEW100 09/07 Q1019 BECMG 0600 MIFG=
202012301900 METAR VIDP 301900Z 00000KT 0400 R28/1500 R29/1000 FG FEW100 08/07 Q1019 BECMG 0350 FG=
202012301930 METAR VIDP 301930Z 00000KT 0400 R28/1300 R29/0500 FG FEW100 07/06 Q1019 BECMG 0350 FG=
202012302000 METAR VIDP 302000Z 00000KT 0300 R28/1400 R29/0700 FG NSC 07/06 Q1019 NOSIG=
202012302030 METAR COR VIDP 302030Z 00000KT 0200 R28/0300 R29/0250 FG VV/// 07/06 Q1019 BECMG 0150 FG=
202012302100 METAR VIDP 302100Z 00000KT 0100 R28/0300 R29/0200 FG VV/// 06/06 Q1018 NOSIG=
202012302105 METAR VIDP NIL=
202012302130 METAR VIDP 302130Z 00000KT 0100 R28/0300 R29/0200 FG VV/// 06/06 Q1018 NOSIG=
202012302200 METAR VIDP 302200Z 00000KT 0050 R28/0250 R29/0150 FG VV/// 06/06 Q1018 NOSIG=
202012302205 METAR VIDP NIL=
202012302230 METAR VIDP 302230Z 00000KT 0050 R28/0200 R29/0150 FG VV/// 06/06 Q1018 NOSIG=
202012302300 METAR VIDP 302300Z 00000KT 0050 R28/0500 R29/0200 FG VV/// 06/06 Q1018 NOSIG=
202012302330 METAR VIDP 302330Z 00000KT 0050 R28/0750 R29/0250 FG VV/// 06/06 Q1018 NOSIG=
