##########################################################
# Query made at 12/13/2025 04:24:58 UTC
# Time interval: from 12/10/2021 00:00  to 12/30/2021 23:59  UTC
##########################################################

##########################################################
# VIDP, New Delhi / Palam (India)
# WMO index: 42181. WIGOS ID: 0-20000-0-42181
# Latitude 28-34-00N. Longitude 077-07-00E. Altitude 225 m.
##########################################################

###################################
#  METAR/SPECI from VIDP
###################################
202112100000 METAR VIDP 100000Z 26005KT 1500 R28/P2000 R29/P2000 BR NSC 13/12 Q1020 NOSIG=
202112100030 METAR VIDP 100030Z 25004KT 1500 R28/P2000 R29/P2000 BR NSC 13/12 Q1020 NOSIG=
202112100100 METAR VIDP 100100Z 24003KT 1500 R28/P2000 R29/P2000 BR NSC 13/12 Q1020 NOSIG=
202112100130 METAR VIDP 100130Z 25005KT 1200 R28/P2000 R29/P2000 BR NSC 12/11 Q1021 TEMPO 0800 MIFG=
202112100200 METAR VIDP 100200Z 26004KT 1000 R28/1600 R29/2000 BR NSC 12/11 Q1021 TEMPO 0800 MIFG=
202112100230 METAR VIDP 100230Z 23004KT 1000 R28/1500 R29/1900 BR NSC 12/11 Q1021 TEMPO 0800 MIFG=
202112100300 METAR VIDP 100300Z 24004KT 1200 R28/P2000 R29/P2000 BR NSC 12/11 Q1021 NOSIG=
202112100330 METAR VIDP 100330Z 24005KT 1300 R28/1700 R29/P2000 BR NSC 13/11 Q1022 BECMG 1500 BR=
202112100400 METAR VIDP 100400Z 26007KT 1500 R28/P2000 R29/P2000 BR NSC 14/12 Q1022 NOSIG=
202112100430 METAR VIDP 100430Z 26007KT 1800 R28/P2000 R29/P2000 BR NSC 15/12 Q1022 NOSIG=
202112100500 METAR VIDP 100500Z 26005KT 1800 R28/P2000 R29/P2000 BR NSC 16/12 Q1022 NOSIG=
202112100530 METAR VIDP 100530Z 24005KT 2200 FU NSC 17/12 Q1022 NOSIG=
202112100600 METAR VIDP 100600Z 26005KT 2200 FU NSC 17/12 Q1022 NOSIG=
202112100630 METAR VIDP 100630Z 28005KT 2500 FU NSC 19/11 Q1021 NOSIG=
202112100700 METAR VIDP 100700Z 29006KT 2500 FU NSC 20/12 Q1021 NOSIG=
202112100730 METAR VIDP 100730Z 27006KT 2500 FU NSC 20/11 Q1020 NOSIG=
202112100800 METAR VIDP 100800Z 28007KT 2800 HZ NSC 21/10 Q1020 BECMG 3000 HZ=
202112100830 METAR VIDP 100830Z 29008KT 3000 FU NSC 21/10 Q1019 NOSIG=
202112100900 METAR VIDP 100900Z 27009KT 3000 FU NSC 22/10 Q1019 NOSIG=
202112100930 METAR VIDP 100930Z 27008KT 3000 FU NSC 22/09 Q1019 NOSIG=
202112101000 METAR VIDP 101000Z 30010KT 3000 FU NSC 22/06 Q1019 NOSIG=
202112101030 METAR VIDP 101030Z 30008KT 3000 FU NSC 22/07 Q1019 NOSIG=
202112101100 METAR VIDP 101100Z 28007KT 3000 FU NSC 22/07 Q1019 NOSIG=
202112101130 METAR VIDP 101130Z 27005KT 3000 FU NSC 21/08 Q1019 NOSIG=
202112101200 METAR VIDP 101200Z 26004KT 3000 FU NSC 20/09 Q1019 NOSIG=
202112101230 METAR VIDP 101230Z 26003KT 3000 FU NSC 19/10 Q1019 NOSIG=
202112101300 METAR VIDP 101300Z 25004KT 3000 FU NSC 18/10 Q1019 NOSIG=
202112101330 METAR VIDP 101330Z 25003KT 2800 FU NSC 18/11 Q1019 NOSIG=
202112101400 METAR VIDP 101400Z 23004KT 2800 FU NSC 18/11 Q1020 NOSIG=
202112101430 METAR VIDP 101430Z 24002KT 2800 FU NSC 18/11 Q1020 NOSIG=
202112101500 METAR VIDP 101500Z 24002KT 2800 FU NSC 17/11 Q1020 NOSIG=
202112101530 METAR VIDP 101530Z 00000KT 2500 FU NSC 17/11 Q1020 NOSIG=
202112101600 METAR VIDP 101600Z 00000KT 2500 FU NSC 16/11 Q1020 NOSIG=
202112101630 METAR VIDP 101630Z 00000KT 2500 FU NSC 16/10 Q1020 NOSIG=
202112101700 METAR VIDP 101700Z 00000KT 2500 BR NSC 16/12 Q1020 NOSIG=
202112101730 METAR VIDP 101730Z 00000KT 2500 BR NSC 15/11 Q1020 NOSIG=
202112101800 METAR VIDP 101800Z 00000KT 2500 BR NSC 15/11 Q1020 NOSIG=
202112101830 METAR VIDP 101830Z 00000KT 2500 BR NSC 14/11 Q1019 NOSIG=
202112101900 METAR VIDP 101900Z 00000KT 2500 BR NSC 14/12 Q1019 NOSIG=
202112101930 METAR VIDP 101930Z 00000KT 2500 BR NSC 13/11 Q1019 NOSIG=
202112102000 METAR VIDP 102000Z 00000KT 2500 BR NSC 13/11 Q1019 NOSIG=
202112102030 METAR VIDP 102030Z 00000KT 2700 BR NSC 13/11 Q1018 NOSIG=
202112102100 METAR VIDP 102100Z 00000KT 2700 BR NSC 12/11 Q1018 NOSIG=
202112102130 METAR VIDP 102130Z 00000KT 2700 BR NSC 12/11 Q1018 NOSIG=
202112102200 METAR VIDP 102200Z 00000KT 2500 BR NSC 12/10 Q1018 NOSIG=
202112102230 METAR VIDP 102230Z 00000KT 2500 BR NSC 11/10 Q1018 NOSIG=
202112102300 METAR VIDP 102300Z 22003KT 2500 BR NSC 11/10 Q1018 NOSIG=
202112102330 METAR VIDP 102330Z 00000KT 2500 BR NSC 11/10 Q1018 NOSIG=
202112110000 METAR VIDP 110000Z 22004KT 2500 BR NSC 11/10 Q1018 NOSIG=
202112110030 METAR VIDP 110030Z 23003KT 2200 BR NSC 11/10 Q1018 NOSIG=
202112110100 METAR VIDP 110100Z 26004KT 2100 BR NSC 11/10 Q1018 NOSIG=
202112110130 METAR VIDP 110130Z 24003KT 1800 R28/P2000 R29/P2000 BR NSC 11/09 Q1019 NOSIG=
202112110200 METAR VIDP 110200Z 25004KT 1800 R28/2000 R29/2000 BR NSC 11/09 Q1019 NOSIG=
202112110230 METAR VIDP 110230Z 23004KT 1600 R28/2000 R29/2000 BR NSC 11/09 Q1020 BECMG 1500 BR=
202112110300 METAR VIDP 110300Z 24004KT 1500 R28/2000 R29/2000 BR NSC 12/09 Q1020 NOSIG=
202112110330 METAR VIDP 110330Z 25006KT 1500 R28/2000 R29/2000 FU NSC 13/08 Q1021 NOSIG=
202112110400 METAR VIDP 110400Z 25006KT 1500 R28/2000 R29/2000 FU NSC 14/08 Q1021 NOSIG=
202112110430 METAR VIDP 110430Z 21006KT 1500 R28/2000 R29/2000 FU NSC 15/08 Q1021 NOSIG=
202112110500 METAR VIDP 110500Z 25006KT 1800 R28/2000 R29/2000 FU NSC 16/07 Q1021 NOSIG=
202112110530 METAR VIDP 110530Z 26004KT 1800 R28/P2000 R29/P2000 FU NSC 17/08 Q1021 NOSIG=
202112110600 METAR VIDP 110600Z 27004KT 2200 FU NSC 18/07 Q1021 NOSIG=
202112110630 METAR VIDP 110630Z 25007KT 2500 HZ NSC 19/07 Q1020 NOSIG=
202112110700 METAR VIDP 110700Z 27006KT 2800 HZ NSC 20/07 Q1020 BECMG 3000 HZ=
202112110730 METAR VIDP 110730Z 26007KT 3000 HZ NSC 20/07 Q1020 NOSIG=
202112110800 METAR VIDP 110800Z 27007KT 3500 HZ NSC 21/04 Q1019 NOSIG=
202112110830 METAR VIDP 110830Z 29007KT 3500 HZ NSC 22/04 Q1019 NOSIG=
202112110900 METAR VIDP 110900Z 28006KT 3500 HZ NSC 22/04 Q1018 NOSIG=
202112110930 METAR VIDP 110930Z 28007KT 3500 HZ NSC 21/04 Q1018 NOSIG=
202112111000 METAR VIDP 111000Z 26006KT 3500 HZ NSC 21/04 Q1018 NOSIG=
202112111030 METAR VIDP 111030Z 27006KT 3500 HZ NSC 21/04 Q1018 NOSIG=
202112111100 METAR COR VIDP 111100Z 26006KT 3500 HZ NSC 21/04 Q1018 BECMG 3000 HZ=
202112111130 METAR VIDP 111130Z 25005KT 3000 HZ NSC 21/04 Q1018 NOSIG=
202112111200 METAR VIDP 111200Z 25003KT 3000 HZ NSC 20/05 Q1018 NOSIG=
202112111230 METAR VIDP 111230Z 00000KT 3000 HZ NSC 19/05 Q1019 NOSIG=
202112111300 METAR VIDP 111300Z 00000KT 3000 HZ NSC 18/06 Q1019 NOSIG=
202112111330 METAR VIDP 111330Z 00000KT 3000 HZ NSC 18/07 Q1019 NOSIG=
202112111400 METAR VIDP 111400Z 00000KT 3000 HZ NSC 17/07 Q1019 NOSIG=
202112111430 METAR VIDP 111430Z 00000KT 3000 HZ NSC 16/07 Q1020 NOSIG=
202112111500 METAR VIDP 111500Z 00000KT 3000 HZ NSC 15/09 Q1020 NOSIG=
202112111530 METAR VIDP 111530Z 00000KT 3000 HZ NSC 15/09 Q1020 NOSIG=
202112111600 METAR VIDP 111600Z 00000KT 3000 HZ NSC 15/09 Q1020 NOSIG=
202112111630 METAR VIDP 111630Z 00000KT 3000 HZ NSC 15/09 Q1020 NOSIG=
202112111700 METAR VIDP 111700Z 00000KT 3000 HZ NSC 15/08 Q1020 NOSIG=
202112111730 METAR VIDP 111730Z 00000KT 3000 HZ NSC 15/09 Q1020 NOSIG=
202112111800 METAR VIDP 111800Z 00000KT 3000 HZ NSC 14/08 Q1020 NOSIG=
202112111830 METAR VIDP 111830Z 00000KT 3000 HZ NSC 14/09 Q1020 NOSIG=
202112111900 METAR VIDP 111900Z 00000KT 2800 BR NSC 14/10 Q1020 NOSIG=
202112111930 METAR VIDP 111930Z 00000KT 2800 BR NSC 14/10 Q1019 NOSIG=
202112112000 METAR VIDP 112000Z 00000KT 2500 BR NSC 14/10 Q1019 NOSIG=
202112112030 METAR VIDP 112030Z 00000KT 2500 BR NSC 13/10 Q1019 NOSIG=
202112112100 METAR VIDP 112100Z 00000KT 2200 BR NSC 13/10 Q1019 NOSIG=
202112112130 METAR VIDP 112130Z 00000KT 2200 BR NSC 13/10 Q1019 NOSIG=
202112112200 METAR VIDP 112200Z 00000KT 2200 BR NSC 13/10 Q1019 NOSIG=
202112112230 METAR VIDP 112230Z 00000KT 2200 BR NSC 12/10 Q1019 NOSIG=
202112112300 METAR VIDP 112300Z 29004KT 2200 BR NSC 12/10 Q1019 NOSIG=
202112112330 METAR VIDP 112330Z 25003KT 2200 BR NSC 11/09 Q1019 NOSIG=
202112120000 METAR VIDP 120000Z 27003KT 1700 R28/P2000 R29/P2000 BR NSC 11/09 Q1019 BECMG 1500 BR=
202112120030 METAR VIDP 120030Z 00000KT 1700 R28/P2000 R29/P2000 BR NSC 10/09 Q1019 BECMG 1500 BR=
202112120100 METAR VIDP 120100Z 00000KT 1700 R28/P2000 R29/P2000 BR NSC 10/09 Q1020 BECMG 1500 BR=
202112120130 METAR VIDP 120130Z 25003KT 1500 R28/P2000 R29/P2000 BR FEW100 10/09 Q1020 NOSIG=
202112120200 METAR VIDP 120200Z 26003KT 1500 R28/P2000 R29/P2000 BR SCT100 10/09 Q1021 NOSIG=
202112120230 METAR VIDP 120230Z 24004KT 1500 R28/P2000 R29/P2000 BR SCT100 11/09 Q1021 NOSIG=
202112120300 METAR VIDP 120300Z 27003KT 1500 R28/P2000 R29/P2000 BR SCT100 12/09 Q1021 NOSIG=
202112120330 METAR VIDP 120330Z 23004KT 1600 R28/P2000 R29/P2000 FU FEW100 13/08 Q1022 NOSIG=
202112120400 METAR VIDP 120400Z 23004KT 1800 R28/P2000 R29/P2000 FU NSC 14/07 Q1022 NOSIG=
202112120430 METAR VIDP 120430Z 25005KT 2200 FU NSC 16/07 Q1022 NOSIG=
202112120500 METAR VIDP 120500Z 24005KT 2500 FU NSC 17/07 Q1022 NOSIG=
202112120530 METAR VIDP 120530Z 25005KT 2500 FU NSC 18/05 Q1022 NOSIG=
202112120600 METAR VIDP 120600Z 25005KT 2500 FU NSC 19/05 Q1021 NOSIG=
202112120630 METAR VIDP 120630Z 27005KT 2800 FU FEW100 19/05 Q1021 BECMG 3000 HZ=
202112120700 METAR VIDP 120700Z 26005KT 3000 HZ SCT100 19/06 Q1020 NOSIG=
202112120705 METAR VIDP NIL=
202112120730 METAR VIDP 120730Z 28003KT 3000 HZ SCT100 20/06 Q1020 NOSIG=
202112120800 METAR VIDP 120800Z 26003KT 3000 HZ SCT100 20/06 Q1019 NOSIG=
202112120830 METAR VIDP 120830Z 27004KT 3000 HZ FEW100 21/05 Q1019 NOSIG=
202112120900 METAR VIDP 120900Z 30003KT 3000 HZ FEW100 21/05 Q1018 NOSIG=
202112120930 METAR VIDP NIL=
202112121005 METAR VIDP NIL=
202112121030 METAR VIDP 121030Z 00000KT 3200 HZ SCT100 21/04 Q1018 BECMG 3000 HZ=
202112121100 METAR VIDP 121100Z 31003KT 3000 HZ SCT100 20/04 Q1018 NOSIG=
202112121105 METAR VIDP NIL=
202112121130 METAR VIDP 121130Z 28004KT 3000 HZ FEW100 20/04 Q1018 NOSIG=
202112121200 METAR VIDP 121200Z 28003KT 3000 HZ FEW100 19/06 Q1019 NOSIG=
202112121205 METAR VIDP NIL=
202112121230 METAR VIDP 121230Z 00000KT 3000 HZ FEW100 18/06 Q1018 NOSIG=
202112121300 METAR VIDP 121300Z 00000KT 3000 HZ FEW100 17/07 Q1019 NOSIG=
202112121330 METAR VIDP 121330Z 00000KT 3000 HZ FEW100 18/08 Q1019 NOSIG=
202112121400 METAR VIDP 121400Z 00000KT 3000 HZ FEW100 16/08 Q1019 NOSIG=
202112121430 METAR VIDP 121430Z 10003KT 3000 HZ FEW100 16/09 Q1019 NOSIG=
202112121500 METAR VIDP 121500Z 10003KT 3000 HZ FEW100 16/09 Q1019 NOSIG=
202112121530 METAR VIDP 121530Z 00000KT 3000 HZ FEW100 16/09 Q1020 NOSIG=
202112121600 METAR VIDP 121600Z 00000KT 3000 HZ FEW100 16/08 Q1019 NOSIG=
202112121630 METAR VIDP 121630Z 00000KT 3000 HZ FEW100 15/09 Q1020 NOSIG=
202112121700 METAR VIDP 121700Z 00000KT 3000 HZ FEW100 15/10 Q1020 NOSIG=
202112121730 METAR COR VIDP 121730Z 00000KT 3000 HZ FEW100 15/10 Q1019 NOSIG=
202112121800 METAR VIDP 121800Z 00000KT 3000 HZ FEW100 14/09 Q1019 NOSIG=
202112121830 METAR VIDP 121830Z 00000KT 3000 BR FEW100 14/10 Q1019 NOSIG=
202112121900 METAR VIDP 121900Z 00000KT 2800 BR FEW100 13/09 Q1019 NOSIG=
202112121930 METAR VIDP 121930Z 00000KT 2800 BR FEW100 13/09 Q1018 NOSIG=
202112122000 METAR VIDP 122000Z 00000KT 2800 BR FEW100 13/09 Q1018 NOSIG=
202112122030 METAR VIDP 122030Z 00000KT 2500 BR FEW100 13/09 Q1018 NOSIG=
202112122100 METAR VIDP 122100Z 00000KT 2500 BR FEW100 13/10 Q1018 NOSIG=
202112122130 METAR VIDP 122130Z 00000KT 2200 BR FEW100 12/10 Q1018 NOSIG=
202112122200 METAR VIDP 122200Z 00000KT 2200 BR FEW100 12/09 Q1018 NOSIG=
202112122230 METAR VIDP 122230Z 00000KT 2200 BR FEW100 13/10 Q1018 NOSIG=
202112122300 METAR VIDP 122300Z 00000KT 2200 BR FEW100 12/10 Q1018 NOSIG=
202112122330 METAR VIDP 122330Z 00000KT 2000 BR FEW100 11/10 Q1018 NOSIG=
202112130000 METAR VIDP 130000Z 00000KT 2000 BR FEW100 11/10 Q1018 NOSIG=
202112130030 METAR VIDP 130030Z 00000KT 1800 R28/2000 R29/2000 BR FEW100 11/11 Q1018 NOSIG=
202112130100 METAR COR VIDP 130100Z 00000KT 1600 R28/2000 R29/2000 BR FEW100 10/10 Q1019 BECMG 1500 BR=
202112130130 METAR VIDP 130130Z 00000KT 1200 R28/2000 R29/2000 BR FEW100 10/10 Q1019 NOSIG=
202112130200 METAR VIDP 130200Z 00000KT 1000 R28/2000 R29/1600 BR SCT100 11/10 Q1019 BECMG 0800 MIFG=
202112130230 METAR VIDP 130230Z 00000KT 1000 R28/2000 R29/1800 BR FEW100 11/10 Q1020 BECMG 0800 MIFG=
202112130300 METAR VIDP 130300Z 00000KT 0800 R28/2000 R29/1600 MIFG SCT100 11/09 Q1020 NOSIG=
202112130330 METAR VIDP 130330Z 00000KT 0900 R28/2000 R29/1500 MIFG SCT100 12/09 Q1020 NOSIG=
202112130400 METAR VIDP 130400Z 00000KT 1000 R28/2000 R29/1600 BR SCT100 14/10 Q1021 NOSIG=
202112130430 METAR VIDP 130430Z 00000KT 1200 R28/2000 R29/2000 FU SCT100 16/09 Q1021 BECMG 1500 FU=
202112130500 METAR VIDP 130500Z 00000KT 1500 R28/2000 R29/2000 FU SCT100 18/08 Q1021 NOSIG=
202112130530 METAR VIDP 130530Z 16004KT 2100 FU SCT100 20/07 Q1021 NOSIG=
202112130600 METAR VIDP 130600Z 15005KT 2200 FU FEW100 21/07 Q1020 NOSIG=
202112130630 METAR VIDP 130630Z 12004KT 2200 FU FEW100 21/07 Q1020 NOSIG=
202112130700 METAR COR VIDP 130700Z 13005KT 2200 FU SCT100 20/06 Q1019 NOSIG=
202112130705 METAR VIDP NIL=
202112130730 METAR VIDP 130730Z 11005KT 2200 FU SCT100 20/05 Q1019 NOSIG=
202112130800 METAR VIDP 130800Z 15005KT 2200 FU SCT100 21/05 Q1019 NOSIG=
202112130830 METAR VIDP 130830Z 14005KT 2500 FU SCT100 20/04 Q1018 BECMG 3000 HZ=
202112130900 METAR VIDP 130900Z 14007KT 3000 HZ SCT100 20/04 Q1018 NOSIG=
202112130930 METAR VIDP 130930Z 10004KT 3000 HZ FEW100 21/04 Q1017 NOSIG=
202112131000 METAR VIDP 131000Z 12004KT 3000 HZ FEW100 21/05 Q1017 NOSIG=
202112131030 METAR VIDP 131030Z 10005KT 3000 HZ FEW040 SCT100 20/05 Q1017 NOSIG=
202112131100 METAR VIDP 131100Z 11005KT 3000 HZ FEW040 SCT100 19/07 Q1017 NOSIG=
202112131130 METAR VIDP 131130Z 10003KT 3000 HZ FEW040 SCT100 18/07 Q1017 NOSIG=
202112131200 METAR VIDP 131200Z 00000KT 3000 HZ FEW040 SCT100 18/08 Q1016 NOSIG=
202112131230 METAR VIDP 131230Z 00000KT 3000 HZ FEW040 SCT100 17/09 Q1016 NOSIG=
202112131300 METAR VIDP 131300Z 00000KT 3000 HZ FEW040 SCT100 16/10 Q1017 NOSIG=
202112131330 METAR VIDP 131330Z 00000KT 3000 HZ FEW040 SCT100 16/11 Q1017 NOSIG=
202112131400 METAR VIDP 131400Z 00000KT 3000 HZ FEW040 SCT100 16/11 Q1017 NOSIG=
202112131430 METAR VIDP 131430Z 00000KT 3000 BR FEW040 SCT100 15/11 Q1017 NOSIG=
202112131500 METAR VIDP 131500Z 00000KT 2500 BR FEW040 SCT100 15/11 Q1017 NOSIG=
202112131530 METAR VIDP 131530Z 00000KT 2500 BR FEW040 SCT100 14/11 Q1018 NOSIG=
202112131600 METAR VIDP 131600Z 00000KT 2500 BR FEW040 SCT100 14/11 Q1017 NOSIG=
202112131630 METAR VIDP 131630Z 00000KT 2500 BR FEW040 SCT100 14/11 Q1017 NOSIG=
202112131700 METAR VIDP 131700Z 00000KT 2500 BR FEW040 SCT100 13/11 Q1017 NOSIG=
202112131730 METAR VIDP 131730Z 00000KT 2500 BR FEW040 SCT100 13/11 Q1017 NOSIG=
202112131800 METAR VIDP 131800Z 00000KT 2200 BR NSC 13/11 Q1017 NOSIG=
202112131830 METAR VIDP 131830Z 00000KT 2200 BR NSC 13/11 Q1017 NOSIG=
202112131900 METAR VIDP 131900Z 00000KT 2200 BR NSC 13/11 Q1017 NOSIG=
202112131930 METAR VIDP 131930Z 00000KT 2200 BR NSC 13/11 Q1017 NOSIG=
202112132000 METAR VIDP 132000Z 00000KT 2200 BR NSC 13/11 Q1017 NOSIG=
202112132030 METAR VIDP 132030Z 00000KT 2200 BR NSC 13/11 Q1017 NOSIG=
202112132100 METAR VIDP 132100Z 00000KT 2200 BR NSC 12/11 Q1016 NOSIG=
202112132130 METAR VIDP 132130Z 00000KT 2200 BR NSC 12/11 Q1016 NOSIG=
202112132200 METAR COR VIDP 132200Z 00000KT 2200 BR NSC 12/11 Q1016 NOSIG=
202112132205 METAR VIDP NIL=
202112132230 METAR VIDP 132230Z 00000KT 2200 BR NSC 12/11 Q1016 NOSIG=
202112132300 METAR VIDP 132300Z 00000KT 1800 R28/P2000 R29/P2000 BR NSC 12/11 Q1016 BECMG 1500 BR=
202112132330 METAR VIDP 132330Z 00000KT 1800 R28/P2000 R29/P2000 BR NSC 12/11 Q1016 NOSIG=
202112140000 METAR VIDP 140000Z 00000KT 1600 R28/P2000 R29/P2000 BR NSC 12/11 Q1016 BECMG 1500 BR=
202112140005 METAR VIDP NIL=
202112140030 METAR VIDP 140030Z 00000KT 1000 R28/2000 R29/2000 BR NSC 11/10 Q1017 TEMPO 0800 MIFG=
202112140100 METAR VIDP 140100Z 00000KT 1000 R28/2000 R29/2000 BR NSC 11/10 Q1017 TEMPO 0800 MIFG=
202112140105 METAR VIDP NIL=
202112140130 METAR VIDP 140130Z 00000KT 0700 R28/2000 R29/1700 MIFG NSC 10/10 Q1017 BECMG 0600 MIFG=
202112140200 METAR VIDP 140200Z 00000KT 0600 R28/2000 R29/1400 MIFG NSC 10/10 Q1018 NOSIG=
202112140205 METAR VIDP NIL=
202112140230 METAR VIDP 140230Z 00000KT 0600 R28/1500 R29/1200 MIFG FEW100 11/10 Q1018 BECMG 0800 MIFG=
202112140300 METAR VIDP 140300Z 00000KT 0800 R28/P2000 R29/1200 MIFG FEW100 12/10 Q1018 NOSIG=
202112140305 METAR VIDP NIL=
202112140330 METAR VIDP 140330Z 08004KT 1000 R28/P2000 R29/1900 BR FEW100 13/11 Q1019 NOSIG=
202112140400 METAR VIDP 140400Z 10004KT 1000 R28/P2000 R29/1800 BR FEW100 14/11 Q1019 NOSIG=
202112140405 METAR VIDP NIL=
202112140430 METAR VIDP 140430Z 10004KT 1300 R28/P2000 R29/P2000 BR FEW100 16/12 Q1019 BECMG 1500 FU=
202112140500 METAR VIDP 140500Z 11005KT 1400 R28/P2000 R29/P2000 FU NSC 17/12 Q1020 BECMG 1500 FU=
202112140505 METAR VIDP NIL=
202112140530 METAR VIDP 140530Z 12006KT 1500 R28/P2000 R29/P2000 FU NSC 18/12 Q1019 NOSIG=
202112140600 METAR VIDP 140600Z 11005KT 1600 R28/P2000 R29/P2000 FU NSC 19/12 Q1019 NOSIG=
202112140630 METAR VIDP 140630Z 10005KT 1800 R28/P2000 R29/P2000 FU NSC 20/11 Q1019 NOSIG=
202112140700 METAR VIDP 140700Z 06005KT 1800 R28/P2000 R29/P2000 FU NSC 20/09 Q1018 NOSIG=
202112140705 METAR VIDP NIL=
202112140730 METAR VIDP 140730Z 07005KT 2200 FU NSC 20/08 Q1017 NOSIG=
202112140800 METAR VIDP 140800Z 09005KT 2500 FU NSC 20/06 Q1017 NOSIG=
202112140830 METAR VIDP NIL=
202112140905 METAR VIDP NIL=
202112140930 METAR VIDP 140930Z 11004KT 1800 R28/2000 R29/2000 FU NSC 21/06 Q1017 NOSIG=
202112141000 METAR VIDP 141000Z 12005KT 2000 FU NSC 21/07 Q1017 NOSIG=
202112141005 METAR VIDP NIL=
202112141030 METAR VIDP 141030Z 12006KT 2200 FU NSC 20/07 Q1016 NOSIG=
202112141100 METAR VIDP 141100Z 13005KT 2200 FU NSC 20/08 Q1016 NOSIG=
202112141130 METAR COR VIDP 141130Z 11003KT 2200 FU NSC 19/08 Q1016 NOSIG=
202112141200 METAR VIDP 141200Z 14003KT 2200 FU NSC 18/09 Q1016 NOSIG=
202112141230 METAR VIDP 141230Z 14003KT 2200 FU NSC 17/10 Q1017 NOSIG=
202112141300 METAR VIDP 141300Z 00000KT 2200 FU NSC 17/11 Q1017 NOSIG=
202112141330 METAR VIDP 141330Z 00000KT 2200 BR NSC 16/12 Q1017 NOSIG=
202112141400 METAR VIDP 141400Z 00000KT 2200 BR NSC 16/13 Q1018 NOSIG=
202112141430 METAR VIDP 141430Z 00000KT 2200 BR NSC 15/13 Q1018 NOSIG=
202112141500 METAR VIDP 141500Z 00000KT 2200 BR NSC 15/13 Q1018 NOSIG=
202112141530 METAR VIDP 141530Z 00000KT 2200 BR NSC 15/13 Q1018 NOSIG=
202112141600 METAR VIDP 141600Z 00000KT 2200 BR NSC 15/13 Q1018 NOSIG=
202112141630 METAR VIDP 141630Z 00000KT 2200 BR NSC 15/13 Q1019 NOSIG=
202112141700 METAR VIDP 141700Z 00000KT 2200 BR NSC 15/13 Q1019 NOSIG=
202112141730 METAR VIDP 141730Z 00000KT 2200 BR NSC 15/14 Q1019 NOSIG=
202112141800 METAR VIDP 141800Z 00000KT 2200 BR NSC 14/14 Q1019 NOSIG=
202112141830 METAR VIDP 141830Z 00000KT 2200 BR NSC 14/13 Q1019 NOSIG=
202112141900 METAR VIDP 141900Z 00000KT 2100 BR NSC 13/13 Q1019 NOSIG=
202112141930 METAR VIDP 141930Z 00000KT 2100 BR NSC 13/13 Q1019 NOSIG=
202112142000 METAR VIDP 142000Z 00000KT 2100 BR NSC 14/14 Q1018 NOSIG=
202112142030 METAR VIDP 142030Z 00000KT 1800 R28/P2000 R29/P2000 FU NSC 13/13 Q1018 BECMG 1500 BR=
202112142100 METAR VIDP 142100Z 00000KT 1500 R28/P2000 R29/P2000 BR NSC 13/13 Q1018 NOSIG=
202112142130 METAR VIDP 142130Z 00000KT 1500 R28/P2000 R29/P2000 BR NSC 13/13 Q1018 NOSIG=
202112142200 METAR VIDP 142200Z 00000KT 1200 R28/P2000 R29/P2000 BR NSC 13/13 Q1018 NOSIG=
202112142230 METAR VIDP 142230Z 00000KT 1200 R28/P2000 R29/P2000 BR NSC 13/13 Q1018 NOSIG=
202112142300 METAR VIDP 142300Z 00000KT 1200 R28/P2000 R29/P2000 BR NSC 13/12 Q1018 NOSIG=
202112142330 METAR VIDP 142330Z 00000KT 1200 R28/P2000 R29/P2000 BR NSC 13/12 Q1018 NOSIG=
202112150000 METAR VIDP 150000Z 00000KT 1200 R28/P2000 R29/P2000 BR NSC 13/12 Q1018 NOSIG=
202112150030 METAR VIDP 150030Z 00000KT 1200 R28/P2000 R29/P2000 BR NSC 12/11 Q1018 NOSIG=
202112150100 METAR VIDP 150100Z 00000KT 1000 R28/P2000 R29/P2000 BR NSC 12/11 Q1019 NOSIG=
202112150130 METAR VIDP 150130Z 00000KT 1000 R28/P2000 R29/P2000 BR NSC 11/09 Q1019 BECMG 0800 MIFG=
202112150200 METAR VIDP 150200Z 00000KT 0800 R28/2000 R29/2000 MIFG NSC 11/09 Q1019 NOSIG=
202112150230 METAR VIDP 150230Z 00000KT 0700 R28/2000 R29/1900 MIFG NSC 13/12 Q1019 BECMG 0600 MIFG=
202112150300 METAR VIDP 150300Z 00000KT 0600 R28/2000 R29/1700 MIFG NSC 13/12 Q1020 NOSIG=
202112150330 METAR VIDP 150330Z 28003KT 0600 R28/2000 R29/2000 MIFG NSC 14/12 Q1020 NOSIG=
202112150400 METAR VIDP 150400Z 29006KT 0600 R28/2000 R29/2000 MIFG NSC 15/12 Q1020 BECMG 0800 MIFG=
202112150430 METAR VIDP 150430Z 00000KT 0800 R28/2000 R29/2000 MIFG NSC 16/12 Q1021 NOSIG=
202112150500 METAR VIDP 150500Z 34005KT 1100 R28/2000 R29/2000 FU NSC 17/11 Q1021 NOSIG=
202112150530 METAR VIDP 150530Z 35005KT 1300 R28/2000 R29/2000 FU NSC 18/10 Q1020 BECMG 1500 FU=
202112150600 METAR VIDP 150600Z 35006KT 1500 R28/2000 R29/2000 FU NSC 18/10 Q1020 NOSIG=
202112150630 METAR VIDP 150630Z 34006KT 1500 R28/2000 R29/2000 FU NSC 19/10 Q1020 NOSIG=
202112150700 METAR VIDP 150700Z 30006KT 1500 R28/2000 R29/2000 FU NSC 19/09 Q1019 NOSIG=
202112150730 METAR VIDP 150730Z 31008KT 1500 R28/2000 R29/2000 FU NSC 18/09 Q1019 NOSIG=
202112150800 METAR VIDP 150800Z 32009KT 1500 R28/2000 R29/2000 FU NSC 20/08 Q1018 NOSIG=
202112150830 METAR VIDP 150830Z 32007KT 2200 FU NSC 20/08 Q1018 NOSIG=
202112150900 METAR VIDP 150900Z 32007KT 2200 FU NSC 20/08 Q1017 NOSIG=
202112150930 METAR VIDP 150930Z 31006KT 2200 FU NSC 21/08 Q1017 NOSIG=
202112151000 METAR VIDP 151000Z 31005KT 2200 FU NSC 21/08 Q1016 NOSIG=
202112151030 METAR VIDP 151030Z 31005KT 2200 FU NSC 21/08 Q1016 NOSIG=
202112151100 METAR VIDP 151100Z 32004KT 2200 FU NSC 20/08 Q1016 NOSIG=
202112151130 METAR VIDP 151130Z 32003KT 2200 FU NSC 19/08 Q1016 NOSIG=
202112151200 METAR VIDP 151200Z 32003KT 2200 FU NSC 19/08 Q1016 NOSIG=
202112151230 METAR VIDP 151230Z 33003KT 2200 FU NSC 18/08 Q1016 NOSIG=
202112151300 METAR VIDP 151300Z 32003KT 2200 FU NSC 17/08 Q1016 NOSIG=
202112151330 METAR VIDP 151330Z 32003KT 2200 FU NSC 16/08 Q1016 NOSIG=
202112151400 METAR VIDP 151400Z 00000KT 2200 FU NSC 16/09 Q1017 NOSIG=
202112151430 METAR VIDP 151430Z 00000KT 2200 FU NSC 15/09 Q1017 NOSIG=
202112151500 METAR VIDP 151500Z 00000KT 2200 FU NSC 15/10 Q1017 NOSIG=
202112151530 METAR VIDP 151530Z 00000KT 2200 HZ NSC 15/10 Q1017 NOSIG=
202112151600 METAR VIDP 151600Z 00000KT 2200 HZ NSC 15/10 Q1017 NOSIG=
202112151630 METAR VIDP 151630Z 00000KT 2200 BR NSC 14/10 Q1018 NOSIG=
202112151700 METAR VIDP 151700Z 00000KT 2200 BR NSC 14/10 Q1018 NOSIG=
202112151730 METAR VIDP 151730Z 00000KT 2200 BR NSC 14/10 Q1018 NOSIG=
202112151800 METAR VIDP 151800Z 00000KT 2200 BR NSC 13/10 Q1018 NOSIG=
202112151830 METAR VIDP 151830Z 00000KT 2200 BR NSC 13/10 Q1018 NOSIG=
202112151900 METAR VIDP 151900Z 00000KT 2200 BR NSC 13/10 Q1018 NOSIG=
202112151930 METAR VIDP 151930Z 00000KT 2000 R28/P2000 R29/P2000 BR NSC 13/10 Q1018 NOSIG=
202112152000 METAR VIDP 152000Z 00000KT 1800 R28/P2000 R29/P2000 BR NSC 12/09 Q1018 NOSIG=
202112152030 METAR VIDP 152030Z 00000KT 1800 R28/P2000 R29/P2000 BR NSC 12/09 Q1018 NOSIG=
202112152100 METAR VIDP 152100Z 00000KT 1600 R28/P2000 R29/P2000 BR NSC 12/09 Q1017 BECMG 1500 BR=
202112152130 METAR VIDP 152130Z 00000KT 1500 R28/P2000 R29/P2000 BR NSC 12/09 Q1017 NOSIG=
202112152200 METAR VIDP 152200Z 00000KT 1500 R28/P2000 R29/P2000 BR NSC 12/09 Q1017 NOSIG=
202112152230 METAR VIDP 152230Z 00000KT 1500 R28/P2000 R29/P2000 BR NSC 12/09 Q1017 NOSIG=
202112152300 METAR VIDP 152300Z 00000KT 1500 R28/P2000 R29/P2000 BR NSC 12/09 Q1017 NOSIG=
202112152305 METAR VIDP NIL=
202112152330 METAR VIDP 152330Z 00000KT 1500 R28/P2000 R29/P2000 BR NSC 12/09 Q1018 NOSIG=
202112160000 METAR VIDP 160000Z 00000KT 1500 R28/P2000 R29/P2000 BR NSC 12/09 Q1018 NOSIG=
202112160030 METAR VIDP 160030Z 00000KT 1500 R28/P2000 R29/P2000 BR NSC 12/10 Q1018 NOSIG=
202112160100 METAR VIDP 160100Z 00000KT 1500 R28/P2000 R29/P2000 BR NSC 12/10 Q1018 NOSIG=
202112160130 METAR COR VIDP 160130Z 00000KT 1200 R28/2000 R29/2000 BR NSC 12/10 Q1019 NOSIG=
202112160200 METAR VIDP 160200Z 00000KT 1000 R28/2000 R29/2000 BR NSC 12/10 Q1019 NOSIG=
202112160230 METAR VIDP 160230Z 00000KT 0900 R28/P2000 R29/1300 BR SCT100 12/11 Q1019 TEMPO 0800 MIFG=
202112160300 METAR VIDP 160300Z 20004KT 0900 R28/P2000 R29/1500 BR SCT100 13/11 Q1020 NOSIG=
202112160330 METAR VIDP 160330Z 30003KT 1000 R28/P2000 R29/1400 BR SCT100 13/11 Q1020 NOSIG=
202112160400 METAR VIDP 160400Z 04005KT 1100 R28/P2000 R29/1400 BR SCT100 14/11 Q1020 NOSIG=
202112160430 METAR VIDP 160430Z 06005KT 1100 R28/P2000 R29/1400 BR SCT100 15/11 Q1021 NOSIG=
202112160500 METAR VIDP 160500Z 03004KT 1200 R28/P2000 R29/P2000 FU SCT100 16/11 Q1021 NOSIG=
202112160530 METAR VIDP 160530Z 04004KT 1200 R28/P2000 R29/P2000 FU SCT100 17/10 Q1020 NOSIG=
202112160600 METAR VIDP 160600Z 05005KT 1300 R28/P2000 R29/1800 FU SCT100 17/10 Q1020 NOSIG=
202112160630 METAR VIDP 160630Z 05003KT 1300 R28/P2000 R29/1800 FU SCT100 18/08 Q1020 NOSIG=
202112160700 METAR VIDP 160700Z 03004KT 1400 R28/P2000 R29/P2000 FU SCT100 19/08 Q1019 BECMG 1500 FU=
202112160730 METAR VIDP 160730Z 03003KT 1600 R28/P2000 R29/P2000 FU SCT100 19/08 Q1019 NOSIG=
202112160800 METAR VIDP 160800Z 04005KT 1600 R28/P2000 R29/P2000 FU SCT100 19/07 Q1019 NOSIG=
202112160830 METAR VIDP 160830Z 02006KT 1600 R28/P2000 R29/1800 FU FEW040 SCT100 19/07 Q1018 BECMG 1500 FU=
202112160900 METAR VIDP 160900Z 03006KT 1600 R28/P2000 R29/P2000 FU FEW040 SCT100 19/06 Q1018 NOSIG=
202112160930 METAR VIDP 160930Z 02006KT 1800 R28/P2000 R29/P2000 FU FEW040 SCT100 19/06 Q1018 NOSIG=
202112161000 METAR VIDP 161000Z 02007KT 2200 FU FEW040 SCT100 19/06 Q1018 NOSIG=
202112161030 METAR VIDP 161030Z 01006KT 2200 FU FEW035 SCT100 18/06 Q1018 NOSIG=
202112161100 METAR VIDP 161100Z 34007KT 2500 HZ FEW035 SCT100 18/05 Q1018 NOSIG=
202112161130 METAR VIDP 161130Z 31007KT 2500 HZ FEW035 SCT100 17/05 Q1018 NOSIG=
202112161200 METAR VIDP 161200Z 29007KT 2500 HZ FEW035 SCT100 17/06 Q1018 NOSIG=
202112161230 METAR VIDP 161230Z 30005KT 2500 HZ FEW035 SCT100 17/06 Q1018 NOSIG=
202112161300 METAR VIDP 161300Z 32005KT 2500 HZ FEW035 SCT100 16/07 Q1019 NOSIG=
202112161330 METAR VIDP 161330Z 32005KT 2500 HZ FEW035 SCT100 15/08 Q1019 NOSIG=
202112161400 METAR VIDP 161400Z 32004KT 2500 HZ FEW035 SCT100 15/08 Q1019 NOSIG=
202112161430 METAR VIDP 161430Z 32004KT 2500 HZ FEW035 SCT100 15/10 Q1020 NOSIG=
202112161500 METAR VIDP 161500Z 29004KT 2500 BR SCT035 BKN100 15/11 Q1020 NOSIG=
202112161530 METAR VIDP 161530Z 30005KT 2200 BR SCT035 BKN100 15/11 Q1020 NOSIG=
202112161600 METAR VIDP 161600Z 31005KT 2200 BR SCT035 BKN100 15/11 Q1020 NOSIG=
202112161630 METAR VIDP 161630Z 32004KT 2200 BR SCT035 BKN100 15/11 Q1021 NOSIG=
202112161700 METAR VIDP 161700Z 30004KT 2200 BR SCT035 BKN100 14/10 Q1021 NOSIG=
202112161730 METAR VIDP 161730Z 32004KT 2200 BR SCT035 BKN100 14/10 Q1020 NOSIG=
202112161800 METAR VIDP 161800Z 31004KT 2200 BR SCT035 BKN100 14/10 Q1020 NOSIG=
202112161830 METAR VIDP 161830Z 31005KT 2200 BR SCT035 BKN100 14/10 Q1020 NOSIG=
202112161900 METAR VIDP 161900Z 32005KT 2200 BR SCT035 BKN100 13/10 Q1020 NOSIG=
202112161930 METAR VIDP 161930Z 31005KT 2200 BR SCT035 BKN100 13/10 Q1020 NOSIG=
202112162000 METAR VIDP 162000Z 30004KT 1800 R28/2000 R29/2000 BR SCT035 BKN100 13/10 Q1020 NOSIG=
202112162030 METAR VIDP 162030Z 31003KT 1800 R28/2000 R29/2000 BR SCT035 BKN100 13/10 Q1020 NOSIG=
202112162100 METAR COR VIDP 162100Z 27004KT 1800 R28/2000 R29/2000 BR SCT035 BKN100 13/10 Q1020 NOSIG=
202112162130 METAR VIDP 162130Z 28005KT 1800 R28/2000 R29/2000 BR SCT035 BKN100 13/10 Q1020 NOSIG=
202112162200 METAR VIDP 162200Z 30005KT 1800 R28/2000 R29/2000 BR SCT035 BKN100 12/08 Q1020 NOSIG=
202112162230 METAR VIDP 162230Z 30004KT 1800 R28/2000 R29/2000 BR SCT035 BKN100 11/08 Q1020 NOSIG=
202112162300 METAR VIDP 162300Z 27005KT 1800 R28/2000 R29/2000 BR SCT035 BKN100 11/08 Q1020 NOSIG=
202112162330 METAR VIDP 162330Z 28005KT 1600 R28/2000 R29/2000 BR SCT035 BKN100 11/08 Q1020 NOSIG=
202112170000 METAR VIDP 170000Z 27005KT 1600 R28/2000 R29/2000 BR NSC 11/07 Q1020 NOSIG=
202112170030 METAR VIDP 170030Z 27004KT 1600 R28/2000 R29/2000 BR FEW035 SCT100 11/08 Q1020 BECMG 1500 BR=
202112170100 METAR VIDP 170100Z 29005KT 1500 R28/2000 R29/2000 BR FEW035 SCT100 10/08 Q1020 NOSIG=
202112170130 METAR VIDP 170130Z 27005KT 1000 R28/2000 R29/2000 MIFG FEW035 SCT100 10/08 Q1020 BECMG 0800 MIFG=
202112170200 METAR VIDP 170200Z 25005KT 0700 R28/2000 R29/1500 MIFG FEW035 SCT100 10/08 Q1021 BECMG 0600 MIFG=
202112170230 METAR VIDP 170230Z 26004KT 0700 R28/2000 R29/1200 MIFG SCT100 11/09 Q1021 BECMG 0600 MIFG=
202112170300 METAR VIDP 170300Z 28004KT 0600 R28/2000 R29/1300 MIFG FEW100 12/09 Q1022 NOSIG=
202112170330 METAR VIDP 170330Z 26004KT 0700 R28/2000 R29/1400 MIFG NSC 12/09 Q1022 BECMG 0800 MIFG=
202112170400 METAR VIDP 170400Z 28005KT 0800 R28/2000 R29/1700 MIFG NSC 12/09 Q1023 NOSIG=
202112170430 METAR VIDP 170430Z 28005KT 1000 R28/2000 R29/2000 BR NSC 13/08 Q1023 NOSIG=
202112170500 METAR VIDP 170500Z 29006KT 1200 R28/P2000 R29/P2000 FU NSC 14/08 Q1023 BECMG 1500 FU=
202112170530 METAR VIDP 170530Z 29008KT 1500 R28/P2000 R29/P2000 FU NSC 14/08 Q1023 NOSIG=
202112170600 METAR VIDP 170600Z 29008KT 1800 R28/P2000 R29/P2000 FU NSC 15/08 Q1023 NOSIG=
202112170630 METAR VIDP 170630Z 30008KT 2200 HZ NSC 16/08 Q1022 NOSIG=
202112170700 METAR VIDP 170700Z 30008KT 2200 HZ NSC 17/08 Q1021 NOSIG=
202112170730 METAR VIDP 170730Z 30010KT 2200 HZ NSC 18/08 Q1021 NOSIG=
202112170800 METAR VIDP 170800Z 31009KT 2500 HZ NSC 18/07 Q1020 NOSIG=
202112170830 METAR VIDP 170830Z 31008KT 2500 HZ NSC 19/07 Q1020 NOSIG=
202112170900 METAR VIDP 170900Z 32010KT 2800 HZ NSC 19/07 Q1020 NOSIG=
202112170930 METAR VIDP 170930Z 31011KT 2800 HZ NSC 19/08 Q1020 NOSIG=
202112171000 METAR VIDP 171000Z 30009KT 2800 HZ NSC 19/08 Q1019 NOSIG=
202112171030 METAR VIDP 171030Z 29010KT 2800 HZ NSC 19/08 Q1019 NOSIG=
202112171100 METAR VIDP 171100Z 29009KT 2800 HZ NSC 19/08 Q1019 NOSIG=
202112171130 METAR VIDP 171130Z 31008KT 2800 HZ NSC 17/07 Q1019 NOSIG=
202112171200 METAR VIDP 171200Z 29008KT 2500 HZ NSC 16/06 Q1019 NOSIG=
202112171230 METAR VIDP 171230Z 30006KT 2500 HZ NSC 15/06 Q1020 NOSIG=
202112171300 METAR VIDP 171300Z 29005KT 2500 HZ NSC 15/06 Q1020 NOSIG=
202112171305 METAR VIDP NIL=
202112171330 METAR VIDP 171330Z 28006KT 2500 HZ NSC 14/06 Q1020 NOSIG=
202112171400 METAR VIDP 171400Z 27006KT 2500 HZ NSC 13/07 Q1020 NOSIG=
202112171430 METAR VIDP 171430Z 26006KT 2500 HZ NSC 13/08 Q1020 NOSIG=
202112171500 METAR VIDP 171500Z 26006KT 2500 HZ NSC 13/08 Q1020 NOSIG=
202112171530 METAR VIDP 171530Z 27005KT 2200 BR NSC 12/08 Q1021 NOSIG=
202112171600 METAR VIDP 171600Z 26005KT 2200 BR NSC 12/08 Q1021 NOSIG=
202112171630 METAR VIDP 171630Z 26006KT 2200 BR NSC 12/09 Q1021 NOSIG=
202112171700 METAR VIDP 171700Z 31006KT 2200 BR NSC 12/09 Q1021 NOSIG=
202112171730 METAR VIDP 171730Z 26006KT 1800 R28/P2000 R29/P2000 BR NSC 12/09 Q1021 NOSIG=
202112171800 METAR VIDP 171800Z 27005KT 1600 R28/2000 R29/2000 BR NSC 11/10 Q1021 BECMG 1500 BR=
202112171805 METAR VIDP NIL=
202112171830 METAR VIDP 171830Z 27005KT 1000 R28/2000 R29/1900 BR NSC 10/09 Q1020 TEMPO 0800 MIFG=
202112171900 METAR VIDP 171900Z 28005KT 0800 R28/2000 R29/1700 MIFG NSC 10/09 Q1020 TEMPO 0600 MIFG=
202112171930 METAR VIDP 171930Z 26005KT 0800 R28/2000 R29/1800 MIFG NSC 09/08 Q1020 NOSIG=
202112172000 METAR VIDP 172000Z 26006KT 0700 R28/2000 R29/1400 MIFG NSC 09/09 Q1020 TEMPO 0600 MIFG=
202112172030 METAR VIDP 172030Z 26006KT 0400 R28/2000 R29/1400 FG NSC 09/09 Q1020 TEMPO 0350 FG=
202112172100 METAR VIDP 172100Z 27008KT 0300 R28/1800 R29/0500 FG NSC 09/09 Q1020 TEMPO 0150 FG=
202112172130 METAR VIDP 172130Z 26006KT 0200 R28/2000 R29/0500 FG NSC 09/09 Q1020 TEMPO 0150 FG=
202112172200 METAR VIDP 172200Z 26006KT 0200 R28/2000 R29/0500 FG NSC 09/09 Q1020 TEMPO 0150 FG=
202112172230 METAR VIDP 172230Z 27006KT 0300 R28/2000 R29/1500 FG NSC 09/09 Q1020 BECMG 0350 FG=
202112172300 METAR VIDP 172300Z 26007KT 0500 R28/2000 R29/1700 FG NSC 09/09 Q1020 NOSIG=
202112172330 METAR VIDP 172330Z 27007KT 0500 R28/2000 R29/1700 FG NSC 09/09 Q1020 NOSIG=
202112180000 METAR VIDP 180000Z 26008KT 0500 R28/2000 R29/1600 FG NSC 09/08 Q1020 NOSIG=
202112180005 METAR VIDP NIL=
202112180030 METAR VIDP 180030Z 26007KT 0500 R28/2000 R29/2000 FG NSC 08/08 Q1020 NOSIG=
202112180100 METAR VIDP 180100Z 27008KT 0500 R28/2000 R29/2000 FG NSC 08/08 Q1020 NOSIG=
202112180130 METAR VIDP 180130Z 26008KT 0500 R28/2000 R29/1200 FG NSC 07/07 Q1021 NOSIG=
202112180200 METAR VIDP 180200Z 27007KT 0500 R28/0800 R29/1100 FG NSC 07/07 Q1021 NOSIG=
202112180230 METAR VIDP 180230Z 26008KT 0500 R28/0600 R29/1200 FG NSC 07/07 Q1022 NOSIG=
202112180300 METAR VIDP 180300Z 27008KT 0500 R28/0600 R29/1000 FG NSC 07/06 Q1022 BECMG 0600 MIFG=
202112180330 METAR VIDP 180330Z 25009KT 0600 R28/0600 R29/1200 MIFG NSC 07/06 Q1022 NOSIG=
202112180400 METAR VIDP 180400Z 26008KT 0600 R28/0600 R29/1100 MIFG NSC 07/06 Q1023 NOSIG=
202112180430 METAR VIDP 180430Z 26007KT 0600 R28/0600 R29/1300 MIFG NSC 08/07 Q1023 NOSIG=
202112180500 METAR VIDP 180500Z 26007KT 1000 R28/P2000 R29/1500 BR NSC 09/07 Q1023 NOSIG=
202112180530 METAR VIDP 180530Z 26008KT 1200 R28/P2000 R29/1500 BR NSC 10/08 Q1023 BECMG 1500 FU=
202112180600 METAR VIDP 180600Z 27007KT 1300 R28/P2000 R29/1700 BR NSC 11/08 Q1022 BECMG 1500 FU=
202112180630 METAR VIDP 180630Z 26007KT 1500 R28/P2000 R29/1900 FU NSC 12/07 Q1022 NOSIG=
202112180700 METAR VIDP 180700Z 27008KT 1600 R28/P2000 R29/1700 FU NSC 14/07 Q1021 NOSIG=
202112180730 METAR VIDP 180730Z 27009KT 1600 R28/P2000 R29/1800 FU NSC 15/07 Q1021 NOSIG=
202112180800 METAR VIDP 180800Z 28010KT 1600 R28/P2000 R29/1800 FU NSC 15/07 Q1020 NOSIG=
202112180830 METAR VIDP 180830Z 28010KT 1600 R28/2000 R29/1700 FU NSC 15/04 Q1020 NOSIG=
202112180900 METAR VIDP 180900Z 29012KT 1600 R28/2000 R29/1700 FU NSC 16/03 Q1020 NOSIG=
202112180930 METAR VIDP 180930Z 28015G25KT 1600 R28/2000 R29/1700 FU NSC 17/02 Q1019 NOSIG=
202112181000 METAR VIDP 181000Z 28015G25KT 1600 R28/2000 R29/1700 FU NSC 17/02 Q1019 NOSIG=
202112181030 METAR VIDP 181030Z 28008G18KT 2000 HZ NSC 16/01 Q1019 NOSIG=
202112181100 METAR VIDP 181100Z 28010KT 2200 HZ NSC 16/00 Q1019 NOSIG=
202112181130 METAR VIDP 181130Z 28010KT 2200 HZ NSC 16/00 Q1019 NOSIG=
202112181200 METAR VIDP 181200Z 27007KT 2200 HZ NSC 15/00 Q1019 NOSIG=
202112181230 METAR VIDP 181230Z 27006KT 2500 HZ NSC 13/01 Q1019 BECMG 3000 HZ=
202112181300 METAR VIDP 181300Z 27006KT 3000 HZ NSC 13/02 Q1019 NOSIG=
202112181330 METAR VIDP 181330Z 27006KT 3000 HZ NSC 12/03 Q1019 NOSIG=
202112181400 METAR VIDP 181400Z 26006KT 3000 HZ NSC 12/04 Q1019 NOSIG=
202112181430 METAR VIDP 181430Z 25005KT 3000 HZ NSC 12/05 Q1020 NOSIG=
202112181500 METAR VIDP 181500Z 25003KT 3000 HZ NSC 12/05 Q1020 NOSIG=
202112181530 METAR VIDP 181530Z 25004KT 3000 HZ NSC 12/05 Q1020 NOSIG=
202112181600 METAR VIDP 181600Z 25004KT 3000 HZ NSC 11/05 Q1020 NOSIG=
202112181630 METAR VIDP 181630Z 24004KT 3000 HZ NSC 10/06 Q1020 NOSIG=
202112181700 METAR VIDP 181700Z 25004KT 3000 BR NSC 09/06 Q1020 NOSIG=
202112181730 METAR VIDP 181730Z 26004KT 3000 BR NSC 09/07 Q1020 NOSIG=
202112181800 METAR VIDP 181800Z 27004KT 2800 BR NSC 09/06 Q1020 NOSIG=
202112181830 METAR VIDP 181830Z 27004KT 2800 BR NSC 08/05 Q1020 NOSIG=
202112181900 METAR VIDP 181900Z 26005KT 2600 BR NSC 08/05 Q1020 NOSIG=
202112181930 METAR VIDP 181930Z 26005KT 2500 BR NSC 08/05 Q1019 NOSIG=
202112182000 METAR VIDP 182000Z 26004KT 2500 BR NSC 07/05 Q1019 NOSIG=
202112182030 METAR VIDP 182030Z 25004KT 2300 BR NSC 07/05 Q1019 NOSIG=
202112182100 METAR VIDP 182100Z 27004KT 2300 BR NSC 07/05 Q1019 NOSIG=
202112182130 METAR VIDP 182130Z 26005KT 2100 BR NSC 07/05 Q1019 NOSIG=
202112182200 METAR VIDP 182200Z 25004KT 2100 BR NSC 07/05 Q1019 NOSIG=
202112182230 METAR VIDP 182230Z 26005KT 2100 BR NSC 07/05 Q1019 NOSIG=
202112182300 METAR VIDP 182300Z 27006KT 2300 BR NSC 07/05 Q1019 NOSIG=
202112182330 METAR VIDP 182330Z 26006KT 2300 BR NSC 07/05 Q1019 NOSIG=
202112190000 METAR VIDP 190000Z 27005KT 2300 BR NSC 07/05 Q1019 NOSIG=
202112190030 METAR VIDP 190030Z 25004KT 2100 BR NSC 06/05 Q1019 NOSIG=
202112190100 METAR VIDP 190100Z 25004KT 2100 BR NSC 06/05 Q1019 NOSIG=
202112190130 METAR VIDP 190130Z 25004KT 2100 BR NSC 06/05 Q1020 NOSIG=
202112190200 METAR VIDP 190200Z 24004KT 2100 BR NSC 05/04 Q1020 BECMG 1500 BR=
202112190230 METAR VIDP 190230Z 26005KT 1400 BR NSC 06/05 Q1020 NOSIG=
202112190300 METAR VIDP 190300Z 26007KT 1200 R28/2000 R29/2000 BR NSC 07/04 Q1021 NOSIG=
202112190330 METAR VIDP 190330Z 26007KT 1200 R28/2000 R29/2000 BR NSC 08/04 Q1021 NOSIG=
202112190400 METAR VIDP 190400Z 26007KT 1200 R28/2000 R29/2000 FU NSC 09/04 Q1022 BECMG 1500 FU=
202112190430 METAR VIDP 190430Z 27007KT 1500 R28/2000 R29/2000 FU NSC 10/04 Q1022 NOSIG=
202112190500 METAR VIDP 190500Z 26006KT 1500 R28/2000 R29/2000 FU NSC 12/04 Q1022 NOSIG=
202112190530 METAR VIDP 190530Z 27008KT 1500 R28/2000 R29/2000 FU NSC 13/05 Q1022 NOSIG=
202112190600 METAR VIDP 190600Z 28010KT 1500 R28/2000 R29/2000 FU NSC 14/05 Q1022 NOSIG=
202112190630 METAR VIDP 190630Z 28010KT 1500 R28/2000 R29/2000 FU NSC 15/05 Q1021 NOSIG=
202112190700 METAR VIDP 190700Z 28009KT 1500 R28/2000 R29/2000 FU NSC 15/04 Q1021 NOSIG=
202112190730 METAR VIDP 190730Z 28008KT 1800 R28/2000 R29/2000 FU NSC 16/04 Q1020 NOSIG=
202112190800 METAR VIDP 190800Z 28007KT 1800 R28/2000 R29/2000 FU NSC 16/04 Q1020 NOSIG=
202112190830 METAR VIDP 190830Z 29008KT 1800 R28/2000 R29/2000 FU NSC 17/03 Q1020 NOSIG=
202112190900 METAR VIDP 190900Z 27007KT 2000 FU NSC 17/02 Q1019 NOSIG=
202112190930 METAR VIDP 190930Z 27008KT 2000 FU NSC 17/02 Q1019 NOSIG=
202112191000 METAR VIDP 191000Z 27008KT 2000 FU NSC 17/02 Q1019 NOSIG=
202112191030 METAR VIDP 191030Z 28007KT 2200 FU NSC 17/01 Q1019 NOSIG=
202112191100 METAR VIDP 191100Z 29007KT 2200 FU NSC 17/01 Q1019 NOSIG=
202112191130 METAR VIDP 191130Z 27007KT 2200 FU NSC 17/02 Q1019 NOSIG=
202112191200 METAR VIDP 191200Z 28005KT 2200 FU NSC 16/03 Q1019 NOSIG=
202112191230 METAR VIDP 191230Z 25005KT 2200 FU NSC 15/04 Q1019 NOSIG=
202112191300 METAR VIDP 191300Z 26005KT 2200 FU NSC 14/05 Q1019 NOSIG=
202112191330 METAR VIDP 191330Z 25005KT 2200 FU NSC 13/05 Q1020 NOSIG=
202112191400 METAR VIDP 191400Z 25006KT 2200 FU NSC 12/06 Q1020 NOSIG=
202112191430 METAR VIDP 191430Z 26004KT 2200 FU NSC 12/06 Q1020 NOSIG=
202112191500 METAR VIDP 191500Z 27004KT 2200 FU NSC 12/05 Q1020 NOSIG=
202112191530 METAR VIDP 191530Z 23004KT 2200 FU NSC 12/06 Q1020 NOSIG=
202112191600 METAR VIDP 191600Z 24004KT 2200 FU NSC 12/06 Q1020 NOSIG=
202112191630 METAR VIDP 191630Z 23003KT 2200 FU NSC 12/06 Q1020 NOSIG=
202112191700 METAR VIDP 191700Z 24003KT 2200 FU NSC 12/06 Q1020 NOSIG=
202112191730 METAR VIDP 191730Z 23003KT 2200 FU NSC 11/06 Q1020 NOSIG=
202112191800 METAR VIDP 191800Z 25003KT 2200 FU NSC 11/06 Q1020 NOSIG=
202112191830 METAR VIDP 191830Z 26003KT 2200 FU NSC 11/06 Q1020 NOSIG=
202112191900 METAR VIDP 191900Z 25003KT 2200 BR NSC 10/06 Q1020 NOSIG=
202112191930 METAR VIDP 191930Z 24003KT 2200 BR NSC 10/06 Q1019 NOSIG=
202112192000 METAR VIDP 192000Z 24003KT 2200 BR NSC 10/06 Q1019 NOSIG=
202112192030 METAR VIDP 192030Z 23003KT 2200 BR NSC 09/06 Q1019 NOSIG=
202112192100 METAR VIDP 192100Z 25003KT 2200 BR NSC 09/06 Q1019 NOSIG=
202112192130 METAR VIDP 192130Z 26003KT 2200 BR NSC 09/06 Q1019 NOSIG=
202112192200 METAR VIDP 192200Z 27003KT 2100 BR NSC 09/06 Q1019 NOSIG=
202112192230 METAR VIDP 192230Z 26004KT 2100 BR NSC 08/06 Q1018 NOSIG=
202112192300 METAR VIDP 192300Z 24005KT 2100 BR NSC 07/06 Q1018 NOSIG=
202112192330 METAR VIDP 192330Z 25003KT 2100 BR NSC 06/05 Q1018 NOSIG=
202112200000 METAR VIDP 200000Z 25004KT 1800 R28/P2000 R29/P2000 BR FEW100 06/05 Q1018 NOSIG=
202112200030 METAR VIDP 200030Z 23003KT 1800 R28/P2000 R29/P2000 BR FEW100 06/05 Q1018 NOSIG=
202112200100 METAR VIDP 200100Z 24003KT 1800 R28/P2000 R29/P2000 BR FEW100 06/05 Q1019 BECMG 1500 BR=
202112200130 METAR VIDP 200130Z 24004KT 1500 R28/P2000 R29/P2000 BR FEW100 06/05 Q1019 NOSIG=
202112200200 METAR VIDP 200200Z 25003KT 1500 R28/P2000 R29/P2000 BR SCT100 06/05 Q1019 NOSIG=
202112200230 METAR VIDP 200230Z 25003KT 1500 R28/P2000 R29/P2000 BR SCT100 06/05 Q1020 NOSIG=
202112200300 METAR VIDP 200300Z 24003KT 1500 R28/P2000 R29/P2000 BR SCT100 07/05 Q1020 NOSIG=
202112200330 METAR VIDP 200330Z 25003KT 1600 R28/P2000 R29/P2000 BR SCT100 08/05 Q1020 NOSIG=
202112200400 METAR VIDP 200400Z 26006KT 1800 R28/P2000 R29/P2000 FU SCT100 10/05 Q1021 NOSIG=
202112200430 METAR VIDP 200430Z 25006KT 2200 FU NSC 11/05 Q1021 NOSIG=
202112200500 METAR VIDP 200500Z 27005KT 2200 FU NSC 12/04 Q1021 NOSIG=
202112200530 METAR VIDP 200530Z 29005KT 2200 FU NSC 14/05 Q1021 NOSIG=
202112200600 METAR VIDP 200600Z 30004KT 2200 FU NSC 15/03 Q1021 NOSIG=
202112200630 METAR VIDP 200630Z 27005KT 2500 FU NSC 16/02 Q1020 NOSIG=
202112200700 METAR VIDP 200700Z 28005KT 2500 FU NSC 17/02 Q1020 NOSIG=
202112200730 METAR VIDP 200730Z 30005KT 2500 FU NSC 18/01 Q1019 BECMG 3000 FU=
202112200800 METAR VIDP 200800Z 27004KT 3000 HZ NSC 18/01 Q1019 NOSIG=
202112200830 METAR VIDP 200830Z 28005KT 3000 FU NSC 18/01 Q1018 NOSIG=
202112200900 METAR VIDP 200900Z 32005KT 3000 FU NSC 19/01 Q1018 NOSIG=
202112200930 METAR VIDP 200930Z 31004KT 3000 FU NSC 19/01 Q1017 NOSIG=
202112201000 METAR VIDP 201000Z 29004KT 3000 FU NSC 19/01 Q1017 NOSIG=
202112201030 METAR VIDP 201030Z 27004KT 3000 FU NSC 19/01 Q1017 NOSIG=
202112201100 METAR VIDP 201100Z 27004KT 3000 FU NSC 19/01 Q1017 NOSIG=
202112201130 METAR VIDP 201130Z 26004KT 3000 FU NSC 18/02 Q1017 NOSIG=
202112201200 METAR VIDP 201200Z 23003KT 2500 FU NSC 18/02 Q1017 NOSIG=
202112201230 METAR VIDP 201230Z 00000KT 2500 FU NSC 17/02 Q1017 NOSIG=
202112201300 METAR VIDP 201300Z 00000KT 2500 FU NSC 15/04 Q1017 NOSIG=
202112201330 METAR VIDP 201330Z 00000KT 2500 FU NSC 15/05 Q1018 NOSIG=
202112201400 METAR VIDP 201400Z 00000KT 2500 FU NSC 14/04 Q1018 NOSIG=
202112201430 METAR VIDP 201430Z 00000KT 2800 HZ NSC 13/06 Q1019 BECMG 3000 HZ=
202112201500 METAR VIDP 201500Z 00000KT 2200 HZ NSC 13/06 Q1019 NOSIG=
202112201530 METAR VIDP 201530Z 00000KT 1800 R28/2000 R29/2000 HZ NSC 13/06 Q1019 BECMG 1500 HZ=
202112201600 METAR VIDP 201600Z 00000KT 1600 R28/2000 R29/2000 FU NSC 13/05 Q1019 NOSIG=
202112201630 METAR VIDP 201630Z 00000KT 1600 R28/2000 R29/2000 FU NSC 13/05 Q1019 NOSIG=
202112201700 METAR VIDP 201700Z 00000KT 2200 FU NSC 13/05 Q1019 NOSIG=
202112201730 METAR VIDP 201730Z 00000KT 2200 FU NSC 12/05 Q1019 NOSIG=
202112201800 METAR VIDP 201800Z 00000KT 1800 R28/2000 R29/2000 FU NSC 11/06 Q1019 NOSIG=
202112201830 METAR VIDP 201830Z 00000KT 1800 R28/2000 R29/2000 FU NSC 11/06 Q1019 NOSIG=
202112201900 METAR VIDP 201900Z 00000KT 1800 R28/2000 R29/2000 BR NSC 10/06 Q1018 NOSIG=
202112201930 METAR VIDP 201930Z 00000KT 1600 R28/2000 R29/2000 BR NSC 10/06 Q1018 BECMG 1500 BR=
202112202000 METAR VIDP 202000Z 00000KT 1500 R28/2000 R29/2000 BR NSC 10/07 Q1018 NOSIG=
202112202030 METAR VIDP 202030Z 00000KT 1500 R28/2000 R29/2000 BR NSC 09/07 Q1018 NOSIG=
202112202100 METAR VIDP 202100Z 00000KT 1800 R28/2000 R29/2000 BR NSC 09/07 Q1017 NOSIG=
202112202130 METAR VIDP 202130Z 00000KT 1800 R28/2000 R29/2000 BR NSC 08/07 Q1017 NOSIG=
202112202200 METAR VIDP 202200Z 00000KT 1800 R28/2000 R29/2000 BR NSC 08/07 Q1017 NOSIG=
202112202230 METAR VIDP 202230Z 00000KT 1600 R28/2000 R29/2000 BR NSC 08/07 Q1017 NOSIG=
202112202300 METAR VIDP 202300Z 00000KT 1600 R28/2000 R29/2000 BR NSC 08/07 Q1017 NOSIG=
202112202330 METAR VIDP 202330Z 00000KT 1600 R28/2000 R29/2000 BR NSC 08/07 Q1017 NOSIG=
202112210000 METAR VIDP 210000Z 00000KT 1600 R28/2000 R29/2000 BR NSC 08/07 Q1017 BECMG 1500 BR=
202112210030 METAR VIDP 210030Z 00000KT 1500 R28/2000 R29/2000 BR NSC 09/08 Q1017 NOSIG=
202112210100 METAR VIDP 210100Z 00000KT 1500 R28/2000 R29/2000 BR NSC 08/07 Q1017 NOSIG=
202112210130 METAR VIDP 210130Z 00000KT 1000 R28/2000 R29/1900 BR NSC 08/08 Q1018 NOSIG=
202112210200 METAR VIDP 210200Z 22004KT 0700 R28/1900 R29/1500 MIFG NSC 08/08 Q1018 BECMG 0600 MIFG=
202112210230 METAR VIDP 210230Z 00000KT 0700 R28/1900 R29/1200 MIFG NSC 09/08 Q1018 BECMG 0600 MIFG=
202112210300 METAR VIDP 210300Z 00000KT 0600 R28/1600 R29/1200 MIFG NSC 10/09 Q1018 NOSIG=
202112210330 METAR VIDP 210330Z 00000KT 0600 R28/1600 R29/1000 MIFG NSC 11/10 Q1019 NOSIG=
202112210400 METAR COR VIDP 210400Z 00000KT 0700 R28/0900 R29/1200 MIFG NSC 13/09 Q1019 BECMG 0800 FU=
202112210430 METAR VIDP 210430Z 25004KT 0800 R28/0900 R29/1400 FU NSC 15/08 Q1019 NOSIG=
202112210500 METAR VIDP 210500Z 24004KT 1100 R28/1100 R29/2000 FU NSC 16/06 Q1019 NOSIG=
202112210530 METAR VIDP 210530Z 27004KT 1300 R28/1300 R29/2000 FU NSC 17/05 Q1019 BECMG 1500 FU=
202112210600 METAR VIDP 210600Z 26004KT 1500 R28/1500 R29/2000 FU NSC 18/05 Q1019 NOSIG=
202112210630 METAR VIDP 210630Z 24004KT 2100 FU NSC 19/04 Q1018 NOSIG=
202112210700 METAR VIDP 210700Z 25004KT 2100 FU NSC 19/04 Q1017 NOSIG=
202112210730 METAR VIDP 210730Z 27004KT 2100 FU NSC 20/03 Q1017 NOSIG=
202112210800 METAR VIDP 210800Z 29004KT 2100 FU NSC 21/02 Q1017 NOSIG=
202112210830 METAR VIDP 210830Z 28006KT 2500 HZ NSC 21/M02 Q1016 NOSIG=
202112210900 METAR VIDP 210900Z 29006KT 2500 HZ NSC 21/M02 Q1016 NOSIG=
202112210930 METAR VIDP 210930Z 28005KT 2500 HZ FEW100 21/M01 Q1016 NOSIG=
202112211000 METAR VIDP 211000Z 30005KT 2800 HZ FEW100 21/M01 Q1016 BECMG 3000 HZ=
202112211030 METAR VIDP 211030Z 27005KT 3000 HZ NSC 21/M01 Q1016 NOSIG=
202112211100 METAR VIDP 211100Z 26005KT 3000 HZ NSC 21/M01 Q1016 NOSIG=
202112211130 METAR VIDP 211130Z 25004KT 2500 HZ NSC 21/01 Q1016 NOSIG=
202112211200 METAR VIDP 211200Z 23003KT 2500 HZ NSC 19/02 Q1016 NOSIG=
202112211230 METAR VIDP 211230Z 00000KT 2500 HZ NSC 18/03 Q1016 NOSIG=
202112211300 METAR VIDP 211300Z 00000KT 2500 HZ NSC 16/03 Q1016 NOSIG=
202112211330 METAR VIDP 211330Z 00000KT 2500 HZ NSC 15/04 Q1017 NOSIG=
202112211400 METAR VIDP 211400Z 00000KT 2500 HZ NSC 14/04 Q1017 NOSIG=
202112211430 METAR VIDP 211430Z 00000KT 2500 HZ NSC 14/05 Q1017 NOSIG=
202112211500 METAR VIDP 211500Z 00000KT 2200 HZ NSC 13/06 Q1017 NOSIG=
202112211530 METAR VIDP 211530Z 00000KT 2200 HZ NSC 13/06 Q1017 NOSIG=
202112211600 METAR VIDP 211600Z 00000KT 2200 HZ NSC 13/07 Q1017 NOSIG=
202112211630 METAR VIDP 211630Z 00000KT 2200 HZ NSC 12/06 Q1017 NOSIG=
202112211700 METAR VIDP 211700Z 00000KT 2200 HZ NSC 12/06 Q1017 NOSIG=
202112211730 METAR VIDP 211730Z 00000KT 2200 BR NSC 11/07 Q1017 NOSIG=
202112211800 METAR VIDP 211800Z 00000KT 2200 BR NSC 11/07 Q1017 NOSIG=
202112211830 METAR VIDP 211830Z 00000KT 2200 BR NSC 10/07 Q1017 NOSIG=
202112211900 METAR VIDP 211900Z 10009KT 2200 BR NSC 10/07 Q1017 NOSIG=
202112211930 METAR VIDP 211930Z 10006KT 2200 BR NSC 10/07 Q1016 NOSIG=
202112212000 METAR VIDP 212000Z 12008KT 2200 BR NSC 10/07 Q1017 NOSIG=
202112212005 METAR VIDP NIL=
202112212030 METAR VIDP 212030Z 11005KT 1600 R28/2000 R29/2000 BR NSC 10/08 Q1016 BECMG 1500 BR=
202112212100 METAR VIDP 212100Z 10004KT 1200 R28/2000 R29/2000 BR NSC 10/08 Q1016 NOSIG=
202112212130 METAR VIDP 212130Z 11005KT 1200 R28/2000 R29/2000 BR NSC 10/08 Q1016 NOSIG=
202112212200 METAR VIDP 212200Z 11005KT 1200 R28/2000 R29/2000 BR NSC 10/08 Q1016 NOSIG=
202112212205 METAR VIDP NIL=
202112212230 METAR VIDP 212230Z 00000KT 1200 R28/2000 R29/2000 BR NSC 09/08 Q1016 NOSIG=
202112212300 METAR VIDP 212300Z 00000KT 1200 R28/2000 R29/2000 BR NSC 09/08 Q1016 NOSIG=
202112212330 METAR VIDP 212330Z 00000KT 1200 R28/2000 R29/2000 BR NSC 09/08 Q1016 NOSIG=
202112220000 METAR VIDP 220000Z 00000KT 1200 R28/2000 R29/2000 BR NSC 09/08 Q1016 NOSIG=
202112220030 METAR VIDP 220030Z 00000KT 1200 R28/2000 R29/2000 BR NSC 09/08 Q1016 NOSIG=
202112220100 METAR VIDP 220100Z 00000KT 1200 R28/2000 R29/2000 BR NSC 08/08 Q1016 NOSIG=
202112220130 METAR VIDP 220130Z 00000KT 1000 R28/2000 R29/1800 BR FEW100 08/08 Q1016 BECMG 0800 MIFG=
202112220200 METAR VIDP 220200Z 00000KT 0800 R28/2000 R29/1100 MIFG FEW100 08/08 Q1016 NOSIG=
202112220230 METAR VIDP 220230Z 00000KT 0800 R28/1800 R29/0900 MIFG NSC 09/08 Q1016 NOSIG=
202112220305 METAR VIDP NIL=
202112220330 METAR VIDP NIL=
202112220400 METAR VIDP 220400Z 23003KT 0800 R28/1500 R29/1100 MIFG NSC 13/09 Q1017 NOSIG=
202112220430 METAR VIDP 220430Z 00000KT 0900 R28/1600 R29/1200 FU NSC 15/09 Q1017 NOSIG=
202112220500 METAR VIDP 220500Z 24003KT 0900 R28/1700 R29/1400 FU NSC 17/09 Q1017 NOSIG=
202112220530 METAR VIDP 220530Z 21003KT 1000 R28/P2000 R29/1700 FU NSC 18/07 Q1016 NOSIG=
202112220600 METAR VIDP 220600Z 27004KT 1200 R28/P2000 R29/P2000 FU NSC 19/06 Q1016 BECMG 1500 FU=
202112220630 METAR VIDP 220630Z 25005KT 1500 R28/P2000 R29/P2000 FU NSC 20/04 Q1015 NOSIG=
202112220700 METAR VIDP 220700Z 26005KT 1800 R28/P2000 R29/P2000 FU NSC 21/04 Q1015 NOSIG=
202112220730 METAR VIDP 220730Z 26005KT 2200 FU NSC 21/03 Q1015 NOSIG=
202112220800 METAR VIDP 220800Z 25006KT 2200 FU NSC 21/02 Q1014 NOSIG=
202112220830 METAR VIDP 220830Z 28005KT 2200 FU NSC 21/01 Q1014 NOSIG=
202112220900 METAR VIDP 220900Z 29005KT 2200 FU NSC 22/01 Q1013 NOSIG=
202112220930 METAR VIDP 220930Z 31004KT 2200 FU NSC 22/01 Q1013 NOSIG=
202112221000 METAR VIDP 221000Z 30004KT 2200 FU NSC 22/01 Q1013 NOSIG=
202112221030 METAR VIDP 221030Z 29004KT 2200 FU NSC 21/01 Q1013 NOSIG=
202112221100 METAR VIDP 221100Z 30004KT 2200 FU NSC 21/01 Q1013 NOSIG=
202112221130 METAR VIDP 221130Z 32005KT 2200 FU NSC 20/01 Q1013 NOSIG=
202112221200 METAR VIDP 221200Z 00000KT 2500 FU NSC 20/02 Q1013 BECMG 3000 FU=
202112221230 METAR VIDP 221230Z 00000KT 3000 HZ NSC 19/03 Q1013 NOSIG=
202112221300 METAR VIDP 221300Z 00000KT 3000 HZ NSC 18/04 Q1013 NOSIG=
202112221330 METAR VIDP 221330Z 06004KT 2800 HZ NSC 17/05 Q1013 NOSIG=
202112221400 METAR VIDP 221400Z 00000KT 2500 HZ NSC 17/06 Q1014 NOSIG=
202112221430 METAR VIDP 221430Z 00000KT 2500 HZ NSC 17/04 Q1014 NOSIG=
202112221500 METAR VIDP 221500Z 00000KT 2500 HZ NSC 17/05 Q1015 NOSIG=
202112221530 METAR VIDP 221530Z 00000KT 2500 FU NSC 15/06 Q1015 NOSIG=
202112221600 METAR VIDP 221600Z 00000KT 2500 FU NSC 15/07 Q1015 NOSIG=
202112221630 METAR VIDP 221630Z 00000KT 2500 FU NSC 15/07 Q1015 NOSIG=
202112221700 METAR VIDP 221700Z 00000KT 2500 FU NSC 14/07 Q1015 NOSIG=
202112221730 METAR VIDP 221730Z 00000KT 2500 FU NSC 13/07 Q1015 NOSIG=
202112221800 METAR VIDP 221800Z 00000KT 2500 FU NSC 13/07 Q1015 NOSIG=
202112221830 METAR VIDP 221830Z 00000KT 2500 FU NSC 13/07 Q1015 NOSIG=
202112221900 METAR VIDP 221900Z 00000KT 2500 FU NSC 13/07 Q1015 NOSIG=
202112221930 METAR VIDP 221930Z 00000KT 2500 BR NSC 12/08 Q1014 NOSIG=
202112222000 METAR VIDP 222000Z 00000KT 2500 BR NSC 12/08 Q1014 NOSIG=
202112222030 METAR VIDP 222030Z 00000KT 2500 BR NSC 12/08 Q1014 NOSIG=
202112222100 METAR VIDP 222100Z 00000KT 2500 BR NSC 12/08 Q1014 NOSIG=
202112222130 METAR VIDP 222130Z 00000KT 2500 BR NSC 12/08 Q1014 NOSIG=
202112222200 METAR VIDP 222200Z 09003KT 2500 BR NSC 11/08 Q1014 NOSIG=
202112222230 METAR VIDP 222230Z 08003KT 2500 BR NSC 11/08 Q1014 NOSIG=
202112222300 METAR VIDP 222300Z 09003KT 2500 BR NSC 11/08 Q1014 NOSIG=
202112222330 METAR VIDP 222330Z 00000KT 2500 BR NSC 11/08 Q1013 NOSIG=
202112230000 METAR VIDP 230000Z 00000KT 2500 BR NSC 11/08 Q1013 NOSIG=
202112230030 METAR VIDP 230030Z 00000KT 2100 BR NSC 11/09 Q1014 NOSIG=
202112230100 METAR VIDP 230100Z 00000KT 2100 BR NSC 10/08 Q1014 NOSIG=
202112230130 METAR VIDP 230130Z 00000KT 2100 BR NSC 10/09 Q1015 NOSIG=
202112230205 METAR VIDP NIL=
202112230230 METAR COR VIDP 230230Z 00000KT 0900 R28/1900 R29/1500 MIFG FEW100 11/08 Q1015 BECMG 0800 MIFG=
202112230300 METAR VIDP 230300Z 00000KT 0800 R28/1800 R29/1400 MIFG FEW100 12/10 Q1016 NOSIG=
202112230330 METAR VIDP 230330Z 06004KT 0800 R28/2000 R29/1400 MIFG FEW100 13/10 Q1016 NOSIG=
202112230400 METAR VIDP 230400Z 09005KT 0800 R28/2000 R29/2000 MIFG FEW100 15/08 Q1016 NOSIG=
202112230430 METAR VIDP 230430Z 14005KT 1000 R28/2000 R29/2000 FU FEW100 17/09 Q1017 NOSIG=
202112230500 METAR VIDP 230500Z 13004KT 1200 R28/2000 R29/2000 FU FEW100 18/09 Q1017 NOSIG=
202112230530 METAR VIDP 230530Z 14005KT 1200 R28/2000 R29/2000 FU FEW100 19/09 Q1016 NOSIG=
202112230600 METAR VIDP 230600Z 08007KT 1200 R28/2000 R29/2000 FU SCT100 19/09 Q1016 BECMG 1500 FU=
202112230630 METAR VIDP 230630Z 07007KT 1200 R28/2000 R29/2000 FU SCT100 19/08 Q1016 NOSIG=
202112230700 METAR VIDP 230700Z 11006KT 1200 R28/2000 R29/1900 FU SCT100 20/07 Q1015 NOSIG=
202112230730 METAR VIDP 230730Z 12007KT 1200 R28/2000 R29/2000 FU SCT100 20/07 Q1014 NOSIG=
202112230800 METAR VIDP 230800Z 13007KT 1200 R28/2000 R29/1900 FU SCT100 20/06 Q1014 NOSIG=
202112230830 METAR VIDP 230830Z 13006KT 1200 R28/2000 R29/2000 FU SCT100 21/06 Q1014 NOSIG=
202112230900 METAR VIDP 230900Z 11006KT 1300 R28/2000 R29/2000 FU SCT100 21/06 Q1013 NOSIG=
202112230930 METAR VIDP 230930Z 11006KT 1400 R28/2000 R29/2000 FU SCT100 21/06 Q1013 BECMG 1500 FU=
202112231000 METAR VIDP 231000Z 13005KT 1500 R28/2000 R29/2000 FU FEW100 21/06 Q1012 NOSIG=
202112231030 METAR VIDP 231030Z 14005KT 1500 R28/2000 R29/2000 FU FEW100 21/06 Q1012 NOSIG=
202112231100 METAR VIDP 231100Z 15006KT 1800 R28/2000 R29/2000 FU FEW100 21/04 Q1012 NOSIG=
202112231130 METAR VIDP 231130Z 17004KT 2100 FU SCT100 20/06 Q1013 NOSIG=
202112231200 METAR VIDP 231200Z 16004KT 2100 FU SCT100 19/07 Q1013 NOSIG=
202112231230 METAR VIDP 231230Z 15003KT 2100 FU SCT100 18/08 Q1013 NOSIG=
202112231300 METAR VIDP 231300Z 08004KT 2100 FU SCT100 16/10 Q1013 NOSIG=
202112231330 METAR VIDP 231330Z 07003KT 2100 FU SCT100 15/10 Q1013 NOSIG=
202112231400 METAR VIDP 231400Z 09004KT 2100 BR SCT100 15/11 Q1014 NOSIG=
202112231430 METAR VIDP 231430Z 09004KT 2100 BR SCT100 15/11 Q1014 NOSIG=
202112231500 METAR VIDP 231500Z 09003KT 2100 BR SCT100 14/11 Q1014 NOSIG=
202112231530 METAR VIDP 231530Z 08004KT 1800 R28/P2000 R29/P2000 BR SCT100 14/12 Q1014 NOSIG=
202112231600 METAR VIDP 231600Z 09004KT 1600 R28/P2000 R29/P2000 BR FEW100 14/12 Q1014 BECMG 1500 BR=
202112231630 METAR VIDP 231630Z 10003KT 1600 R28/P2000 R29/P2000 BR FEW100 14/12 Q1014 BECMG 1500 BR=
202112231700 METAR VIDP 231700Z 09003KT 1500 R28/P2000 R29/P2000 BR FEW100 14/12 Q1015 NOSIG=
202112231730 METAR VIDP 231730Z 10003KT 1500 R28/P2000 R29/P2000 BR FEW100 14/12 Q1015 NOSIG=
202112231800 METAR VIDP 231800Z 11003KT 1500 R28/P2000 R29/P2000 BR FEW100 13/11 Q1015 NOSIG=
202112231830 METAR VIDP 231830Z 08003KT 1500 R28/P2000 R29/P2000 BR FEW100 13/11 Q1015 NOSIG=
202112231900 METAR VIDP 231900Z 08004KT 1200 R28/P2000 R29/P2000 BR FEW100 13/11 Q1014 NOSIG=
202112231930 METAR VIDP 231930Z 10003KT 1200 R28/P2000 R29/P2000 BR FEW100 12/11 Q1014 NOSIG=
202112232000 METAR VIDP 232000Z 07003KT 1200 R28/P2000 R29/P2000 BR FEW100 12/11 Q1014 NOSIG=
202112232030 METAR VIDP 232030Z 09003KT 1200 R28/P2000 R29/P2000 BR FEW100 12/11 Q1014 NOSIG=
202112232100 METAR VIDP 232100Z 09003KT 1000 R28/P2000 R29/P2000 BR FEW100 12/11 Q1013 NOSIG=
202112232130 METAR VIDP 232130Z 10003KT 1000 R28/P2000 R29/P2000 BR FEW100 11/10 Q1013 NOSIG=
202112232200 METAR VIDP 232200Z 09003KT 1000 R28/P2000 R29/P2000 BR FEW100 12/10 Q1013 NOSIG=
202112232230 METAR VIDP 232230Z 11004KT 1000 R28/P2000 R29/P2000 BR FEW100 12/10 Q1013 NOSIG=
202112232300 METAR VIDP 232300Z 05003KT 1000 R28/P2000 R29/P2000 BR FEW100 12/10 Q1013 NOSIG=
202112232330 METAR VIDP 232330Z 06004KT 1000 R28/P2000 R29/P2000 BR FEW100 12/10 Q1013 NOSIG=
202112240000 METAR VIDP 240000Z 07003KT 1000 R28/P2000 R29/P2000 BR FEW100 11/10 Q1013 NOSIG=
202112240030 METAR VIDP 240030Z 07003KT 1000 R28/P2000 R29/P2000 BR FEW100 11/10 Q1013 NOSIG=
202112240100 METAR VIDP 240100Z 08004KT 1000 R28/P2000 R29/P2000 BR FEW100 11/10 Q1013 NOSIG=
202112240130 METAR VIDP 240130Z 08004KT 1000 R28/P2000 R29/P2000 BR FEW100 11/10 Q1013 NOSIG=
202112240200 METAR VIDP 240200Z 08004KT 1000 R28/P2000 R29/1600 BR NSC 11/10 Q1014 BECMG 0800 MIFG=
202112240230 METAR VIDP 240230Z 09004KT 0800 R28/1500 R29/1500 MIFG NSC 11/10 Q1014 NOSIG=
202112240300 METAR VIDP 240300Z 12005KT 0800 R28/P2000 R29/1700 MIFG NSC 13/10 Q1015 NOSIG=
202112240330 METAR VIDP 240330Z 12004KT 1100 R28/P2000 R29/P2000 BR NSC 14/10 Q1015 NOSIG=
202112240400 METAR VIDP 240400Z 11005KT 1200 R28/P2000 R29/P2000 BR NSC 16/12 Q1015 NOSIG=
202112240430 METAR VIDP 240430Z 10004KT 1300 R28/P2000 R29/P2000 FU NSC 17/12 Q1016 BECMG 1500 FU=
202112240500 METAR VIDP 240500Z 14005KT 1300 R28/P2000 R29/P2000 FU NSC 18/11 Q1016 BECMG 1500 FU=
202112240530 METAR VIDP 240530Z 13004KT 1600 R28/P2000 R29/P2000 FU NSC 19/11 Q1015 NOSIG=
202112240600 METAR VIDP 240600Z 14006KT 1600 R28/P2000 R29/P2000 FU NSC 20/10 Q1015 NOSIG=
202112240630 METAR VIDP 240630Z 13005KT 1600 R28/P2000 R29/P2000 FU NSC 20/10 Q1015 NOSIG=
202112240700 METAR VIDP 240700Z 13004KT 2100 FU NSC 21/09 Q1014 NOSIG=
202112240730 METAR VIDP 240730Z 12004KT 2100 FU NSC 21/09 Q1014 NOSIG=
202112240800 METAR VIDP 240800Z 12006KT 2100 FU NSC 21/09 Q1013 NOSIG=
202112240830 METAR VIDP 240830Z 10005KT 2100 FU FEW100 21/09 Q1013 NOSIG=
202112240900 METAR VIDP 240900Z 09005KT 2100 FU SCT100 21/09 Q1013 NOSIG=
202112240930 METAR VIDP 240930Z 09005KT 2100 FU SCT100 21/09 Q1013 NOSIG=
202112241000 METAR VIDP 241000Z 10005KT 2100 FU SCT100 21/09 Q1013 NOSIG=
202112241030 METAR VIDP 241030Z 09004KT 2100 FU NSC 21/09 Q1013 NOSIG=
202112241100 METAR VIDP 241100Z 10005KT 2100 FU NSC 20/09 Q1013 NOSIG=
202112241130 METAR VIDP 241130Z 10004KT 2100 FU NSC 19/09 Q1014 NOSIG=
202112241200 METAR VIDP 241200Z 09004KT 2100 FU NSC 18/10 Q1014 NOSIG=
202112241230 METAR VIDP 241230Z 10003KT 2100 FU NSC 18/10 Q1014 NOSIG=
202112241300 METAR VIDP 241300Z 09004KT 2100 FU NSC 17/11 Q1014 NOSIG=
202112241330 METAR VIDP 241330Z 11004KT 2100 FU NSC 16/12 Q1014 NOSIG=
202112241400 METAR VIDP 241400Z 09003KT 2100 FU NSC 16/13 Q1014 NOSIG=
202112241430 METAR VIDP 241430Z 10004KT 2100 BR NSC 15/13 Q1015 NOSIG=
202112241500 METAR VIDP 241500Z 11004KT 2100 BR NSC 15/13 Q1015 NOSIG=
202112241530 METAR VIDP 241530Z 00000KT 2100 BR NSC 15/13 Q1015 NOSIG=
202112241600 METAR VIDP 241600Z 00000KT 2100 BR NSC 15/13 Q1015 NOSIG=
202112241630 METAR VIDP 241630Z 00000KT 1800 R28/2000 R29/2000 BR NSC 15/13 Q1015 NOSIG=
202112241700 METAR VIDP 241700Z 00000KT 1800 R28/2000 R29/2000 BR NSC 14/13 Q1015 NOSIG=
202112241730 METAR VIDP 241730Z 00000KT 1800 R28/2000 R29/2000 BR NSC 14/13 Q1015 NOSIG=
202112241800 METAR VIDP 241800Z 00000KT 1600 R28/2000 R29/2000 BR NSC 13/13 Q1015 NOSIG=
202112241830 METAR VIDP 241830Z 00000KT 1600 R28/2000 R29/2000 BR NSC 13/13 Q1015 NOSIG=
202112241900 METAR VIDP 241900Z 00000KT 1600 R28/2000 R29/2000 BR NSC 12/12 Q1015 NOSIG=
202112241930 METAR VIDP 241930Z 00000KT 1600 R28/2000 R29/2000 BR NSC 12/12 Q1015 NOSIG=
202112242000 METAR VIDP 242000Z 00000KT 1600 R28/2000 R29/2000 BR NSC 12/12 Q1015 NOSIG=
202112242030 METAR VIDP 242030Z 00000KT 1600 R28/2000 R29/2000 BR NSC 12/12 Q1015 BECMG 1500 BR=
202112242100 METAR VIDP 242100Z 00000KT 1500 R28/2000 R29/2000 BR NSC 12/11 Q1015 NOSIG=
202112242130 METAR VIDP 242130Z 00000KT 1200 R28/2000 R29/2000 BR NSC 12/11 Q1015 NOSIG=
202112242200 METAR VIDP 242200Z 00000KT 1200 R28/2000 R29/2000 BR NSC 11/11 Q1015 NOSIG=
202112242230 METAR VIDP 242230Z 00000KT 1400 R28/2000 R29/2000 BR NSC 10/10 Q1015 NOSIG=
202112242300 METAR VIDP 242300Z 00000KT 1400 R28/2000 R29/2000 BR NSC 11/10 Q1015 NOSIG=
202112242330 METAR VIDP 242330Z 00000KT 1400 R28/2000 R29/2000 BR NSC 10/10 Q1015 NOSIG=
202112250000 METAR VIDP 250000Z 00000KT 1400 R28/2000 R29/2000 BR NSC 11/10 Q1015 NOSIG=
202112250030 METAR VIDP 250030Z 00000KT 1400 R28/2000 R29/2000 BR NSC 11/10 Q1015 NOSIG=
202112250100 METAR VIDP 250100Z 00000KT 1000 R28/2000 R29/2000 BR NSC 10/10 Q1016 NOSIG=
202112250130 METAR VIDP 250130Z 00000KT 0900 R28/2000 R29/1900 MIFG NSC 11/10 Q1016 BECMG 0800 MIFG=
202112250200 METAR VIDP 250200Z 00000KT 0500 R28/2000 R29/1000 MIFG NSC 10/09 Q1016 NOSIG=
202112250230 METAR VIDP 250230Z 00000KT 0500 R28/2000 R29/1100 MIFG NSC 10/10 Q1017 NOSIG=
202112250300 METAR VIDP 250300Z 11003KT 0500 R28/2000 R29/1100 MIFG NSC 11/11 Q1017 NOSIG=
202112250330 METAR VIDP 250330Z 10003KT 0500 R28/2000 R29/1150 MIFG NSC 13/13 Q1017 BECMG 0600 MIFG=
202112250400 METAR VIDP 250400Z 10003KT 0600 R28/2000 R29/1400 MIFG NSC 15/15 Q1018 NOSIG=
202112250430 METAR VIDP 250430Z 13004KT 0700 R28/2000 R29/1700 MIFG NSC 17/15 Q1018 BECMG 0800 MIFG=
202112250500 METAR VIDP 250500Z 10004KT 1000 R28/2000 R29/2000 BR NSC 18/14 Q1018 NOSIG=
202112250530 METAR VIDP 250530Z 17004KT 1100 R28/2000 R29/2000 FU NSC 19/12 Q1018 NOSIG=
202112250600 METAR VIDP 250600Z 16004KT 1100 R28/2000 R29/2000 FU NSC 20/13 Q1018 NOSIG=
202112250630 METAR VIDP 250630Z 19003KT 1100 R28/2000 R29/2000 FU NSC 21/12 Q1017 NOSIG=
202112250700 METAR VIDP 250700Z 25003KT 1100 R28/2000 R29/2000 FU NSC 21/11 Q1017 NOSIG=
202112250730 METAR VIDP 250730Z VRB02KT 1100 R28/2000 R29/2000 FU NSC 22/10 Q1016 NOSIG=
202112250800 METAR VIDP 250800Z VRB02KT 1200 R28/2000 R29/2000 FU NSC 22/10 Q1015 NOSIG=
202112250830 METAR VIDP 250830Z 32003KT 1200 R28/2000 R29/2000 FU NSC 22/10 Q1015 NOSIG=
202112250900 METAR VIDP 250900Z 33003KT 1200 R28/2000 R29/2000 FU NSC 22/10 Q1015 NOSIG=
202112250930 METAR VIDP 250930Z 32003KT 1300 R28/2000 R29/2000 FU NSC 23/10 Q1015 BECMG 1500 FU=
202112251000 METAR VIDP 251000Z 34003KT 1300 R28/2000 R29/2000 FU NSC 23/10 Q1015 BECMG 1500 FU=
202112251030 METAR VIDP 251030Z 02003KT 1400 R28/2000 R29/2000 FU NSC 23/10 Q1015 BECMG 1500 FU=
202112251100 METAR VIDP 251100Z 05003KT 1200 R28/2000 R29/2000 FU NSC 23/10 Q1015 NOSIG=
202112251130 METAR VIDP 251130Z 36004KT 1100 R28/2000 R29/1700 FU NSC 22/11 Q1015 NOSIG=
202112251200 METAR VIDP 251200Z 03003KT 1100 R28/2000 R29/2000 FU FEW100 21/11 Q1015 NOSIG=
202112251230 METAR VIDP 251230Z 00000KT 1100 R28/2000 R29/2000 FU FEW100 19/12 Q1016 NOSIG=
202112251300 METAR VIDP 251300Z 00000KT 1200 R28/2000 R29/2000 FU FEW100 18/13 Q1016 NOSIG=
202112251330 METAR VIDP 251330Z 00000KT 1200 R28/2000 R29/2000 BR FEW100 17/14 Q1016 NOSIG=
202112251400 METAR VIDP 251400Z 00000KT 1200 R28/2000 R29/2000 BR FEW100 17/14 Q1016 NOSIG=
202112251430 METAR VIDP 251430Z 00000KT 1200 R28/2000 R29/2000 BR SCT100 17/14 Q1016 NOSIG=
202112251505 METAR VIDP NIL=
202112251530 METAR VIDP NIL=
202112251600 METAR VIDP 251600Z 00000KT 1200 R28/2000 R29/2000 BR SCT100 16/13 Q1017 NOSIG=
202112251630 METAR VIDP 251630Z 00000KT 1200 R28/2000 R29/2000 BR SCT100 15/12 Q1017 NOSIG=
202112251700 METAR VIDP 251700Z 00000KT 1200 R28/2000 R29/2000 BR SCT100 15/12 Q1017 NOSIG=
202112251730 METAR VIDP 251730Z 00000KT 1000 R28/2000 R29/2000 BR SCT100 15/12 Q1017 NOSIG=
202112251800 METAR VIDP 251800Z 00000KT 1000 R28/2000 R29/2000 BR SCT100 15/12 Q1017 NOSIG=
202112251830 METAR VIDP 251830Z 00000KT 1000 R28/2000 R29/2000 BR SCT100 15/12 Q1017 NOSIG=
202112251900 METAR VIDP 251900Z 00000KT 1000 R28/2000 R29/2000 BR SCT100 15/12 Q1017 NOSIG=
202112251930 METAR VIDP 251930Z 00000KT 1000 R28/2000 R29/2000 BR SCT100 15/12 Q1017 NOSIG=
202112252000 METAR VIDP 252000Z 00000KT 1000 R28/2000 R29/2000 BR SCT100 14/12 Q1017 NOSIG=
202112252030 METAR VIDP 252030Z 00000KT 1000 R28/2000 R29/2000 BR SCT100 14/12 Q1016 BECMG 0800 MIFG=
202112252100 METAR VIDP 252100Z 00000KT 0800 R28/2000 R29/2000 MIFG SCT100 14/12 Q1016 NOSIG=
202112252130 METAR VIDP 252130Z 00000KT 0800 R28/2000 R29/2000 MIFG SCT100 14/12 Q1016 NOSIG=
202112252200 METAR VIDP 252200Z 00000KT 0800 R28/2000 R29/2000 MIFG SCT100 14/12 Q1016 NOSIG=
202112252230 METAR VIDP 252230Z 00000KT 0800 R28/2000 R29/2000 MIFG SCT100 14/12 Q1016 NOSIG=
202112252300 METAR VIDP 252300Z 00000KT 0800 R28/2000 R29/2000 MIFG SCT100 14/12 Q1016 NOSIG=
202112252330 METAR VIDP 252330Z 00000KT 0800 R28/2000 R29/1800 MIFG SCT100 13/12 Q1016 NOSIG=
202112260000 METAR VIDP 260000Z 00000KT 0800 R28/2000 R29/1800 MIFG SCT100 13/12 Q1016 TEMPO 0600 MIFG=
202112260030 METAR VIDP 260030Z 09004KT 0800 R28/2000 R29/1900 MIFG SCT100 13/12 Q1016 TEMPO 0600 MIFG=
202112260100 METAR VIDP 260100Z 00000KT 0800 R28/2000 R29/1800 MIFG SCT100 13/12 Q1017 TEMPO 0600 MIFG=
202112260130 METAR VIDP 260130Z 00000KT 0600 R28/2000 R29/2000 MIFG SCT100 13/12 Q1017 NOSIG=
202112260200 METAR VIDP 260200Z 11003KT 0600 R28/2000 R29/1300 MIFG FEW040 SCT100 13/12 Q1017 TEMPO 0350 FG=
202112260230 METAR VIDP 260230Z 15004KT 0600 R28/1700 R29/1400 MIFG SCT040 BKN100 14/12 Q1018 NOSIG=
202112260300 METAR VIDP 260300Z 15003KT 0600 R28/1600 R29/1300 MIFG SCT040 BKN100 15/12 Q1018 NOSIG=
202112260330 METAR VIDP 260330Z 12004KT 0600 R28/1600 R29/1200 MIFG SCT040 BKN100 15/14 Q1019 TEMPO 0800 MIFG=
202112260400 METAR VIDP 260400Z 14004KT 0700 R28/1800 R29/1200 MIFG SCT040 BKN100 16/15 Q1019 TEMPO 0800 MIFG=
202112260430 METAR VIDP 260430Z 13005KT 0800 R28/1800 R29/1300 MIFG SCT040 BKN100 16/15 Q1020 NOSIG=
202112260500 METAR VIDP 260500Z 14004KT 0800 R28/2000 R29/1200 MIFG SCT040 BKN100 17/15 Q1019 NOSIG=
202112260530 METAR VIDP 260530Z 12004KT 0900 R28/2000 R29/1300 MIFG SCT040 BKN100 18/15 Q1019 NOSIG=
202112260600 METAR VIDP 260600Z 12004KT 0900 R28/2000 R29/1300 MIFG SCT040 BKN100 18/15 Q1019 NOSIG=
202112260630 METAR VIDP 260630Z 13005KT 1000 R28/2000 R29/1600 BR SCT040 BKN100 18/15 Q1019 NOSIG=
202112260700 METAR VIDP 260700Z 12004KT 1000 R28/2000 R29/1500 BR SCT040 BKN100 19/15 Q1018 NOSIG=
202112260730 METAR VIDP 260730Z 13004KT 1000 R28/2000 R29/1500 FU SCT040 BKN100 19/14 Q1018 NOSIG=
202112260805 METAR VIDP NIL=
202112260830 METAR VIDP 260830Z 08004KT 1000 R28/2000 R29/1400 FU SCT040 BKN100 20/15 Q1017 NOSIG=
202112260900 METAR VIDP 260900Z 09004KT 1000 R28/2000 R29/1500 FU SCT040 BKN100 19/15 Q1017 NOSIG=
202112260930 METAR VIDP 260930Z 09006KT 1000 R28/2000 R29/1500 BR SCT035 BKN100 19/15 Q1017 NOSIG=
202112261000 METAR VIDP 261000Z 09006KT 1000 R28/2000 R29/1400 BR SCT035 BKN100 19/15 Q1017 NOSIG=
202112261030 METAR VIDP 261030Z 08007KT 1000 R28/2000 R29/1600 BR SCT035 BKN100 19/15 Q1017 NOSIG=
202112261100 METAR VIDP 261100Z 08006KT 1000 R28/2000 R29/1700 BR SCT035 BKN100 18/15 Q1017 NOSIG=
202112261130 METAR VIDP 261130Z 08006KT 1200 R28/2000 R29/1900 BR SCT035 BKN100 18/16 Q1017 NOSIG=
202112261200 METAR VIDP 261200Z 09007KT 1200 R28/2000 R29/2000 BR SCT035 BKN100 18/16 Q1017 NOSIG=
202112261230 METAR VIDP 261230Z 00000KT 1200 R28/2000 R29/2000 BR SCT035 BKN100 18/16 Q1018 NOSIG=
202112261300 METAR VIDP 261300Z 07005KT 1400 R28/2000 R29/2000 BR SCT035 BKN100 17/16 Q1018 BECMG 1500 BR=
202112261330 METAR VIDP 261330Z 05005KT 1500 R28/2000 R29/2000 DZ SCT035 BKN100 17/17 Q1019 NOSIG=
202112261400 METAR VIDP 261400Z 02005KT 1500 R28/2000 R29/2000 DZ SCT035 BKN100 17/16 Q1019 NOSIG=
202112261430 METAR VIDP 261430Z 04003KT 1500 R28/2000 R29/2000 DZ SCT035 BKN100 16/16 Q1020 NOSIG=
202112261500 METAR VIDP 261500Z 07003KT 1500 R28/2000 R29/2000 DZ SCT035 BKN100 16/16 Q1020 NOSIG=
202112261530 METAR VIDP 261530Z 04003KT 1500 R28/2000 R29/2000 RA SCT035 BKN100 15/15 Q1020 NOSIG=
202112261531 METAR VIDP 261531Z 04003KT 1500 R28/2000 R29/2000 - RA SCT035 BKN100 15/15 Q1020 NOSIG=
202112261600 METAR VIDP 261600Z 03006KT 1200 R28/2000 R29/2000 -RA SCT030 FEW035CB OVC090 15/15 Q1021 NOSIG=
202112261630 METAR VIDP 261630Z 05006KT 1200 R28/29/2000 -RA SCT030 FEW035CB OVC090 15/15 Q1021 NOSIG=
202112261700 METAR VIDP 261700Z 06005KT 1200 R29/1800 BR SCT030 FEW035CB OVC090 15/15 Q1020 NOSIG=
202112261705 METAR VIDP NIL=
202112261730 METAR VIDP NIL=
202112261805 METAR VIDP NIL=
202112261830 METAR VIDP 261830Z 09004KT 1200 R28/29/2000 BR SCT030 FEW035CB OVC090 14/14 Q1020 NOSIG=
202112261900 METAR VIDP 261900Z 08004KT 1200 R28/29/2000 BR SCT030 FEW035CB OVC090 14/14 Q1020 NOSIG=
202112261905 METAR VIDP NIL=
202112261930 METAR VIDP 261930Z 09004KT 1200 R28/29/2000 BR SCT035 BKN090 14/14 Q1020 NOSIG=
202112262000 METAR VIDP 262000Z 08004KT 1200 R28/2000 R29/2000 BR SCT035 BKN090 14/13 Q1019 NOSIG=
202112262030 METAR VIDP 262030Z 11005KT 1400 R28/29/2000 BR SCT035 BKN090 13/13 Q1019 BECMG 1500 BR=
202112262100 METAR VIDP 262100Z 09004KT 1500 R28/2000 R29/2000 BR SCT035 BKN090 12/12 Q1019 NOSIG=
202112262130 METAR VIDP 262130Z 08004KT 1500 R28/2000 R29/2000 BR SCT035 BKN090 12/12 Q1019 NOSIG=
202112262200 METAR VIDP 262200Z 00000KT 1500 R28/2000 R29/2000 BR SCT035 BKN090 12/12 Q1019 NOSIG=
202112262230 METAR VIDP 262230Z 00000KT 1500 R28/2000 R29/2000 BR SCT035 BKN090 12/12 Q1019 NOSIG=
202112262300 METAR COR VIDP 262300Z 00000KT 1500 R28/2000 R29/2000 BR SCT035 BKN090 13/13 Q1019 NOSIG=
202112262301 METAR VIDP 262301Z 00000KT 1500 R28/2000 R29/2000 BR SCT035 BKN090 13/13 Q1019 NOSIG=
202112262330 METAR VIDP 262330Z 00000KT 1700 R28/2000 R29/2000 BR SCT035 BKN090 13/13 Q1019 NOSIG=
202112270000 METAR VIDP 270000Z 00000KT 1700 R28/2000 R29/2000 BR SCT035 BKN090 12/12 Q1019 NOSIG=
202112270030 METAR VIDP 270030Z 00000KT 1700 R28/2000 R29/2000 BR SCT035 BKN090 12/12 Q1019 NOSIG=
202112270100 METAR VIDP 270100Z 00000KT 1700 R28/2000 R29/2000 BR SCT035 BKN090 12/12 Q1019 NOSIG=
202112270130 METAR VIDP 270130Z 05003KT 1700 R28/2000 R29/2000 BR SCT035 BKN090 12/12 Q1019 NOSIG=
202112270200 METAR VIDP 270200Z 00000KT 1500 R28/2000 R29/2000 BR SCT035 BKN090 12/12 Q1019 BECMG 0800 BR=
202112270230 METAR VIDP 270230Z 04004KT 1000 R28/2000 R29/2000 BR SCT035 BKN090 12/12 Q1020 BECMG 0800 MIFG=
202112270300 METAR VIDP 270300Z 05003KT 0800 R28/2000 R29/2000 BR FEW035 SCT090 13/13 Q1020 NOSIG=
202112270330 METAR VIDP 270330Z 05003KT 1000 R28/2000 R29/2000 BR FEW035 SCT090 14/14 Q1021 NOSIG=
202112270400 METAR VIDP 270400Z 04004KT 1200 R28/2000 R29/2000 BR FEW100 15/15 Q1021 NOSIG=
202112270430 METAR VIDP 270430Z 05005KT 1200 R28/2000 R29/2000 BR FEW100 16/14 Q1021 NOSIG=
202112270500 METAR VIDP 270500Z 05004KT 1200 R28/2000 R29/2000 BR FEW100 17/13 Q1021 NOSIG=
202112270530 METAR VIDP 270530Z 03004KT 1200 R28/2000 R29/2000 FU FEW100 18/13 Q1021 NOSIG=
202112270600 METAR VIDP 270600Z 04003KT 1200 R28/2000 R29/2000 FU FEW100 18/13 Q1021 NOSIG=
202112270630 METAR VIDP 270630Z 07005KT 1400 R28/2000 R29/2000 FU FEW100 19/12 Q1020 NOSIG=
202112270700 METAR VIDP 270700Z 06004KT 1400 R28/2000 R29/2000 FU FEW100 19/11 Q1020 NOSIG=
202112270730 METAR VIDP 270730Z 06004KT 1400 R28/2000 R29/2000 FU FEW100 20/11 Q1019 NOSIG=
202112270800 METAR VIDP 270800Z 00000KT 1400 R28/2000 R29/2000 FU FEW100 20/10 Q1019 NOSIG=
202112270830 METAR VIDP 270830Z 32004KT 1200 R28/2000 R29/2000 FU FEW100 20/10 Q1019 NOSIG=
202112270900 METAR VIDP 270900Z 00000KT 1200 R28/2000 R29/2000 FU FEW100 20/10 Q1018 NOSIG=
202112270930 METAR VIDP 270930Z 34004KT 1200 R28/2000 R29/2000 FU FEW100 20/10 Q1018 NOSIG=
202112271000 METAR VIDP 271000Z 34005KT 1400 R28/2000 R29/2000 FU NSC 20/10 Q1018 BECMG 1500 FU=
202112271030 METAR VIDP 271030Z 33005KT 1500 R28/2000 R29/2000 FU NSC 20/10 Q1018 NOSIG=
202112271100 METAR VIDP 271100Z 33004KT 1500 R28/P2000 R29/P2000 FU NSC 19/10 Q1018 NOSIG=
202112271130 METAR VIDP 271130Z 33003KT 1600 R28/P2000 R29/P2000 FU NSC 18/10 Q1018 NOSIG=
202112271200 METAR VIDP 271200Z 00000KT 1800 R28/P2000 R29/P2000 FU NSC 18/10 Q1018 NOSIG=
202112271205 METAR VIDP NIL=
202112271230 METAR VIDP 271230Z 00000KT 1800 R28/P2000 R29/P2000 FU NSC 18/10 Q1019 NOSIG=
202112271300 METAR VIDP 271300Z 00000KT 1800 R28/P2000 R29/P2000 FU NSC 17/10 Q1019 NOSIG=
202112271330 METAR VIDP 271330Z 00000KT 1800 R28/P2000 R29/P2000 FU NSC 16/10 Q1019 NOSIG=
202112271400 METAR VIDP 271400Z 00000KT 1800 R28/P2000 R29/P2000 BR FEW100 15/11 Q1019 NOSIG=
202112271430 METAR VIDP 271430Z 00000KT 1800 R28/P2000 R29/P2000 BR FEW100 15/11 Q1020 NOSIG=
202112271500 METAR VIDP 271500Z 00000KT 1800 R28/P2000 R29/P2000 BR FEW100 14/11 Q1020 NOSIG=
202112271530 METAR VIDP 271530Z 00000KT 1800 R28/P2000 R29/P2000 BR FEW100 14/11 Q1020 NOSIG=
202112271600 METAR VIDP 271600Z 00000KT 1800 R28/P2000 R29/P2000 BR FEW100 14/11 Q1020 NOSIG=
202112271630 METAR VIDP 271630Z 00000KT 1800 R28/P2000 R29/P2000 BR FEW100 14/11 Q1020 NOSIG=
202112271700 METAR VIDP 271700Z 00000KT 1800 R28/P2000 R29/P2000 BR FEW100 14/11 Q1020 NOSIG=
202112271730 METAR VIDP 271730Z 00000KT 1800 R28/P2000 R29/P2000 BR FEW100 14/11 Q1020 NOSIG=
202112271800 METAR VIDP 271800Z 00000KT 1800 R28/P2000 R29/P2000 BR SCT100 15/11 Q1020 NOSIG=
202112271830 METAR VIDP 271830Z 00000KT 1800 R28/P2000 R29/P2000 BR SCT100 15/11 Q1020 NOSIG=
202112271900 METAR VIDP 271900Z 00000KT 1800 R28/P2000 R29/P2000 BR SCT100 15/11 Q1019 NOSIG=
202112271930 METAR VIDP 271930Z 00000KT 1800 R28/P2000 R29/P2000 BR SCT100 15/11 Q1019 NOSIG=
202112272000 METAR VIDP 272000Z 00000KT 1800 R28/P2000 R29/P2000 BR SCT100 15/11 Q1019 NOSIG=
202112272030 METAR VIDP 272030Z 00000KT 1800 R28/P2000 R29/P2000 BR SCT100 14/11 Q1019 NOSIG=
202112272100 METAR VIDP 272100Z 00000KT 1800 R28/P2000 R29/P2000 BR SCT100 14/11 Q1019 NOSIG=
202112272130 METAR VIDP 272130Z 00000KT 1800 R28/P2000 R29/P2000 BR SCT100 14/11 Q1018 NOSIG=
202112272200 METAR VIDP 272200Z 00000KT 1800 R28/P2000 R29/P2000 BR SCT100 14/11 Q1018 NOSIG=
202112272205 METAR VIDP NIL=
202112272230 METAR VIDP 272230Z 00000KT 1800 R28/P2000 R29/P2000 BR SCT100 14/11 Q1018 NOSIG=
202112272300 METAR VIDP 272300Z 00000KT 1800 R28/P2000 R29/P2000 BR SCT100 13/11 Q1018 NOSIG=
202112272330 METAR VIDP 272330Z 00000KT 1800 R28/P2000 R29/P2000 BR SCT100 13/11 Q1018 NOSIG=
202112280000 METAR VIDP 280000Z 00000KT 1800 R28/P2000 R29/P2000 BR SCT100 13/11 Q1018 NOSIG=
202112280030 METAR VIDP 280030Z 00000KT 1800 R28/P2000 R29/P2000 BR SCT100 13/11 Q1018 NOSIG=
202112280100 METAR VIDP 280100Z 00000KT 1600 R28/P2000 R29/P2000 BR SCT100 13/11 Q1018 NOSIG=
202112280130 METAR VIDP 280130Z 00000KT 1600 R28/P2000 R29/P2000 BR SCT100 13/11 Q1018 BECMG 1500 BR=
202112280200 METAR VIDP 280200Z 00000KT 1400 R28/P2000 R29/P2000 BR SCT040 BKN100 13/11 Q1019 NOSIG=
202112280230 METAR VIDP 280230Z 00000KT 1200 R28/2000 R29/2000 BR SCT040 BKN100 13/11 Q1019 NOSIG=
202112280300 METAR VIDP 280300Z 00000KT 1000 R28/2000 R29/2000 BR SCT040 BKN100 13/11 Q1020 NOSIG=
202112280330 METAR VIDP 280330Z 00000KT 1000 R28/2000 R29/1800 BR SCT035 BKN100 14/11 Q1020 NOSIG=
202112280400 METAR VIDP 280400Z 00000KT 1000 R28/2000 R29/2000 BR SCT035 BKN100 14/11 Q1020 NOSIG=
202112280430 METAR VIDP 280430Z 00000KT 1000 R28/2000 R29/2000 BR SCT035 BKN100 15/12 Q1020 NOSIG=
202112280500 METAR VIDP 280500Z 00000KT 1000 R28/2000 R29/1600 BR SCT040 BKN100 16/12 Q1020 NOSIG=
202112280530 METAR VIDP 280530Z 03003KT 1000 R28/2000 R29/1800 BR SCT035 BKN100 16/13 Q1020 NOSIG=
202112280600 METAR VIDP 280600Z 04002KT 1000 R28/2000 R29/1700 BR SCT035 BKN100 17/13 Q1020 NOSIG=
202112280630 METAR VIDP 280630Z 10002KT 1100 R28/2000 R29/1700 BR SCT035 BKN100 17/13 Q1019 NOSIG=
202112280700 METAR VIDP 280700Z 13004KT 0900 R28/2000 R29/1300 DZ SCT035 BKN090 16/14 Q1018 NOSIG=
202112280730 METAR VIDP 280730Z 13002KT 1000 R28/2000 R29/1400 BR SCT035 BKN090 17/15 Q1018 NOSIG=
202112280800 METAR VIDP 280800Z 17004KT 1000 R28/2000 R29/1700 BR SCT035 BKN090 17/14 Q1018 NOSIG=
202112280830 METAR VIDP 280830Z 00000KT 1000 R28/2000 R29/2000 BR SCT035 BKN090 17/14 Q1018 NOSIG=
202112280900 METAR VIDP 280900Z 22002KT 1000 R28/2000 R29/2000 BR SCT035 BKN090 14/14 Q1017 NOSIG=
202112280930 METAR VIDP 280930Z 00000KT 1000 R28/2000 R29/2000 BR SCT035 BKN090 16/13 Q1017 NOSIG=
202112281000 METAR VIDP 281000Z 00000KT 1000 R28/2000 R29/2000 BR SCT035 BKN090 16/12 Q1017 NOSIG=
202112281030 METAR VIDP 281030Z 02003KT 1000 R28/2000 R29/2000 BR SCT035 BKN090 16/15 Q1017 NOSIG=
202112281100 METAR VIDP 281100Z 00000KT 1000 R28/2000 R29/2000 DZ SCT035 BKN090 15/15 Q1017 NOSIG=
202112281130 METAR VIDP 281130Z 34003KT 1000 R28/2000 R29/2000 DZ SCT035 BKN090 15/15 Q1017 NOSIG=
202112281200 METAR VIDP 281200Z 33005KT 1000 R28/2000 R29/2000 DZ SCT035 BKN090 14/14 Q1018 NOSIG=
202112281230 METAR VIDP 281230Z 34004KT 1000 R28/2000 R29/2000 DZ SCT035 BKN090 14/14 Q1018 NOSIG=
202112281300 METAR VIDP 281300Z 30004KT 1000 R28/2000 R29/2000 DZ SCT035 BKN090 14/14 Q1018 NOSIG=
202112281305 METAR VIDP NIL=
202112281330 METAR VIDP 281330Z 27003KT 1200 R28/P2000 R29/P2000 BR SCT035 BKN090 14/14 Q1018 BECMG 1500 BR=
202112281400 METAR VIDP 281400Z 00000KT 1500 R28/P2000 R29/P2000 BR SCT040 BKN100 14/14 Q1018 NOSIG=
202112281430 METAR VIDP 281430Z 00000KT 1500 R28/P2000 R29/P2000 BR SCT040 BKN100 14/14 Q1018 NOSIG=
202112281500 METAR VIDP 281500Z 09003KT 1800 R28/2000 R29/2000 BR SCT040 BKN100 14/14 Q1018 NOSIG=
202112281530 METAR VIDP 281530Z 29004KT 2200 BR SCT040 BKN100 14/13 Q1018 NOSIG=
202112281600 METAR VIDP 281600Z 27004KT 2200 BR SCT040 BKN100 14/14 Q1018 NOSIG=
202112281630 METAR VIDP 281630Z 23004KT 2200 BR SCT040 BKN100 14/14 Q1018 NOSIG=
202112281700 METAR VIDP 281700Z 00000KT 2500 BR SCT040 BKN100 14/14 Q1018 NOSIG=
202112281730 METAR VIDP 281730Z 00000KT 2500 BR SCT040 BKN100 13/13 Q1018 NOSIG=
202112281800 METAR VIDP 281800Z 00000KT 2200 BR SCT040 BKN100 13/13 Q1018 NOSIG=
202112281830 METAR VIDP 281830Z 11004KT 1800 R28/2000 R29/2000 BR SCT040 BKN100 13/13 Q1018 NOSIG=
202112281900 METAR VIDP 281900Z 00000KT 1800 R28/2000 R29/2000 BR SCT040 BKN100 13/13 Q1018 NOSIG=
202112281930 METAR VIDP 281930Z 00000KT 1800 R28/2000 R29/2000 BR SCT040 BKN100 13/13 Q1018 NOSIG=
202112282000 METAR VIDP 282000Z 00000KT 1600 R28/2000 R29/2000 BR SCT040 BKN100 13/13 Q1018 BECMG 1500 BR=
202112282030 METAR VIDP 282030Z 00000KT 1200 R28/2000 R29/2000 BR SCT035 BKN100 13/12 Q1018 NOSIG=
202112282100 METAR VIDP 282100Z 00000KT 1400 R28/2000 R29/2000 BR SCT035 BKN100 13/12 Q1018 BECMG 1500 BR=
202112282130 METAR VIDP 282130Z 00000KT 1500 R28/2000 R29/2000 BR SCT035 BKN100 13/12 Q1018 NOSIG=
202112282200 METAR VIDP 282200Z 24004KT 1200 R28/2000 R29/1900 BR SCT035 BKN100 12/12 Q1018 NOSIG=
202112282230 METAR VIDP 282230Z 00000KT 1200 R28/2000 R29/1900 BR SCT035 BKN100 12/12 Q1017 NOSIG=
202112282300 METAR VIDP 282300Z 00000KT 0500 R28/2000 R29/0300 FG SCT035 BKN100 11/11 Q1017 BECMG VIS 0350 FG=
202112282330 METAR COR VIDP 282330Z 24004KT 0400 R28/2000 R29/0300 FG SCT035 BKN100 12/11 Q1017 TEMPO VIS 0350 FG=
202112290000 METAR VIDP 290000Z 25004KT 0400 R28/2000 R29/1500 FG SCT035 BKN100 11/11 Q1017 TEMPO 0350 FG=
202112290030 METAR VIDP 290030Z 25004KT 0600 R28/2000 R29/1200 FG SCT035 BKN100 11/11 Q1017 NOSIG=
202112290100 METAR VIDP 290100Z 25004KT 0500 R28/2000 R29/0950 MIFG SCT035 BKN100 11/11 Q1018 TEMPO 0600 MIFG=
202112290130 METAR VIDP 290130Z 00000KT 0400 R28/2000 R29/0250 FG SCT035 BKN100 10/10 Q1018 BECMG 0350 FG=
202112290200 METAR VIDP 290200Z 25004KT 0200 R28/2000 R29/0175 FG SCT035 BKN100 11/11 Q1019 BECMG 0150 FG=
202112290230 METAR VIDP 290230Z 25003KT 0200 R28/2000 R29/0375 FG SCT035 BKN100 11/11 Q1019 NOSIG=
202112290300 METAR VIDP 290300Z 24004KT 0200 R28/1200 R29/0750 FG SCT035 BKN100 11/11 Q1019 NOSIG=
202112290330 METAR VIDP 290330Z 25004KT 0100 R27/0100 R28/0800 R29/0500 FG FEW035 SCT100 11/10 Q1020 NOSIG=
202112290400 METAR VIDP 290400Z 25004KT 0100 R28/0800 R29/0200 FG FEW100 11/11 Q1020 NOSIG=
202112290430 METAR VIDP 290430Z 25003KT 0100 R28/0800 R29/0200 FG FEW100 11/11 Q1021 BECMG 0150 FG=
202112290500 METAR VIDP 290500Z 24004KT 0600 R28/1300 R29/0950 MIFG FEW100 12/12 Q1021 BECMG 0800 MIFG=
202112290530 METAR COR VIDP 290530Z 21005KT 0800 R28/1700 R29/1400 MIFG NSC 13/13 Q1021 NOSIG=
202112290600 METAR VIDP 290600Z 25004KT 0800 R28/1800 R29/1800 MIFG NSC 15/15 Q1020 NOSIG=
202112290630 METAR VIDP 290630Z 27005KT 1000 R28/1900 R29/1900 BR NSC 16/16 Q1020 NOSIG=
202112290700 METAR VIDP 290700Z 25006KT 1000 R28/1900 R29/1900 BR NSC 17/16 Q1020 NOSIG=
202112290701 METAR VIDP 290701Z 25006KT 1000 R28/1900 R29/1900 BR NSC 17/16 Q1020 NOSIG=
202112290705 METAR VIDP NIL=
202112290730 METAR VIDP 290730Z 29007KT 1000 R28/2000 R29/2000 BR NSC 18/12 Q1019 NOSIG=
202112290800 METAR VIDP 290800Z 29007KT 1000 R28/2000 R29/2000 BR NSC 18/11 Q1019 NOSIG=
202112290830 METAR VIDP 290830Z 30006KT 1300 R28/2000 R29/2000 FU NSC 19/11 Q1019 BECMG 1500 FU=
202112290900 METAR VIDP 290900Z 29006KT 1300 R28/2000 R29/2000 FU NSC 19/11 Q1019 BECMG 1500 FU=
202112290930 METAR VIDP 290930Z 30008KT 1500 R28/P2000 R29/P2000 FU NSC 19/10 Q1018 NOSIG=
202112291000 METAR VIDP 291000Z 30008KT 1500 R28/2000 R29/2000 FU NSC 19/10 Q1018 NOSIG=
202112291030 METAR VIDP 291030Z 30008KT 1500 R28/2000 R29/2000 FU NSC 19/10 Q1018 NOSIG=
202112291100 METAR VIDP 291100Z 30008KT 1500 R28/2000 R29/2000 FU NSC 19/09 Q1018 NOSIG=
202112291105 METAR VIDP NIL=
202112291130 METAR VIDP 291130Z 31006KT 1500 R28/2000 R29/2000 FU NSC 19/09 Q1018 NOSIG=
202112291200 METAR VIDP 291200Z 30005KT 1500 R28/2000 R29/2000 FU NSC 18/09 Q1019 NOSIG=
202112291230 METAR VIDP 291230Z 25003KT 1500 R28/P2000 R29/P2000 FU NSC 17/09 Q1019 NOSIG=
202112291300 METAR VIDP 291300Z 26003KT 1500 R28/P2000 R29/P2000 FU NSC 17/09 Q1019 NOSIG=
202112291330 METAR VIDP 291330Z 00000KT 1500 R28/P2000 R29/P2000 FU NSC 16/09 Q1020 NOSIG=
202112291400 METAR VIDP 291400Z 25003KT 1500 R28/P2000 R29/P2000 FU NSC 15/09 Q1020 NOSIG=
202112291430 METAR VIDP 291430Z 00000KT 1500 R28/P2000 R29/P2000 FU NSC 14/09 Q1020 NOSIG=
202112291500 METAR VIDP 291500Z 00000KT 1500 R28/P2000 R29/P2000 FU NSC 13/08 Q1021 NOSIG=
202112291530 METAR VIDP 291530Z 00000KT 1500 R28/P2000 R29/P2000 BR NSC 13/09 Q1021 NOSIG=
202112291600 METAR VIDP 291600Z 00000KT 1500 R28/P2000 R29/P2000 BR NSC 13/09 Q1022 NOSIG=
202112291630 METAR VIDP 291630Z 00000KT 1500 R28/P2000 R29/P2000 BR NSC 13/09 Q1022 NOSIG=
202112291700 METAR VIDP 291700Z 00000KT 1500 R28/P2000 R29/P2000 BR NSC 12/10 Q1022 NOSIG=
202112291730 METAR VIDP 291730Z 00000KT 1500 R28/P2000 R29/P2000 BR NSC 12/10 Q1022 NOSIG=
202112291800 METAR VIDP 291800Z 00000KT 1500 R28/2000 R29/2000 BR NSC 12/10 Q1022 NOSIG=
202112291830 METAR VIDP 291830Z 00000KT 1500 R28/2000 R29/2000 BR NSC 12/10 Q1022 NOSIG=
202112291900 METAR VIDP 291900Z 00000KT 1500 R28/2000 R29/2000 BR NSC 11/09 Q1022 NOSIG=
202112291930 METAR VIDP 291930Z 00000KT 1500 R28/2000 R29/2000 BR NSC 10/09 Q1022 NOSIG=
202112292000 METAR VIDP 292000Z 00000KT 1500 R28/2000 R29/1900 BR NSC 09/08 Q1022 NOSIG=
202112292030 METAR VIDP 292030Z 00000KT 1500 R28/2000 R29/2000 BR NSC 09/08 Q1022 NOSIG=
202112292100 METAR VIDP 292100Z 00000KT 1200 R28/2000 R29/2000 BR NSC 08/08 Q1022 NOSIG=
202112292130 METAR VIDP 292130Z 00000KT 1200 R28/2000 R29/2000 BR NSC 08/08 Q1022 NOSIG=
202112292200 METAR VIDP 292200Z 00000KT 1200 R28/2000 R29/2000 BR NSC 08/08 Q1022 NOSIG=
202112292230 METAR VIDP 292230Z 00000KT 1200 R28/2000 R29/2000 BR NSC 08/08 Q1022 NOSIG=
202112292300 METAR VIDP 292300Z 00000KT 1200 R28/2000 R29/2000 BR NSC 08/08 Q1022 NOSIG=
202112292305 METAR VIDP NIL=
202112292330 METAR VIDP 292330Z 00000KT 1000 R28/2000 R29/1800 BR NSC 08/07 Q1022 NOSIG=
202112300000 METAR VIDP 300000Z 00000KT 1000 R28/2000 R29/1800 BR NSC 07/07 Q1022 NOSIG=
202112300005 METAR VIDP NIL=
202112300030 METAR VIDP 300030Z 00000KT 1000 R28/2000 R29/1800 BR NSC 07/07 Q1023 NOSIG=
202112300100 METAR VIDP 300100Z 00000KT 1000 R28/2000 R29/1800 BR NSC 07/07 Q1023 NOSIG=
202112300130 METAR VIDP 300130Z 00000KT 1000 R28/2000 R29/2000 BR NSC 07/07 Q1023 NOSIG=
202112300200 METAR VIDP 300200Z 00000KT 0900 R28/2000 R29/1500 MIFG NSC 07/07 Q1023 BECMG 0800 MIFG=
202112300230 METAR VIDP 300230Z 00000KT 0700 R28/1600 R29/1400 MIFG NSC 07/07 Q1024 BECMG 0600 MIFG=
202112300300 METAR VIDP 300300Z 00000KT 0700 R28/2000 R29/1300 MIFG NSC 09/08 Q1024 BECMG 0800 MIFG=
202112300330 METAR VIDP 300330Z 00000KT 0800 R28/2000 R29/2000 MIFG NSC 11/10 Q1025 NOSIG=
202112300400 METAR VIDP 300400Z 03003KT 0900 R28/2000 R29/2000 MIFG NSC 12/10 Q1025 NOSIG=
202112300430 METAR VIDP 300430Z 03003KT 1000 R28/2000 R29/2000 BR NSC 13/09 Q1025 NOSIG=
202112300500 METAR COR VIDP 300500Z 05003KT 1000 R28/2000 R29/1800 FU NSC 15/09 Q1025 NOSIG=
202112300530 METAR VIDP 300530Z 02003KT 1000 R28/2000 R29/2000 FU NSC 16/08 Q1025 NOSIG=
202112300600 METAR VIDP 300600Z 32004KT 1200 R28/2000 R29/2000 FU NSC 16/06 Q1025 NOSIG=
202112300630 METAR VIDP 300630Z 33004KT 1400 R28/2000 R29/2000 FU NSC 17/05 Q1025 BECMG 1500 FU=
202112300700 METAR VIDP 300700Z 32004KT 1500 R28/2000 R29/2000 FU NSC 17/05 Q1024 NOSIG=
202112300730 METAR VIDP 300730Z 32004KT 1500 R28/2000 R29/2000 FU NSC 17/04 Q1024 NOSIG=
202112300800 METAR VIDP 300800Z 35003KT 1200 R28/2000 R29/2000 FU FEW040 BKN100 17/04 Q1023 NOSIG=
202112300830 METAR VIDP 300830Z 30004KT 1200 R28/2000 R29/2000 FU FEW040 BKN100 17/03 Q1023 NOSIG=
202112300900 METAR VIDP 300900Z 30004KT 1200 R28/2000 R29/2000 FU FEW040 BKN100 17/03 Q1023 NOSIG=
202112300930 METAR VIDP 300930Z 29004KT 1200 R28/2000 R29/2000 FU FEW040 BKN100 18/M01 Q1023 NOSIG=
202112301000 METAR VIDP 301000Z 27005KT 1400 R28/2000 R29/2000 FU FEW040 BKN100 18/M03 Q1022 BECMG 1500 FU=
202112301030 METAR VIDP 301030Z 30004KT 1500 R28/2000 R29/2000 FU FEW040 BKN100 18/M03 Q1022 NOSIG=
202112301100 METAR VIDP 301100Z 30005KT 1500 R28/2000 R29/2000 FU FEW040 BKN100 14/M04 Q1022 NOSIG=
202112301130 METAR VIDP 301130Z 29003KT 1500 R28/2000 R29/2000 FU FEW040 BKN100 17/M02 Q1022 NOSIG=
202112301200 METAR VIDP 301200Z 27004KT 1500 R28/2000 R29/2000 FU FEW040 BKN100 16/M02 Q1022 NOSIG=
202112301230 METAR VIDP 301230Z 26004KT 1800 R28/2000 R29/2000 FU FEW040 BKN100 15/M01 Q1023 NOSIG=
202112301300 METAR VIDP 301300Z 00000KT 1800 R28/2000 R29/2000 FU FEW040 BKN100 14/00 Q1023 NOSIG=
202112301330 METAR VIDP 301330Z 00000KT 2000 FU FEW040 BKN100 13/01 Q1023 NOSIG=
202112301400 METAR VIDP 301400Z 00000KT 2200 FU FEW040 BKN100 12/03 Q1024 NOSIG=
202112301430 METAR VIDP 301430Z 00000KT 2200 FU FEW040 BKN100 13/04 Q1024 NOSIG=
202112301500 METAR VIDP 301500Z 00000KT 2200 FU FEW035 BKN100 12/05 Q1024 NOSIG=
202112301530 METAR VIDP 301530Z 00000KT 2200 FU FEW035 BKN100 12/05 Q1025 NOSIG=
202112301600 METAR VIDP 301600Z 00000KT 2200 FU FEW035 BKN100 12/05 Q1025 NOSIG=
202112301630 METAR VIDP 301630Z VRB03KT 2200 FU SCT100 11/06 Q1025 NOSIG=
202112301700 METAR VIDP 301700Z VRB02KT 2200 FU FEW100 11/06 Q1025 NOSIG=
202112301730 METAR VIDP 301730Z VRB02KT 2200 BR FEW100 10/07 Q1025 NOSIG=
202112301800 METAR VIDP 301800Z VRB02KT 2200 BR FEW100 10/07 Q1025 NOSIG=
202112301830 METAR VIDP 301830Z VRB02KT 2200 BR FEW100 09/07 Q1024 NOSIG=
202112301900 METAR VIDP 301900Z VRB02KT 2200 BR FEW100 09/07 Q1024 NOSIG=
202112301930 METAR VIDP 301930Z 00000KT 2000 BR FEW100 08/06 Q1024 NOSIG=
202112302000 METAR VIDP 302000Z VRB02KT 2000 BR FEW100 08/06 Q1024 NOSIG=
202112302030 METAR VIDP 302030Z 00000KT 2000 BR FEW100 08/06 Q1024 NOSIG=
202112302100 METAR VIDP 302100Z VRB02KT 2000 BR FEW100 08/06 Q1023 NOSIG=
202112302130 METAR VIDP 302130Z 00000KT 2000 BR FEW100 07/06 Q1023 NOSIG=
202112302200 METAR VIDP 302200Z 00000KT 1800 R28/2000 R29/2000 BR FEW100 09/07 Q1023 BECMG 1500 BR=
202112302230 METAR VIDP 302230Z 00000KT 1800 R28/2000 R29/2000 BR FEW100 09/08 Q1023 BECMG 1500 BR=
202112302300 METAR VIDP 302300Z 00000KT 1500 R28/2000 R29/2000 BR FEW100 08/08 Q1023 NOSIG=
202112302330 METAR VIDP 302330Z 00000KT 1500 R28/2000 R29/2000 BR FEW100 08/08 Q1023 NOSIG=
