##########################################################
# Query made at 12/13/2025 04:22:29 UTC
# Time interval: from 12/10/2022 00:00  to 12/30/2022 23:59  UTC
##########################################################

##########################################################
# VIDP, New Delhi / Palam (India)
# WMO index: 42181. WIGOS ID: 0-20000-0-42181
# Latitude 28-34-00N. Longitude 077-07-00E. Altitude 225 m.
##########################################################

###################################
#  METAR/SPECI from VIDP
###################################
202212100000 METAR VIDP 100000Z 25002KT 1500 R28/P2000 R29L/P2000 BR NSC 13/12 Q1015 NOSIG=
202212100030 METAR VIDP 100030Z 00000KT 1500 R28/P2000 R29L/P2000 BR NSC 12/12 Q1015 NOSIG=
202212100100 METAR VIDP 100100Z 00000KT 1500 R28/P2000 R29L/P2000 BR NSC 12/11 Q1015 NOSIG=
202212100130 METAR VIDP 100130Z 00000KT 1400 R28/P2000 R29L/P2000 BR NSC 12/11 Q1016 NOSIG=
202212100200 METAR VIDP 100200Z 00000KT 1200 R28/2000 R29L/2000 BR NSC 11/10 Q1016 NOSIG=
202212100230 METAR VIDP 100230Z 00000KT 1100 R28/2000 R29L/1100 BR NSC 13/11 Q1017 NOSIG=
202212100300 METAR VIDP 100300Z 00000KT 1100 R28/2000 R29L/1100 BR NSC 15/11 Q1017 NOSIG=
202212100330 METAR VIDP 100330Z 00000KT 1200 R28/2000 R29L/1200 FU NSC 16/11 Q1017 BECMG 1500 FU=
202212100400 METAR VIDP 100400Z 00000KT 1500 R28/2000 R29L/2000 FU NSC 17/11 Q1017 NOSIG=
202212100430 METAR VIDP 100430Z 00000KT 1600 R28/2000 R29L/2000 FU NSC 18/11 Q1018 NOSIG=
202212100500 METAR VIDP 100500Z 27003KT 2100 FU NSC 20/12 Q1018 NOSIG=
202212100530 METAR VIDP 100530Z 27003KT 2100 FU NSC 21/12 Q1017 NOSIG=
202212100600 METAR VIDP 100600Z 26004KT 2100 FU NSC 21/12 Q1017 NOSIG=
202212100630 METAR VIDP 100630Z 27004KT 2100 FU NSC 22/12 Q1017 NOSIG=
202212100700 METAR VIDP 100700Z 27004KT 2100 FU NSC 23/11 Q1016 NOSIG=
202212100730 METAR VIDP 100730Z 29004KT 2500 FU NSC 24/11 Q1016 NOSIG=
202212100800 METAR VIDP 100800Z 29005KT 2500 FU NSC 25/09 Q1015 NOSIG=
202212100830 METAR VIDP 100830Z 29005KT 2500 FU NSC 25/10 Q1015 NOSIG=
202212100900 METAR VIDP 100900Z 30006KT 2500 FU NSC 25/10 Q1015 NOSIG=
202212100930 METAR VIDP 100930Z 30005KT 2500 FU NSC 26/09 Q1014 NOSIG=
202212101000 METAR VIDP 101000Z 30006KT 2500 FU NSC 26/08 Q1014 NOSIG=
202212101030 METAR VIDP 101030Z 32005KT 2500 FU NSC 26/09 Q1014 NOSIG=
202212101100 METAR VIDP 101100Z 31004KT 2500 FU NSC 25/09 Q1014 NOSIG=
202212101105 METAR VIDP NIL=
202212101130 METAR VIDP 101130Z 30003KT 2500 FU NSC 25/09 Q1014 NOSIG=
202212101200 METAR VIDP 101200Z 27002KT 2500 FU NSC 23/10 Q1014 NOSIG=
202212101230 METAR VIDP 101230Z 28001KT 2500 FU NSC 22/11 Q1014 NOSIG=
202212101300 METAR VIDP 101300Z 00000KT 2500 FU NSC 21/11 Q1014 NOSIG=
202212101330 METAR VIDP 101330Z 00000KT 2500 FU NSC 19/11 Q1014 NOSIG=
202212101400 METAR VIDP 101400Z 00000KT 2500 FU NSC 18/12 Q1015 NOSIG=
202212101430 METAR VIDP 101430Z 00000KT 2500 HZ NSC 18/12 Q1015 NOSIG=
202212101500 METAR VIDP 101500Z 00000KT 2500 HZ NSC 18/12 Q1015 NOSIG=
202212101530 METAR VIDP 101530Z 00000KT 2500 HZ NSC 18/12 Q1016 NOSIG=
202212101600 METAR VIDP 101600Z 00000KT 2500 HZ NSC 18/12 Q1016 NOSIG=
202212101630 METAR VIDP 101630Z 00000KT 2500 HZ NSC 17/12 Q1016 NOSIG=
202212101700 METAR VIDP 101700Z 00000KT 2500 HZ NSC 17/12 Q1016 NOSIG=
202212101730 METAR VIDP 101730Z 00000KT 2500 HZ NSC 16/12 Q1016 NOSIG=
202212101800 METAR VIDP 101800Z 00000KT 2200 BR NSC 16/12 Q1016 NOSIG=
202212101830 METAR VIDP 101830Z 00000KT 2200 BR NSC 15/12 Q1016 NOSIG=
202212101900 METAR VIDP 101900Z 00000KT 2200 BR NSC 15/12 Q1015 NOSIG=
202212101930 METAR VIDP 101930Z 00000KT 2200 BR NSC 15/12 Q1015 NOSIG=
202212102000 METAR VIDP 102000Z 00000KT 2200 BR NSC 14/12 Q1015 NOSIG=
202212102030 METAR VIDP 102030Z 00000KT 2200 BR NSC 14/12 Q1015 NOSIG=
202212102100 METAR VIDP 102100Z 00000KT 2200 BR NSC 14/12 Q1015 NOSIG=
202212102130 METAR VIDP 102130Z 00000KT 2200 BR NSC 14/12 Q1015 NOSIG=
202212102200 METAR VIDP 102200Z 27003KT 2200 BR NSC 14/12 Q1015 NOSIG=
202212102230 METAR VIDP 102230Z 26003KT 2100 BR NSC 14/12 Q1015 NOSIG=
202212102300 METAR VIDP 102300Z 26003KT 1800 R28/P2000 R29L/P2000 BR NSC 14/12 Q1015 NOSIG=
202212102330 METAR VIDP 102330Z 24003KT 1800 R28/P2000 R29L/P2000 BR NSC 13/11 Q1015 NOSIG=
202212110000 METAR VIDP 110000Z 27003KT 1800 R28/P2000 R29L/P2000 BR NSC 13/11 Q1015 NOSIG=
202212110030 METAR VIDP 110030Z 26003KT 1800 R28/P2000 R29L/P2000 BR NSC 13/11 Q1015 BECMG 1500 BR=
202212110100 METAR VIDP 110100Z 25003KT 1800 R28/P2000 R29L/P2000 BR NSC 13/11 Q1016 BECMG 1500 BR=
202212110130 METAR VIDP 110130Z 23004KT 1500 R28/P2000 R29L/P2000 BR NSC 12/10 Q1016 NOSIG=
202212110200 METAR VIDP 110200Z 24003KT 1300 R28/P2000 R29L/P2000 BR NSC 12/10 Q1016 NOSIG=
202212110230 METAR VIDP 110230Z 25004KT 1200 R28/P2000 R29L/P2000 BR NSC 13/11 Q1017 NOSIG=
202212110300 METAR VIDP 110300Z 25004KT 1200 R28/P2000 R29L/P2000 BR NSC 14/12 Q1017 NOSIG=
202212110330 METAR VIDP 110330Z 26005KT 1200 R28/P2000 R29L/P2000 BR NSC 14/11 Q1018 NOSIG=
202212110400 METAR VIDP 110400Z 26005KT 1300 R28/P2000 R29L/P2000 BR NSC 16/12 Q1018 NOSIG=
202212110430 METAR VIDP 110430Z 26004KT 1300 R28/P2000 R29L/P2000 FU NSC 17/12 Q1018 BECMG 1500 FU=
202212110500 METAR VIDP 110500Z 27004KT 1500 R28/P2000 R29L/P2000 FU NSC 19/12 Q1018 NOSIG=
202212110530 METAR VIDP 110530Z 27004KT 1600 R28/P2000 R29L/P2000 FU NSC 20/12 Q1018 NOSIG=
202212110600 METAR VIDP 110600Z 29004KT 1600 R28/P2000 R29L/P2000 FU NSC 21/12 Q1018 NOSIG=
202212110630 METAR VIDP 110630Z 30004KT 1800 R28/P2000 R29L/P2000 FU NSC 22/11 Q1018 NOSIG=
202212110700 METAR VIDP 110700Z 29004KT 1800 R28/P2000 R29L/P2000 HZ NSC 23/10 Q1017 NOSIG=
202212110730 METAR VIDP 110730Z 29005KT 1800 R28/P2000 R29L/P2000 HZ NSC 24/10 Q1017 NOSIG=
202212110800 METAR VIDP 110800Z 30004KT 2000 R28/P2000 R29L/P2000 FU NSC 24/10 Q1016 NOSIG=
202212110830 METAR VIDP 110830Z 28006KT 2200 HZ NSC 25/10 Q1016 NOSIG=
202212110900 METAR VIDP 110900Z 30007KT 2200 HZ NSC 26/10 Q1015 NOSIG=
202212110930 METAR VIDP 110930Z 29006KT 2200 HZ NSC 26/09 Q1015 NOSIG=
202212111000 METAR VIDP 111000Z 28006KT 2700 HZ NSC 26/08 Q1015 BECMG 3000 HZ=
202212111030 METAR VIDP 111030Z 30005KT 3000 HZ NSC 26/08 Q1014 NOSIG=
202212111100 METAR VIDP 111100Z 30004KT 3000 HZ NSC 25/09 Q1014 NOSIG=
202212111130 METAR VIDP 111130Z 31005KT 3000 HZ NSC 25/09 Q1014 NOSIG=
202212111200 METAR VIDP 111200Z 28003KT 3000 HZ NSC 24/08 Q1014 NOSIG=
202212111230 METAR VIDP 111230Z 27003KT 3500 HZ NSC 22/09 Q1014 NOSIG=
202212111300 METAR VIDP 111300Z 24004KT 4000 HZ NSC 21/09 Q1015 NOSIG=
202212111330 METAR VIDP 111330Z 22003KT 4000 HZ NSC 21/09 Q1015 NOSIG=
202212111400 METAR VIDP 111400Z 20003KT 4000 HZ NSC 21/09 Q1015 NOSIG=
202212111430 METAR VIDP 111430Z 26003KT 4000 HZ NSC 20/09 Q1015 NOSIG=
202212111500 METAR VIDP 111500Z 00000KT 4000 HZ NSC 19/09 Q1015 NOSIG=
202212111530 METAR VIDP 111530Z 00000KT 4000 HZ NSC 19/09 Q1015 NOSIG=
202212111600 METAR VIDP 111600Z 00000KT 3500 HZ NSC 19/10 Q1016 NOSIG=
202212111630 METAR VIDP 111630Z 00000KT 3500 HZ NSC 18/10 Q1015 NOSIG=
202212111700 METAR VIDP 111700Z 22002KT 3500 HZ NSC 18/10 Q1015 NOSIG=
202212111730 METAR VIDP 111730Z 00000KT 3500 HZ NSC 17/10 Q1015 NOSIG=
202212111800 METAR VIDP 111800Z 25002KT 3500 HZ NSC 16/10 Q1015 NOSIG=
202212111830 METAR VIDP 111830Z 23002KT 3500 HZ NSC 16/10 Q1015 NOSIG=
202212111900 METAR VIDP 111900Z 26002KT 3500 HZ NSC 15/10 Q1015 NOSIG=
202212111930 METAR VIDP 111930Z 26002KT 3500 HZ NSC 15/10 Q1015 NOSIG=
202212112000 METAR VIDP 112000Z 22007KT 3500 HZ NSC 15/10 Q1015 NOSIG=
202212112030 METAR VIDP 112030Z 25003KT 3500 BR NSC 14/10 Q1014 NOSIG=
202212112100 METAR VIDP 112100Z 22003KT 3500 BR NSC 14/10 Q1014 NOSIG=
202212112130 METAR VIDP 112130Z 21003KT 3500 BR NSC 14/10 Q1014 NOSIG=
202212112200 METAR VIDP 112200Z 27005KT 3200 BR NSC 14/10 Q1014 BECMG 3000 BR=
202212112230 METAR VIDP 112230Z 00000KT 2800 BR NSC 13/10 Q1014 NOSIG=
202212112300 METAR VIDP 112300Z 24003KT 2800 BR NSC 14/10 Q1014 NOSIG=
202212112330 METAR VIDP 112330Z 26004KT 2500 BR NSC 13/09 Q1014 NOSIG=
202212120000 METAR VIDP 120000Z 26006KT 2500 BR NSC 12/09 Q1014 NOSIG=
202212120030 METAR VIDP 120030Z 26004KT 2500 BR NSC 12/09 Q1014 NOSIG=
202212120100 METAR VIDP 120100Z 27004KT 2500 BR NSC 12/09 Q1015 NOSIG=
202212120130 METAR VIDP 120130Z 27004KT 2100 BR NSC 12/09 Q1015 NOSIG=
202212120200 METAR VIDP 120200Z 27004KT 2100 BR NSC 13/09 Q1016 NOSIG=
202212120230 METAR VIDP 120230Z 25002KT 1600 R28/P2000 R29L/P2000 BR NSC 13/09 Q1016 NOSIG=
202212120300 METAR VIDP 120300Z 25004KT 1700 R28/P2000 R29L/P2000 FU NSC 14/09 Q1016 NOSIG=
202212120330 METAR VIDP 120330Z 25005KT 1700 R28/P2000 R29L/P2000 FU NSC 15/09 Q1017 NOSIG=
202212120400 METAR VIDP 120400Z 25005KT 1900 R28/P2000 R29L/P2000 FU NSC 15/09 Q1017 NOSIG=
202212120430 METAR VIDP 120430Z 27005KT 2100 FU NSC 17/09 Q1017 NOSIG=
202212120500 METAR VIDP 120500Z 27004KT 2100 FU NSC 18/09 Q1017 NOSIG=
202212120530 METAR VIDP 120530Z 27004KT 2100 FU NSC 19/09 Q1017 NOSIG=
202212120600 METAR VIDP 120600Z 27003KT 2200 FU NSC 21/09 Q1017 NOSIG=
202212120630 METAR VIDP 120630Z 26004KT 2200 FU NSC 21/09 Q1017 NOSIG=
202212120700 METAR VIDP 120700Z 28005KT 2200 FU NSC 23/09 Q1017 NOSIG=
202212120730 METAR VIDP 120730Z 29006KT 2200 HZ NSC 23/09 Q1015 NOSIG=
202212120800 METAR VIDP 120800Z 29005KT 2200 HZ NSC 24/08 Q1015 NOSIG=
202212120830 METAR VIDP 120830Z 30007KT 2500 HZ NSC 25/08 Q1014 NOSIG=
202212120900 METAR VIDP 120900Z 29007KT 2500 HZ NSC 25/08 Q1014 NOSIG=
202212120930 METAR VIDP 120930Z 30006KT 2500 HZ NSC 25/08 Q1014 NOSIG=
202212121000 METAR VIDP 121000Z 29007KT 2500 HZ NSC 25/07 Q1014 NOSIG=
202212121030 METAR VIDP 121030Z 30007KT 2800 HZ NSC 25/06 Q1014 BECMG 3000 HZ=
202212121100 METAR VIDP 121100Z 30006KT 3500 HZ NSC 25/05 Q1013 NOSIG=
202212121130 METAR VIDP 121130Z 28004KT 3500 HZ NSC 24/05 Q1013 NOSIG=
202212121200 METAR VIDP 121200Z 27004KT 4000 HZ NSC 23/05 Q1013 NOSIG=
202212121230 METAR VIDP 121230Z 28003KT 4000 HZ NSC 22/06 Q1013 NOSIG=
202212121300 METAR VIDP 121300Z 27003KT 4000 HZ NSC 21/07 Q1013 NOSIG=
202212121330 METAR VIDP 121330Z 23003KT 3500 HZ NSC 19/07 Q1014 NOSIG=
202212121400 METAR VIDP 121400Z 24003KT 3500 HZ NSC 19/07 Q1014 NOSIG=
202212121430 METAR VIDP 121430Z 22003KT 3500 HZ NSC 18/07 Q1014 NOSIG=
202212121500 METAR VIDP 121500Z 20003KT 3500 HZ NSC 18/07 Q1015 NOSIG=
202212121530 METAR VIDP 121530Z 23003KT 3200 HZ NSC 18/08 Q1015 NOSIG=
202212121600 METAR VIDP 121600Z 00000KT 3200 HZ NSC 17/08 Q1015 NOSIG=
202212121630 METAR VIDP 121630Z 00000KT 3200 HZ NSC 16/08 Q1015 NOSIG=
202212121700 METAR VIDP 121700Z 00000KT 3200 HZ NSC 15/08 Q1015 NOSIG=
202212121730 METAR VIDP 121730Z 00000KT 3200 HZ NSC 15/07 Q1015 NOSIG=
202212121800 METAR VIDP 121800Z 00000KT 3200 HZ NSC 15/07 Q1016 NOSIG=
202212121830 METAR VIDP 121830Z 00000KT 3200 HZ NSC 15/07 Q1016 BECMG 3000 HZ=
202212121900 METAR VIDP 121900Z 00000KT 3000 HZ NSC 14/08 Q1015 NOSIG=
202212121930 METAR VIDP 121930Z 00000KT 3000 HZ NSC 14/08 Q1015 NOSIG=
202212122000 METAR VIDP 122000Z 00000KT 3000 HZ NSC 13/08 Q1015 NOSIG=
202212122030 METAR VIDP 122030Z 00000KT 3000 HZ NSC 13/08 Q1015 NOSIG=
202212122100 METAR VIDP 122100Z 00000KT 3000 HZ NSC 13/08 Q1015 NOSIG=
202212122105 METAR VIDP NIL=
202212122130 METAR VIDP 122130Z 00000KT 2500 HZ NSC 13/08 Q1016 NOSIG=
202212122200 METAR VIDP 122200Z 00000KT 2500 HZ NSC 13/08 Q1016 NOSIG=
202212122205 METAR VIDP NIL=
202212122230 METAR VIDP 122230Z 00000KT 2500 HZ NSC 13/08 Q1016 NOSIG=
202212122300 METAR VIDP 122300Z 00000KT 2500 BR NSC 12/08 Q1016 NOSIG=
202212122330 METAR VIDP 122330Z 25003KT 2500 BR NSC 12/08 Q1016 NOSIG=
202212130000 METAR VIDP 130000Z 25003KT 2200 BR NSC 12/08 Q1016 NOSIG=
202212130030 METAR VIDP 130030Z 24003KT 2200 BR NSC 12/08 Q1016 NOSIG=
202212130100 METAR VIDP 130100Z 24003KT 2200 BR NSC 12/08 Q1017 NOSIG=
202212130130 METAR VIDP 130130Z 25003KT 2200 BR NSC 12/08 Q1017 NOSIG=
202212130200 METAR VIDP 130200Z 24003KT 2200 BR NSC 12/08 Q1017 NOSIG=
202212130230 METAR VIDP 130230Z 24004KT 1800 R28/P2000 R29L/P2000 BR NSC 12/08 Q1018 NOSIG=
202212130300 METAR VIDP 130300Z 25004KT 1800 R28/P2000 R29L/P2000 BR NSC 13/09 Q1018 NOSIG=
202212130330 METAR VIDP 130330Z 25005KT 2100 HZ NSC 14/08 Q1019 NOSIG=
202212130400 METAR VIDP 130400Z 24005KT 2200 HZ NSC 16/08 Q1019 NOSIG=
202212130430 METAR VIDP 130430Z 27005KT 2500 HZ NSC 18/08 Q1019 NOSIG=
202212130500 METAR VIDP 130500Z 28006KT 2500 HZ NSC 19/07 Q1019 BECMG 3000 HZ=
202212130530 METAR VIDP 130530Z 27007KT 3000 HZ NSC 20/05 Q1019 NOSIG=
202212130605 METAR VIDP NIL=
202212130630 METAR VIDP 130630Z 30008KT 3000 HZ NSC 23/04 Q1018 NOSIG=
202212130700 METAR VIDP 130700Z 28010KT 3200 HZ NSC 24/04 Q1017 NOSIG=
202212130730 METAR VIDP 130730Z 30010KT 3200 HZ NSC 24/04 Q1017 NOSIG=
202212130800 METAR VIDP 130800Z 28010KT 3200 HZ NSC 25/04 Q1017 NOSIG=
202212130830 METAR VIDP 130830Z 29006G16KT 3500 HZ NSC 24/05 Q1016 NOSIG=
202212130900 METAR VIDP 130900Z 27009KT 3500 HZ NSC 25/06 Q1016 NOSIG=
202212130930 METAR VIDP 130930Z 29009KT 3500 HZ NSC 25/06 Q1015 NOSIG=
202212131000 METAR VIDP 131000Z 29010KT 3500 HZ NSC 25/05 Q1015 NOSIG=
202212131030 METAR VIDP 131030Z 29009KT 3500 HZ NSC 25/05 Q1015 NOSIG=
202212131100 METAR VIDP 131100Z 29008KT 3500 HZ NSC 25/05 Q1015 NOSIG=
202212131105 METAR VIDP NIL=
202212131130 METAR VIDP 131130Z 29006KT 3500 HZ NSC 24/05 Q1015 BECMG 3000 HZ=
202212131200 METAR VIDP 131200Z 28005KT 3000 HZ NSC 23/06 Q1015 NOSIG=
202212131230 METAR VIDP NIL=
202212131300 METAR VIDP 131300Z 28005KT 3000 HZ NSC 20/06 Q1015 NOSIG=
202212131330 METAR VIDP 131330Z 28006KT 3000 HZ NSC 20/06 Q1015 NOSIG=
202212131400 METAR VIDP 131400Z 28006KT 3000 HZ NSC 20/06 Q1016 NOSIG=
202212131430 METAR COR VIDP 131430Z 28006KT 2700 HZ NSC 19/06 Q1016 NOSIG=
202212131439 METAR COR VIDP 131439Z 28006KT 2700 HZ NSC 19/06 Q1016 NOSIG=
202212131500 METAR VIDP 131500Z 28006KT 2700 HZ NSC 19/06 Q1016 NOSIG=
202212131530 METAR VIDP 131530Z 27007KT 2700 HZ NSC 19/07 Q1016 NOSIG=
202212131600 METAR VIDP 131600Z 27006KT 2700 HZ NSC 18/07 Q1016 NOSIG=
202212131630 METAR VIDP 131630Z 24005KT 2700 HZ NSC 17/07 Q1016 NOSIG=
202212131700 METAR VIDP 131700Z 27005KT 2700 HZ NSC 16/08 Q1016 NOSIG=
202212131730 METAR VIDP 131730Z 27006KT 2700 HZ NSC 15/08 Q1016 NOSIG=
202212131800 METAR VIDP 131800Z 26005KT 2700 HZ NSC 15/08 Q1016 NOSIG=
202212131830 METAR VIDP 131830Z 25005KT 2700 HZ NSC 15/08 Q1016 NOSIG=
202212131900 METAR VIDP 131900Z 26005KT 2700 HZ NSC 14/08 Q1015 NOSIG=
202212131930 METAR VIDP 131930Z 27005KT 2700 HZ NSC 14/08 Q1015 NOSIG=
202212132000 METAR VIDP 132000Z 27005KT 2700 BR NSC 13/09 Q1015 NOSIG=
202212132030 METAR VIDP 132030Z 27005KT 2700 BR NSC 13/09 Q1015 NOSIG=
202212132100 METAR VIDP 132100Z 26005KT 2700 BR NSC 13/09 Q1015 NOSIG=
202212132130 METAR VIDP 132130Z 27005KT 2700 BR NSC 13/09 Q1015 NOSIG=
202212132200 METAR VIDP 132200Z 26005KT 2700 BR NSC 13/09 Q1015 NOSIG=
202212132230 METAR VIDP 132230Z 25005KT 2500 BR NSC 13/09 Q1015 NOSIG=
202212132300 METAR VIDP 132300Z 25005KT 2500 BR NSC 13/09 Q1015 NOSIG=
202212132330 METAR VIDP 132330Z 25004KT 2300 BR NSC 12/08 Q1015 NOSIG=
202212140000 METAR VIDP 140000Z 26004KT 2300 BR NSC 12/08 Q1015 NOSIG=
202212140030 METAR VIDP 140030Z 26004KT 2200 BR NSC 11/08 Q1016 NOSIG=
202212140100 METAR VIDP 140100Z 26005KT 2200 BR NSC 11/08 Q1016 NOSIG=
202212140130 METAR VIDP 140130Z 26005KT 2000 BR NSC 11/09 Q1016 NOSIG=
202212140200 METAR VIDP 140200Z 26005KT 2000 BR NSC 11/09 Q1017 NOSIG=
202212140230 METAR VIDP 140230Z 26006KT 1700 R28/2000 R29L/2000 BR NSC 12/09 Q1017 NOSIG=
202212140300 METAR VIDP 140300Z 26006KT 1700 R28/2000 R29L/2000 FU NSC 13/08 Q1017 NOSIG=
202212140330 METAR VIDP 140330Z 25007KT 2100 FU NSC 14/08 Q1018 NOSIG=
202212140400 METAR VIDP 140400Z 26008KT 2200 FU NSC 15/08 Q1018 NOSIG=
202212140430 METAR VIDP 140430Z 26007KT 2500 FU NSC 17/08 Q1018 NOSIG=
202212140500 METAR VIDP 140500Z 27008KT 2800 FU NSC 18/08 Q1018 BECMG 3000 HZ=
202212140530 METAR VIDP 140530Z 27008KT 3500 HZ NSC 19/07 Q1018 NOSIG=
202212140600 METAR VIDP 140600Z 27009KT 3500 HZ NSC 20/06 Q1018 NOSIG=
202212140630 METAR VIDP 140630Z 27006G16KT 4000 HZ NSC 21/04 Q1017 NOSIG=
202212140700 METAR VIDP 140700Z 28006G16KT 4000 HZ NSC 22/03 Q1017 NOSIG=
202212140730 METAR VIDP 140730Z 28006G16KT 4500 HZ NSC 22/03 Q1016 NOSIG=
202212140800 METAR VIDP 140800Z 27008G18KT 4500 HZ NSC 22/03 Q1016 NOSIG=
202212140830 METAR VIDP 140830Z 29010G20KT 4500 HZ NSC 22/03 Q1016 NOSIG=
202212140900 METAR VIDP 140900Z 28008G18KT 4500 HZ NSC 23/02 Q1016 NOSIG=
202212140930 METAR VIDP 140930Z 27008G18KT 4500 HZ NSC 24/02 Q1015 NOSIG=
202212141000 METAR VIDP 141000Z 27008G18KT 4500 HZ NSC 23/02 Q1015 NOSIG=
202212141030 METAR VIDP 141030Z 27008G18KT 4500 HZ NSC 23/02 Q1015 NOSIG=
202212141100 METAR VIDP 141100Z 27009KT 4500 HZ NSC 23/02 Q1015 NOSIG=
202212141130 METAR VIDP 141130Z 27008KT 4500 HZ NSC 22/03 Q1015 NOSIG=
202212141200 METAR VIDP 141200Z 27004KT 4000 HZ NSC 20/04 Q1015 NOSIG=
202212141205 METAR VIDP NIL=
202212141230 METAR VIDP 141230Z 30004KT 3500 HZ NSC 20/05 Q1015 NOSIG=
202212141300 METAR VIDP 141300Z 29004KT 3500 HZ NSC 19/05 Q1016 NOSIG=
202212141330 METAR VIDP 141330Z 28004KT 3500 HZ NSC 19/05 Q1016 NOSIG=
202212141400 METAR VIDP 141400Z 29003KT 3200 HZ NSC 18/06 Q1016 BECMG 3000 HZ=
202212141430 METAR VIDP 141430Z 32004KT 3200 HZ NSC 17/06 Q1016 BECMG 3000 HZ=
202212141500 METAR VIDP 141500Z 29004KT 3000 HZ NSC 17/06 Q1016 NOSIG=
202212141530 METAR VIDP 141530Z 27003KT 3000 HZ NSC 17/06 Q1017 NOSIG=
202212141600 METAR VIDP 141600Z 29003KT 3000 HZ NSC 17/06 Q1017 NOSIG=
202212141630 METAR VIDP 141630Z 25003KT 3000 HZ NSC 16/05 Q1016 NOSIG=
202212141700 METAR VIDP 141700Z 24003KT 3000 HZ NSC 16/05 Q1016 NOSIG=
202212141730 METAR VIDP 141730Z 29003KT 3000 HZ NSC 14/05 Q1016 NOSIG=
202212141800 METAR VIDP 141800Z 29004KT 3000 HZ NSC 13/06 Q1016 NOSIG=
202212141830 METAR VIDP 141830Z 27004KT 3000 HZ NSC 11/05 Q1016 NOSIG=
202212141900 METAR VIDP 141900Z 26004KT 3000 HZ NSC 11/05 Q1016 NOSIG=
202212141930 METAR VIDP 141930Z 29003KT 3000 HZ NSC 11/05 Q1016 NOSIG=
202212142000 METAR VIDP 142000Z 27004KT 3000 HZ NSC 11/05 Q1016 NOSIG=
202212142030 METAR VIDP 142030Z 27004KT 3000 HZ NSC 11/05 Q1016 NOSIG=
202212142100 METAR VIDP 142100Z 27005KT 3000 HZ NSC 10/05 Q1015 NOSIG=
202212142130 METAR VIDP 142130Z 27005KT 3000 HZ NSC 10/05 Q1015 NOSIG=
202212142200 METAR VIDP 142200Z 26005KT 3000 HZ NSC 10/05 Q1015 NOSIG=
202212142205 METAR VIDP NIL=
202212142230 METAR VIDP 142230Z 00000KT 2500 HZ NSC 10/05 Q1015 NOSIG=
202212142300 METAR VIDP 142300Z 00000KT 2500 HZ NSC 10/05 Q1015 NOSIG=
202212142330 METAR VIDP 142330Z 00000KT 2500 HZ NSC 10/05 Q1015 NOSIG=
202212150000 METAR VIDP 150000Z 00000KT 2500 HZ NSC 10/05 Q1015 NOSIG=
202212150030 METAR VIDP 150030Z 00000KT 2500 HZ NSC 10/05 Q1015 NOSIG=
202212150100 METAR VIDP 150100Z 00000KT 2500 HZ NSC 10/05 Q1015 NOSIG=
202212150130 METAR VIDP 150130Z 25003KT 2500 HZ NSC 10/05 Q1016 NOSIG=
202212150200 METAR VIDP 150200Z 26003KT 2500 HZ NSC 10/05 Q1016 NOSIG=
202212150230 METAR VIDP 150230Z 27003KT 2500 HZ NSC 10/05 Q1016 NOSIG=
202212150300 METAR VIDP 150300Z 27003KT 2800 HZ NSC 12/05 Q1017 BECMG 3000 HZ=
202212150330 METAR VIDP 150330Z 27004KT 3500 HZ NSC 14/05 Q1017 NOSIG=
202212150400 METAR VIDP 150400Z 26005KT 4000 HZ NSC 16/04 Q1017 NOSIG=
202212150430 METAR VIDP 150430Z 28005KT 4000 HZ NSC 18/03 Q1017 NOSIG=
202212150500 METAR VIDP 150500Z 27006KT 4000 HZ NSC 18/03 Q1017 NOSIG=
202212150530 METAR VIDP 150530Z 26007KT 4000 HZ NSC 20/03 Q1017 NOSIG=
202212150600 METAR VIDP 150600Z 27006KT 4000 HZ NSC 20/04 Q1017 NOSIG=
202212150630 METAR VIDP 150630Z 27006KT 4000 HZ NSC 20/04 Q1017 NOSIG=
202212150700 METAR VIDP 150700Z 25005KT 4000 HZ NSC 20/04 Q1014 NOSIG=
202212150730 METAR VIDP 150730Z 27006KT 4000 HZ NSC 21/04 Q1015 NOSIG=
202212150800 METAR VIDP 150800Z 27006KT 4000 HZ NSC 21/04 Q1015 NOSIG=
202212150830 METAR VIDP 150830Z 29006KT 4000 HZ NSC 22/04 Q1015 NOSIG=
202212150900 METAR VIDP 150900Z 28006KT 4300 HZ NSC 22/04 Q1014 NOSIG=
202212150930 METAR VIDP 150930Z 27007KT 4500 HZ NSC 22/04 Q1014 NOSIG=
202212151000 METAR VIDP 151000Z 27007KT 4500 HZ NSC 22/04 Q1014 NOSIG=
202212151030 METAR VIDP 151030Z 27007KT 4500 HZ NSC 22/04 Q1013 NOSIG=
202212151100 METAR VIDP 151100Z 27007KT 4000 HZ NSC 21/04 Q1013 NOSIG=
202212151130 METAR VIDP 151130Z 27005KT 4000 HZ NSC 21/04 Q1013 NOSIG=
202212151200 METAR VIDP 151200Z 27003KT 4000 HZ NSC 20/05 Q1013 NOSIG=
202212151230 METAR VIDP 151230Z 26003KT 4000 HZ NSC 19/05 Q1013 NOSIG=
202212151300 METAR VIDP 151300Z 26003KT 4000 HZ NSC 18/06 Q1013 NOSIG=
202212151330 METAR VIDP 151330Z 26003KT 3500 HZ NSC 17/06 Q1014 NOSIG=
202212151400 METAR VIDP 151400Z 26003KT 3500 HZ NSC 16/06 Q1014 NOSIG=
202212151430 METAR VIDP 151430Z 26002KT 3500 HZ NSC 16/06 Q1014 NOSIG=
202212151500 METAR VIDP 151500Z 29004KT 3500 HZ NSC 16/06 Q1014 NOSIG=
202212151530 METAR VIDP 151530Z 26003KT 3500 HZ NSC 16/06 Q1014 NOSIG=
202212151600 METAR VIDP 151600Z 28003KT 3500 HZ NSC 16/06 Q1014 NOSIG=
202212151630 METAR VIDP 151630Z 00000KT 3500 HZ NSC 15/05 Q1014 NOSIG=
202212151700 METAR VIDP 151700Z 22003KT 3500 HZ NSC 15/05 Q1014 NOSIG=
202212151730 METAR VIDP 151730Z 00000KT 3500 HZ NSC 14/05 Q1013 NOSIG=
202212151800 METAR VIDP 151800Z 20003KT 3500 HZ NSC 15/05 Q1014 NOSIG=
202212151830 METAR VIDP 151830Z 25003KT 3500 HZ NSC 14/06 Q1013 NOSIG=
202212151900 METAR VIDP 151900Z 26003KT 3500 HZ NSC 13/06 Q1013 NOSIG=
202212151930 METAR VIDP 151930Z 26003KT 3500 HZ NSC 13/06 Q1013 NOSIG=
202212152000 METAR VIDP 152000Z 00000KT 3500 HZ NSC 12/06 Q1013 NOSIG=
202212152030 METAR VIDP 152030Z 00000KT 3500 HZ NSC 12/06 Q1013 NOSIG=
202212152100 METAR VIDP 152100Z 27003KT 3200 HZ NSC 12/06 Q1013 BECMG 3000 HZ=
202212152130 METAR VIDP 152130Z 27003KT 3000 HZ NSC 12/06 Q1013 NOSIG=
202212152200 METAR VIDP 152200Z 00000KT 3000 HZ NSC 12/06 Q1013 NOSIG=
202212152230 METAR VIDP 152230Z 00000KT 3000 HZ NSC 11/06 Q1013 NOSIG=
202212152300 METAR VIDP 152300Z 00000KT 3000 HZ NSC 11/06 Q1013 NOSIG=
202212152330 METAR VIDP 152330Z 00000KT 3000 HZ NSC 11/06 Q1013 NOSIG=
202212160000 METAR VIDP 160000Z 26002KT 2500 HZ NSC 11/06 Q1013 NOSIG=
202212160030 METAR VIDP 160030Z 27002KT 2200 HZ NSC 10/05 Q1013 NOSIG=
202212160100 METAR VIDP 160100Z 24002KT 2200 HZ NSC 10/05 Q1013 NOSIG=
202212160130 METAR VIDP 160130Z 00000KT 2200 HZ NSC 10/05 Q1014 NOSIG=
202212160200 METAR VIDP 160200Z 24002KT 1800 R28/2000 R29L/2000 HZ NSC 10/05 Q1014 TEMPO 1500 HZ=
202212160230 METAR VIDP 160230Z 22002KT 1800 R28/P2000 R29L/P2000 FU NSC 11/05 Q1015 NOSIG=
202212160300 METAR VIDP 160300Z 00000KT 1800 R28/P2000 R29L/P2000 FU NSC 12/06 Q1015 NOSIG=
202212160330 METAR VIDP 160330Z 25003KT 1900 R28/P2000 R29/P2000 FU NSC 13/06 Q1015 NOSIG=
202212160405 METAR VIDP NIL=
202212160430 METAR VIDP 160430Z 23004KT 2500 FU NSC 15/05 Q1016 NOSIG=
202212160500 METAR VIDP 160500Z 25004KT 2800 FU NSC 16/05 Q1016 BECMG 3000 HZ=
202212160530 METAR VIDP 160530Z 25004KT 2800 FU NSC 17/05 Q1016 BECMG 3000 HZ=
202212160600 METAR VIDP 160600Z 24004KT 3000 FU NSC 18/06 Q1016 NOSIG=
202212160630 METAR VIDP 160630Z 27004KT 3000 HZ NSC 19/07 Q1015 NOSIG=
202212160700 METAR VIDP 160700Z 25004KT 3000 HZ NSC 20/07 Q1015 NOSIG=
202212160730 METAR VIDP 160730Z 25004KT 3000 HZ NSC 20/07 Q1014 NOSIG=
202212160800 METAR VIDP 160800Z 26005KT 3000 HZ NSC 21/06 Q1014 NOSIG=
202212160830 METAR COR VIDP 160830Z 27005KT 3200 HZ NSC 21/06 Q1013 NOSIG=
202212160900 METAR VIDP 160900Z 27005KT 3200 HZ NSC 21/06 Q1013 NOSIG=
202212160930 METAR VIDP 160930Z 27005KT 3200 HZ NSC 21/06 Q1013 NOSIG=
202212161000 METAR VIDP 161000Z 28006KT 3200 HZ NSC 21/06 Q1013 NOSIG=
202212161030 METAR VIDP 161030Z 27005KT 3200 HZ NSC 21/05 Q1013 NOSIG=
202212161100 METAR VIDP 161100Z 27006KT 3200 HZ NSC 21/06 Q1013 NOSIG=
202212161130 METAR VIDP 161130Z 27003KT 3200 HZ NSC 19/06 Q1013 NOSIG=
202212161200 METAR VIDP 161200Z 28004KT 3200 HZ NSC 19/06 Q1013 NOSIG=
202212161230 METAR VIDP 161230Z 00000KT 3200 HZ NSC 19/07 Q1013 NOSIG=
202212161300 METAR VIDP 161300Z 00000KT 3200 HZ NSC 18/07 Q1014 BECMG 3000 HZ=
202212161330 METAR VIDP 161330Z 00000KT 3000 HZ NSC 17/07 Q1014 NOSIG=
202212161400 METAR VIDP 161400Z 00000KT 3000 HZ NSC 16/07 Q1014 NOSIG=
202212161430 METAR VIDP 161430Z 00000KT 3000 HZ NSC 16/08 Q1014 NOSIG=
202212161500 METAR VIDP 161500Z 00000KT 3000 HZ NSC 15/08 Q1015 NOSIG=
202212161530 METAR VIDP 161530Z 00000KT 2500 FU NSC 14/08 Q1015 NOSIG=
202212161600 METAR VIDP 161600Z 00000KT 2500 FU NSC 13/08 Q1015 NOSIG=
202212161630 METAR VIDP 161630Z 00000KT 2500 FU NSC 13/08 Q1015 NOSIG=
202212161700 METAR VIDP 161700Z 00000KT 2500 FU NSC 14/08 Q1015 NOSIG=
202212161730 METAR VIDP 161730Z 00000KT 2500 FU NSC 13/08 Q1015 NOSIG=
202212161800 METAR VIDP 161800Z 00000KT 2500 FU NSC 13/07 Q1015 NOSIG=
202212161830 METAR VIDP 161830Z 00000KT 2500 FU NSC 12/08 Q1015 NOSIG=
202212161900 METAR VIDP 161900Z 00000KT 2500 FU NSC 12/07 Q1015 NOSIG=
202212161930 METAR VIDP 161930Z 00000KT 2500 FU NSC 12/08 Q1014 NOSIG=
202212162000 METAR VIDP 162000Z 00000KT 2500 FU NSC 11/07 Q1014 NOSIG=
202212162030 METAR VIDP 162030Z 00000KT 2200 FU NSC 11/07 Q1014 NOSIG=
202212162100 METAR VIDP 162100Z 00000KT 2200 BR NSC 10/07 Q1014 NOSIG=
202212162130 METAR VIDP 162130Z 00000KT 2200 BR NSC 10/07 Q1014 NOSIG=
202212162200 METAR VIDP 162200Z 00000KT 2200 BR NSC 10/07 Q1014 NOSIG=
202212162205 METAR VIDP NIL=
202212162230 METAR VIDP NIL=
202212162300 METAR VIDP 162300Z 00000KT 2200 BR NSC 10/07 Q1014 NOSIG=
202212162330 METAR VIDP 162330Z 00000KT 2200 BR NSC 10/07 Q1014 NOSIG=
202212170000 METAR VIDP 170000Z 00000KT 2200 BR NSC 10/07 Q1014 NOSIG=
202212170030 METAR VIDP 170030Z 00000KT 2200 BR NSC 10/07 Q1015 NOSIG=
202212170100 METAR VIDP 170100Z 00000KT 2200 BR NSC 10/07 Q1015 NOSIG=
202212170130 METAR VIDP 170130Z 00000KT 1800 R28/P2000 R29L/P2000 BR NSC 10/07 Q1016 NOSIG=
202212170200 METAR VIDP 170200Z 00000KT 1600 R28/P2000 R29L/P2000 BR NSC 10/07 Q1016 BECMG 1500 BR=
202212170230 METAR VIDP 170230Z 00000KT 1500 R28/P2000 R29L/P2000 BR NSC 11/07 Q1017 NOSIG=
202212170300 METAR VIDP 170300Z 28003KT 1800 R28/P2000 R29L/P2000 BR NSC 11/08 Q1017 NOSIG=
202212170330 METAR VIDP 170330Z 26003KT 2200 FU NSC 12/07 Q1017 NOSIG=
202212170400 METAR VIDP 170400Z 26005KT 2200 FU NSC 13/07 Q1018 NOSIG=
202212170430 METAR VIDP 170430Z 28005KT 2200 FU NSC 15/07 Q1018 NOSIG=
202212170500 METAR VIDP 170500Z 24005KT 2500 FU NSC 17/07 Q1018 NOSIG=
202212170530 METAR VIDP 170530Z 25005KT 2500 FU NSC 17/07 Q1018 NOSIG=
202212170600 METAR VIDP 170600Z 27005KT 2500 FU NSC 19/07 Q1017 NOSIG=
202212170630 METAR VIDP 170630Z 24005KT 2500 FU NSC 19/07 Q1017 NOSIG=
202212170700 METAR VIDP 170700Z 27005KT 2500 FU NSC 20/06 Q1017 NOSIG=
202212170730 METAR VIDP 170730Z 28005KT 2500 FU NSC 21/07 Q1016 NOSIG=
202212170800 METAR VIDP 170800Z 27005KT 3000 HZ NSC 21/07 Q1016 NOSIG=
202212170830 METAR VIDP 170830Z 30005KT 2800 FU NSC 22/05 Q1016 NOSIG=
202212170900 METAR VIDP 170900Z 31005KT 2800 FU NSC 22/06 Q1015 NOSIG=
202212170930 METAR VIDP 170930Z 29006KT 2800 FU NSC 22/05 Q1015 NOSIG=
202212171000 METAR VIDP 171000Z 30005KT 2500 FU NSC 22/05 Q1015 NOSIG=
202212171030 METAR VIDP 171030Z 32006KT 2500 FU NSC 22/04 Q1015 NOSIG=
202212171100 METAR VIDP 171100Z 31006KT 2500 FU NSC 22/03 Q1015 NOSIG=
202212171130 METAR VIDP 171130Z 31003KT 2500 FU NSC 22/04 Q1015 NOSIG=
202212171200 METAR VIDP 171200Z 31003KT 2500 FU NSC 21/05 Q1015 NOSIG=
202212171230 METAR VIDP 171230Z 28003KT 2500 FU NSC 20/06 Q1015 NOSIG=
202212171300 METAR VIDP 171300Z 27002KT 2500 FU NSC 19/06 Q1015 NOSIG=
202212171330 METAR VIDP 171330Z 28004KT 2500 FU NSC 19/06 Q1016 NOSIG=
202212171400 METAR VIDP 171400Z 00000KT 2500 FU NSC 19/06 Q1016 NOSIG=
202212171430 METAR VIDP 171430Z 00000KT 2500 FU NSC 17/06 Q1016 NOSIG=
202212171500 METAR VIDP 171500Z 00000KT 2500 FU NSC 16/06 Q1016 NOSIG=
202212171530 METAR VIDP 171530Z 00000KT 2500 FU NSC 15/06 Q1017 NOSIG=
202212171600 METAR VIDP 171600Z 00000KT 2500 FU NSC 15/07 Q1017 NOSIG=
202212171630 METAR VIDP 171630Z 00000KT 2500 FU NSC 15/07 Q1017 NOSIG=
202212171700 METAR VIDP 171700Z 00000KT 2500 FU NSC 15/07 Q1017 NOSIG=
202212171730 METAR VIDP 171730Z 00000KT 2500 FU NSC 14/07 Q1017 NOSIG=
202212171800 METAR VIDP 171800Z 00000KT 2500 FU NSC 13/07 Q1017 NOSIG=
202212171830 METAR VIDP 171830Z 00000KT 2500 FU NSC 13/07 Q1016 NOSIG=
202212171900 METAR VIDP 171900Z 00000KT 2500 FU NSC 12/07 Q1016 NOSIG=
202212171930 METAR VIDP 171930Z 00000KT 2500 BR NSC 12/08 Q1016 NOSIG=
202212172000 METAR VIDP 172000Z 00000KT 2500 BR NSC 11/07 Q1016 NOSIG=
202212172030 METAR VIDP 172030Z 00000KT 2500 BR NSC 11/07 Q1016 NOSIG=
202212172100 METAR VIDP 172100Z 00000KT 2500 BR NSC 11/07 Q1016 NOSIG=
202212172130 METAR VIDP 172130Z 00000KT 2500 BR NSC 11/07 Q1016 NOSIG=
202212172200 METAR VIDP 172200Z 00000KT 2500 BR NSC 11/07 Q1016 NOSIG=
202212172230 METAR VIDP 172230Z 00000KT 2300 BR NSC 11/07 Q1016 NOSIG=
202212172300 METAR VIDP 172300Z 00000KT 2300 BR NSC 11/07 Q1016 NOSIG=
202212172330 METAR VIDP 172330Z 00000KT 2300 BR NSC 11/08 Q1016 NOSIG=
202212180000 METAR VIDP 180000Z 00000KT 2100 BR NSC 11/08 Q1016 NOSIG=
202212180030 METAR VIDP 180030Z 00000KT 2100 BR NSC 10/08 Q1016 NOSIG=
202212180100 METAR VIDP 180100Z 00000KT 2100 BR NSC 10/08 Q1017 NOSIG=
202212180130 METAR VIDP 180130Z 00000KT 1800 R28/P2000 R29L/P2000 BR NSC 09/08 Q1017 BECMG 1500 BR=
202212180200 METAR VIDP 180200Z 00000KT 1500 R28/P2000 R29L/P2000 BR NSC 10/08 Q1017 NOSIG=
202212180230 METAR VIDP 180230Z 00000KT 1500 R28/2000 R29L/1800 BR NSC 11/09 Q1017 NOSIG=
202212180300 METAR VIDP 180300Z 00000KT 1500 R28/2000 R29L/1900 BR NSC 12/10 Q1018 NOSIG=
202212180330 METAR VIDP 180330Z 27003KT 1500 R28/2000 R29L/2000 BR NSC 13/10 Q1018 NOSIG=
202212180400 METAR VIDP 180400Z 26004KT 1500 R28/2000 R29L/2000 BR NSC 14/10 Q1018 NOSIG=
202212180430 METAR VIDP 180430Z 25003KT 1500 R28/2000 R29L/2000 FU NSC 15/09 Q1019 NOSIG=
202212180500 METAR VIDP 180500Z 23003KT 1500 R28/2000 R29L/2000 FU NSC 17/09 Q1019 NOSIG=
202212180530 METAR VIDP 180530Z 25004KT 1500 R28/2000 R29L/2000 FU NSC 18/09 Q1018 NOSIG=
202212180600 METAR VIDP 180600Z 27004KT 1500 R28/2000 R29L/2000 FU NSC 19/10 Q1018 NOSIG=
202212180630 METAR VIDP 180630Z 26004KT 1500 R28/2000 R29L/2000 FU NSC 20/10 Q1018 NOSIG=
202212180700 METAR VIDP 180700Z 26004KT 1500 R28/2000 R29L/2000 FU NSC 20/10 Q1018 NOSIG=
202212180730 METAR VIDP 180730Z 27005KT 1800 R28/2000 R29L/2000 FU NSC 21/11 Q1017 NOSIG=
202212180800 METAR VIDP 180800Z 27006KT 1800 R28/2000 R29L/2000 FU NSC 21/10 Q1016 NOSIG=
202212180830 METAR VIDP 180830Z 30005KT 1800 R28/2000 R29L/2000 FU NSC 22/10 Q1016 NOSIG=
202212180900 METAR VIDP 180900Z 30005KT 1800 R28/P2000 R29L/P2000 FU NSC 22/10 Q1015 NOSIG=
202212180930 METAR VIDP 180930Z 29004KT 1800 R28/P2000 R29L/P2000 FU NSC 22/10 Q1015 NOSIG=
202212181000 METAR VIDP 181000Z 30005KT 1800 R28/P2000 R29L/P2000 FU NSC 23/10 Q1015 NOSIG=
202212181005 METAR VIDP NIL=
202212181030 METAR VIDP 181030Z 30004KT 1800 R28/P2000 R29L/P2000 FU NSC 22/10 Q1015 NOSIG=
202212181100 METAR VIDP 181100Z 27004KT 2000 FU NSC 22/10 Q1014 NOSIG=
202212181130 METAR VIDP 181130Z 27004KT 2000 FU NSC 21/11 Q1014 NOSIG=
202212181200 METAR VIDP 181200Z 00000KT 2100 FU NSC 20/10 Q1014 NOSIG=
202212181230 METAR VIDP 181230Z 00000KT 2100 FU NSC 18/10 Q1014 NOSIG=
202212181300 METAR VIDP 181300Z 00000KT 2100 FU NSC 17/10 Q1014 NOSIG=
202212181330 METAR VIDP 181330Z 00000KT 1800 R28/P2000 R29L/P2000 FU NSC 17/10 Q1015 NOSIG=
202212181400 METAR VIDP 181400Z 00000KT 1700 R28/P2000 R29L/P2000 FU NSC 16/10 Q1015 NOSIG=
202212181405 METAR VIDP NIL=
202212181430 METAR VIDP 181430Z 00000KT 1600 R28/P2000 R29L/P2000 BR NSC 15/11 Q1015 BECMG 1500 BR=
202212181500 METAR VIDP 181500Z 00000KT 1500 R28/P2000 R29L/P2000 BR NSC 15/11 Q1015 NOSIG=
202212181530 METAR VIDP 181530Z 00000KT 1200 R28/P2000 R29L/P2000 BR NSC 15/11 Q1015 NOSIG=
202212181600 METAR VIDP 181600Z 00000KT 1100 R28/P2000 R29L/1800 BR NSC 15/12 Q1015 NOSIG=
202212181630 METAR VIDP 181630Z 00000KT 1000 R28/P2000 R29L/1400 BR NSC 14/12 Q1015 BECMG 0800 BR=
202212181700 METAR VIDP 181700Z 00000KT 0700 R28/P2000 R29L/1400 MIFG NSC 14/12 Q1015 BECMG 0600 MIFG=
202212181730 METAR VIDP 181730Z 00000KT 0700 R28/2000 R29L/1500 MIFG NSC 14/12 Q1015 BECMG 0600 MIFG=
202212181800 METAR VIDP 181800Z 00000KT 0500 R28/2000 R29L/1300 MIFG NSC 14/12 Q1015 NOSIG=
202212181830 METAR VIDP 181830Z 00000KT 0500 R28/2000 R29L/1300 MIFG NSC 13/12 Q1015 NOSIG=
202212181905 METAR VIDP NIL=
202212181930 METAR VIDP 181930Z 00000KT 0350 R28/2000 R29L/0800 FG NSC 12/11 Q1014 NOSIG=
202212182000 METAR VIDP 182000Z 00000KT 0250 R28/2000 R29L/0525 FG NSC 12/11 Q1014 NOSIG=
202212182030 METAR VIDP 182030Z 00000KT 0250 R28/2000 R29L/0100 FG NSC 11/10 Q1014 NOSIG=
202212182100 METAR VIDP 182100Z 00000KT 0250 R28/2000 R29L/0225 FG NSC 11/10 Q1014 TEMPO 0150 FG=
202212182130 METAR VIDP 182130Z 00000KT 0250 R28/2000 R29L/0225 FG NSC 11/10 Q1014 TEMPO 0150 FG=
202212182200 METAR VIDP 182200Z 26003KT 0150 R28/2000 R29L/0200 FG NSC 11/10 Q1014 NOSIG=
202212182230 METAR VIDP 182230Z 26003KT 0200 R28/2000 R29L/0300 FG NSC 10/09 Q1014 NOSIG=
202212182300 METAR VIDP 182300Z 26003KT 0200 R28/2000 R29L/0300 FG NSC 10/09 Q1014 NOSIG=
202212182330 METAR VIDP 182330Z 27003KT 0200 R28/2000 R29L/0200 FG NSC 10/09 Q1014 BECMG 0150 FG=
202212190000 METAR VIDP 190000Z 27003KT 0200 R28/2000 R29L/0300 FG NSC 10/09 Q1015 NOSIG=
202212190030 METAR VIDP 190030Z 28003KT 0200 R28/2000 R29L/0700 FG NSC 10/09 Q1015 NOSIG=
202212190100 METAR VIDP 190100Z 27003KT 0300 R28/2000 R29L/1200 FG NSC 09/08 Q1015 BECMG 0350 FG=
202212190130 METAR VIDP 190130Z 00000KT 0350 R28/2000 R29L/0600 FG NSC 09/08 Q1015 NOSIG=
202212190200 METAR VIDP 190200Z 00000KT 0500 R28/2000 R29L/0900 MIFG NSC 09/08 Q1015 BECMG 0600 MIFG=
202212190230 METAR VIDP 190230Z 00000KT 0600 R28/2000 R29L/0900 MIFG NSC 10/09 Q1015 BECMG 0800 MIFG=
202212190300 METAR VIDP 190300Z 00000KT 0800 R28/2000 R29L/0900 MIFG NSC 11/10 Q1016 NOSIG=
202212190330 METAR VIDP 190330Z 25004KT 1000 R28/2000 R29L/1200 BR NSC 12/10 Q1017 NOSIG=
202212190400 METAR VIDP 190400Z 24004KT 1000 R28/2000 R29L/1300 BR NSC 13/10 Q1017 NOSIG=
202212190430 METAR VIDP 190430Z 30004KT 1000 R28/2000 R29L/1300 BR NSC 14/12 Q1017 NOSIG=
202212190500 METAR VIDP 190500Z 27004KT 1100 R28/2000 R29L/2000 BR NSC 15/12 Q1018 NOSIG=
202212190530 METAR VIDP 190530Z 26004KT 1200 R28/2000 R29L/2000 BR NSC 16/12 Q1018 NOSIG=
202212190600 METAR VIDP 190600Z 27004KT 1200 R28/2000 R29L/2000 BR NSC 18/13 Q1017 NOSIG=
202212190630 METAR VIDP 190630Z 30003KT 1400 R28/2000 R29L/2000 FU NSC 19/12 Q1016 BECMG 1500 FU=
202212190700 METAR VIDP 190700Z 28003KT 1500 R28/2000 R29L/2000 FU NSC 20/13 Q1016 NOSIG=
202212190730 METAR VIDP 190730Z 30004KT 1600 R28/P2000 R29L/P2000 FU NSC 21/11 Q1015 NOSIG=
202212190800 METAR VIDP 190800Z 31004KT 1600 R28/P2000 R29L/P2000 FU NSC 21/10 Q1015 NOSIG=
202212190830 METAR VIDP 190830Z 27004KT 1600 R28/P2000 R29L/P2000 FU NSC 21/11 Q1014 BECMG 1500 FU=
202212190900 METAR VIDP 190900Z 34004KT 1600 R28/P2000 R29L/1900 FU NSC 21/08 Q1014 BECMG 1500 FU=
202212190930 METAR VIDP 190930Z 30005KT 1600 R28/P2000 R29L/P2000 FU NSC 21/08 Q1014 NOSIG=
202212191000 METAR VIDP 191000Z 32004KT 1600 R28/P2000 R29L/P2000 FU NSC 21/08 Q1014 NOSIG=
202212191030 METAR VIDP 191030Z 31004KT 1800 R28/P2000 R29L/P2000 FU NSC 21/08 Q1013 NOSIG=
202212191100 METAR VIDP 191100Z 30004KT 1800 R28/P2000 R29L/P2000 FU NSC 21/09 Q1013 NOSIG=
202212191130 METAR VIDP 191130Z 28003KT 1800 R28/P2000 R29L/P2000 FU NSC 20/09 Q1013 NOSIG=
202212191200 METAR VIDP 191200Z 26003KT 1600 R28/P2000 R29L/P2000 FU NSC 19/10 Q1013 NOSIG=
202212191230 METAR VIDP 191230Z 26003KT 1600 R28/P2000 R29L/P2000 FU NSC 18/11 Q1013 NOSIG=
202212191300 METAR VIDP 191300Z 00000KT 1600 R28/P2000 R29L/P2000 FU NSC 17/11 Q1013 NOSIG=
202212191330 METAR VIDP 191330Z 00000KT 1600 R28/P2000 R29L/P2000 FU NSC 17/11 Q1013 NOSIG=
202212191400 METAR VIDP 191400Z 00000KT 1600 R28/P2000 R29L/P2000 FU NSC 16/11 Q1014 NOSIG=
202212191430 METAR VIDP 191430Z 18003KT 1600 R28/2000 R29L/1600 FU NSC 16/10 Q1014 NOSIG=
202212191500 METAR VIDP 191500Z 00000KT 1600 R28/2000 R29L/2000 FU NSC 16/10 Q1014 NOSIG=
202212191530 METAR VIDP 191530Z 00000KT 1800 R28/2000 R29L/2000 FU NSC 15/10 Q1014 NOSIG=
202212191600 METAR VIDP 191600Z 00000KT 1800 R28/2000 R29L/1600 FU NSC 15/10 Q1014 NOSIG=
202212191630 METAR VIDP 191630Z 00000KT 1800 R28/2000 R29L/2000 FU NSC 15/11 Q1014 NOSIG=
202212191700 METAR VIDP 191700Z 28003KT 1800 R28/2000 R29L/2000 FU NSC 15/11 Q1014 NOSIG=
202212191730 METAR VIDP 191730Z 00000KT 1800 R28/2000 R29L/2000 BR NSC 14/11 Q1014 TEMPO 1500 BR=
202212191800 METAR VIDP 191800Z 00000KT 1500 R28/2000 R29L/1700 BR NSC 15/11 Q1014 NOSIG=
202212191830 METAR VIDP 191830Z 18003KT 1200 R28/2000 R29L/2000 BR NSC 14/11 Q1014 BECMG 0800 MIFG=
202212191900 METAR VIDP 191900Z 00000KT 1100 R28/2000 R29L/1300 BR NSC 14/11 Q1014 BECMG 0800 MIFG=
202212191930 METAR VIDP 191930Z 00000KT 0800 R28/2000 R29L/1100 BR NSC 14/11 Q1013 NOSIG=
202212192000 METAR VIDP 192000Z 00000KT 0800 R28/2000 R29L/0900 MIFG NSC 13/11 Q1013 NOSIG=
202212192030 METAR VIDP 192030Z 26003KT 0800 R28/2000 R29L/1000 MIFG NSC 12/11 Q1013 BECMG 0600 MIFG=
202212192100 METAR VIDP 192100Z 27004KT 0600 R28/2000 R29L/0200 MIFG NSC 11/10 Q1013 BECMG 0350 FG=
202212192130 METAR VIDP 192130Z 25003KT 0300 R28/2000 R29L/0125 FG NSC 11/10 Q1013 BECMG 0150 FG=
202212192200 METAR VIDP 192200Z 26003KT 0100 R28/2000 R29L/0075 FG NSC 11/10 Q1013 NOSIG=
202212192230 METAR VIDP 192230Z 28006KT 0100 R28/0250 R29L/0150 FG VV/// 11/11 Q1013 NOSIG=
202212192300 METAR VIDP 192300Z 25004KT 0050 R28/0200 R29L/1050 FG VV/// 11/11 Q1013 NOSIG=
202212192330 METAR VIDP 192330Z 25004KT 0100 R28/0175 R29L/0150 FG VV/// 10/10 Q1013 NOSIG=
202212200000 METAR VIDP 200000Z 26004KT 0050 R28/0250 R29L/0125 FG VV/// 10/09 Q1013 NOSIG=
202212200030 METAR VIDP 200030Z 26003KT 0050 R28/0250 R29L/0175 FG VV/// 10/10 Q1014 NOSIG=
202212200100 METAR VIDP 200100Z 25005KT 0050 R28/0400 R29L/0225 FG VV/// 10/09 Q1014 NOSIG=
202212200130 METAR VIDP 200130Z 26004KT 0050 R28/0250 R29L/0200 FG VV/// 09/08 Q1014 NOSIG=
202212200200 METAR VIDP 200200Z 29004KT 0100 R28/0200 R29L/0150 FG VV/// 08/08 Q1015 NOSIG=
202212200230 METAR VIDP 200230Z 25003KT 0100 R28/0200 R29L/0175 FG VV/// 08/08 Q1015 NOSIG=
202212200300 METAR VIDP 200300Z 24004KT 0100 R28/0550 R29L/0150 FG VV/// 08/08 Q1016 NOSIG=
202212200330 METAR VIDP 200330Z 26003KT 0100 R28/0775 R29L/0225 FG VV/// 08/08 Q1016 BECMG 0150 FG=
202212200400 METAR VIDP 200400Z 25003KT 0100 R28/0800 R29L/0200 FG VV/// 08/08 Q1017 BECMG 0150 FG=
202212200430 METAR VIDP 200430Z 26003KT 0100 R28/2000 R29L/0250 FG VV/// 09/08 Q1017 BECMG 0350 FG=
202212200500 METAR VIDP 200500Z 26003KT 0500 R28/2000 R29L/0600 FG NSC 10/09 Q1017 BECMG 0600 MIFG=
202212200530 METAR VIDP 200530Z VRB02KT 0700 R28/2000 R29L/2000 MIFG NSC 11/10 Q1017 BECMG 0800 MIFG=
202212200600 METAR VIDP 200600Z 27003KT 0900 R28/2000 R29L/2000 MIFG SCT100 12/11 Q1016 NOSIG=
202212200630 METAR VIDP 200630Z 31003KT 1100 R28/2000 R29L/2000 BR FEW100 14/10 Q1015 NOSIG=
202212200700 METAR VIDP 200700Z 29003KT 1300 R28/2000 R29L/2000 FU FEW100 18/09 Q1015 BECMG 1500 FU=
202212200730 METAR VIDP 200730Z 30004KT 1300 R28/2000 R29L/2000 FU FEW100 19/08 Q1014 BECMG 1500 FU=
202212200800 METAR VIDP 200800Z 29005KT 1200 R28/2000 R29L/1900 FU FEW100 19/07 Q1014 BECMG 1500 FU=
202212200830 METAR VIDP 200830Z 30005KT 1500 R28/P2000 R29L/P2000 FU FEW100 20/07 Q1014 NOSIG=
202212200900 METAR VIDP 200900Z 29005KT 1500 R28/P2000 R29L/1900 FU SCT100 20/06 Q1013 NOSIG=
202212200930 METAR VIDP 200930Z 29005KT 1500 R28/P2000 R29L/P2000 FU SCT100 21/06 Q1013 NOSIG=
202212201000 METAR VIDP 201000Z 30005KT 1500 R28/P2000 R29L/P2000 FU BKN100 21/05 Q1013 NOSIG=
202212201030 METAR VIDP 201030Z 30005KT 1500 R28/P2000 R29L/P2000 FU BKN100 21/05 Q1013 NOSIG=
202212201100 METAR VIDP 201100Z 28004KT 1500 R28/P2000 R29L/P2000 FU BKN100 20/05 Q1012 NOSIG=
202212201130 METAR VIDP 201130Z 26004KT 1500 R28/P2000 R29L/P2000 FU BKN100 19/06 Q1012 NOSIG=
202212201200 METAR VIDP 201200Z 29004KT 1500 R28/P2000 R29L/P2000 FU SCT100 16/09 Q1012 NOSIG=
202212201230 METAR VIDP 201230Z 00000KT 1500 R28/P2000 R29L/P2000 FU SCT100 16/10 Q1012 NOSIG=
202212201300 METAR VIDP 201300Z 00000KT 1500 R28/P2000 R29L/P2000 FU SCT100 16/11 Q1012 NOSIG=
202212201330 METAR VIDP 201330Z 00000KT 1200 R28/P2000 R29L/P2000 FU SCT100 15/12 Q1013 NOSIG=
202212201400 METAR VIDP 201400Z 00000KT 1200 R28/P2000 R29L/P2000 BR SCT100 15/12 Q1013 NOSIG=
202212201430 METAR VIDP 201430Z 00000KT 1200 R28/P2000 R29L/P2000 BR SCT100 15/12 Q1013 NOSIG=
202212201500 METAR VIDP 201500Z 00000KT 1200 R28/P2000 R29L/P2000 BR SCT100 14/12 Q1013 NOSIG=
202212201530 METAR VIDP 201530Z 00000KT 1200 R28/P2000 R29L/P2000 BR SCT100 14/12 Q1014 NOSIG=
202212201600 METAR VIDP 201600Z 00000KT 1200 R28/P2000 R29L/P2000 BR SCT100 13/11 Q1014 NOSIG=
202212201630 METAR VIDP 201630Z 00000KT 1000 R28/P2000 R29L/P2000 BR SCT100 13/11 Q1014 BECMG 0800 MIFG=
202212201700 METAR VIDP 201700Z 00000KT 0800 R28/P2000 R29L/P2000 MIFG SCT100 13/11 Q1014 NOSIG=
202212201730 METAR VIDP 201730Z 00000KT 0800 R28/P2000 R29L/P2000 MIFG SCT100 12/11 Q1014 NOSIG=
202212201800 METAR VIDP 201800Z 00000KT 0600 R28/P2000 R29L/P2000 MIFG SCT100 12/11 Q1014 NOSIG=
202212201830 METAR VIDP 201830Z 00000KT 0600 R28/P2000 R29L/P2000 MIFG SCT100 12/11 Q1014 NOSIG=
202212201900 METAR VIDP 201900Z 00000KT 0400 R28/P2000 R29L/P2000 FG SCT100 12/11 Q1014 BECMG 0350 FG=
202212201930 METAR VIDP 201930Z 30004KT 0050 R28/0150 R29L/0175 FG VV/// 11/10 Q1014 NOSIG=
202212202000 METAR VIDP 202000Z 30003KT 0050 R28/0950 R29L/0450 FG VV/// 11/11 Q1014 NOSIG=
202212202030 METAR VIDP 202030Z 30003KT 0200 R28/1800 R29L/1300 FG SCT100 11/11 Q1014 BECMG 0350 FG=
202212202100 METAR VIDP 202100Z 00000KT 0400 R28/P2000 R29L/1500 FG SCT100 11/11 Q1014 NOSIG=
202212202130 METAR VIDP 202130Z 00000KT 0400 R28/P2000 R29L/1500 FG SCT100 11/10 Q1014 NOSIG=
202212202200 METAR VIDP 202200Z 00000KT 0400 R28/P2000 R29L/1500 FG SCT100 11/10 Q1014 NOSIG=
202212202230 METAR VIDP 202230Z 00000KT 0500 R28/2000 R29L/1700 MIFG FEW100 11/10 Q1015 BECMG 0600 MIFG=
202212202300 METAR VIDP 202300Z 00000KT 0600 R28/2000 R29L/1700 MIFG FEW100 11/10 Q1015 BECMG 0800 MIFG=
202212202330 METAR VIDP 202330Z 00000KT 0600 R28/2000 R29L/2000 MIFG FEW100 11/10 Q1015 NOSIG=
202212210000 METAR VIDP 210000Z 00000KT 0600 R28/2000 R29L/2000 MIFG FEW100 11/10 Q1015 NOSIG=
202212210030 METAR VIDP 210030Z 00000KT 0600 R28/2000 R29L/2000 MIFG FEW100 10/10 Q1015 NOSIG=
202212210100 METAR VIDP 210100Z 00000KT 0500 R28/2000 R29L/2000 MIFG FEW100 10/10 Q1016 NOSIG=
202212210130 METAR VIDP 210130Z 00000KT 0400 R28/2000 R29L/1200 FG FEW100 10/10 Q1016 BECMG 0350 FG=
202212210200 METAR VIDP 210200Z 00000KT 0400 R28/1600 R29L/1000 FG FEW100 10/10 Q1016 BECMG 0350 FG=
202212210230 METAR VIDP 210230Z 00000KT 0500 R28/1100 R29L/1000 MIFG FEW100 09/08 Q1017 BECMG 0600 FG=
202212210300 METAR VIDP 210300Z 00000KT 0600 R28/1100 R29L/1000 MIFG FEW100 10/08 Q1017 NOSIG=
202212210330 METAR VIDP 210330Z 00000KT 0600 R28/1100 R29L/1100 MIFG NSC 10/09 Q1018 BECMG 0800 MIFG=
202212210400 METAR VIDP 210400Z 05003KT 0800 R28/1100 R29L/1300 MIFG NSC 11/10 Q1018 NOSIG=
202212210430 METAR VIDP 210430Z 03003KT 0800 R28/1200 R29L/1400 MIFG NSC 12/10 Q1018 NOSIG=
202212210500 METAR VIDP 210500Z 03003KT 1000 R28/1400 R29L/1400 BR NSC 13/11 Q1018 NOSIG=
202212210530 METAR VIDP 210530Z 33005KT 1000 R28/1800 R29L/1500 MIFG NSC 14/11 Q1018 NOSIG=
202212210600 METAR VIDP 210600Z 36003KT 1200 R28/1900 R29L/2000 BR NSC 15/11 Q1018 NOSIG=
202212210630 METAR VIDP 210630Z 34004KT 1200 R28/2000 R29L/2000 FU NSC 16/11 Q1017 NOSIG=
202212210700 METAR VIDP 210700Z 30004KT 1200 R28/2000 R29L/2000 FU NSC 17/09 Q1017 BECMG 1500 FU=
202212210730 METAR VIDP 210730Z 34004KT 1500 R28/2000 R29L/2000 FU NSC 18/08 Q1016 NOSIG=
202212210800 METAR VIDP 210800Z 34004KT 1500 R28/2000 R29L/2000 FU NSC 18/08 Q1016 NOSIG=
202212210830 METAR VIDP 210830Z 34004KT 1800 R28/2000 R29L/2000 FU NSC 19/08 Q1015 NOSIG=
202212210900 METAR VIDP 210900Z 30004KT 1800 R28/2000 R29L/2000 FU NSC 19/08 Q1015 NOSIG=
202212210930 METAR VIDP 210930Z 30004KT 1600 R28/2000 R29L/2000 FU NSC 19/07 Q1014 NOSIG=
202212211000 METAR VIDP 211000Z 30005KT 1600 R28/1800 R29L/2000 FU NSC 19/08 Q1014 BECMG 1500 FU=
202212211030 METAR VIDP 211030Z 29005KT 1500 R28///// R29L/2000 FU NSC 19/09 Q1014 NOSIG=
202212211100 METAR VIDP 211100Z 28005KT 1500 R28/1800 R29L/2000 FU NSC 19/09 Q1014 NOSIG=
202212211130 METAR VIDP 211130Z 28004KT 1300 R28///// R29L/1800 FU NSC 18/10 Q1014 NOSIG=
202212211200 METAR VIDP 211200Z 24003KT 1100 R28///// R29L/2000 FU NSC 17/10 Q1014 BECMG 0800 MIFG=
202212211230 METAR VIDP 211230Z 25003KT 1200 R28///// R29L/2000 FU NSC 16/11 Q1014 NOSIG=
202212211300 METAR VIDP 211300Z 28003KT 1200 R28///// R29L/2000 BR NSC 15/12 Q1014 NOSIG=
202212211330 METAR VIDP 211330Z 29003KT 1200 R28/2000 R29L/2000 BR NSC 15/12 Q1015 NOSIG=
202212211400 METAR VIDP 211400Z 28003KT 1200 R28/2000 R29L/2000 BR NSC 15/12 Q1015 NOSIG=
202212211430 METAR VIDP 211430Z 30003KT 1200 R28/2000 R29L/2000 BR NSC 14/11 Q1015 NOSIG=
202212211500 METAR VIDP 211500Z 27003KT 1200 R28/2000 R29L/2000 BR NSC 14/11 Q1015 NOSIG=
202212211530 METAR VIDP 211530Z 00000KT 1000 R28/2000 R29L/2000 BR NSC 14/11 Q1015 NOSIG=
202212211600 METAR VIDP 211600Z VRB02KT 1000 R28/2000 R29L/2000 BR NSC 14/11 Q1015 NOSIG=
202212211630 METAR VIDP 211630Z VRB02KT 1000 R28/2000 R29L/2000 BR NSC 13/11 Q1016 NOSIG=
202212211700 METAR VIDP 211700Z VRB02KT 0900 R28/2000 R29L/2000 MIFG NSC 13/11 Q1016 BECMG 0800 MIFG=
202212211730 METAR VIDP 211730Z VRB02KT 0900 R28/2000 R29L/1700 MIFG NSC 12/11 Q1016 BECMG 0800 MIFG=
202212211800 METAR VIDP 211800Z VRB02KT 0800 R28/2000 R29L/1600 MIFG NSC 12/11 Q1016 NOSIG=
202212211830 METAR VIDP 211830Z VRB02KT 0800 R28/2000 R29L/1200 MIFG NSC 12/11 Q1016 BECMG 0600 MIFG=
202212211900 METAR VIDP 211900Z VRB02KT 0700 R28/2000 R29L/1400 MIFG NSC 12/12 Q1015 BECMG 0600 MIFG=
202212211930 METAR VIDP 211930Z VRB02KT 0400 R28/2000 R29L/1300 FG NSC 12/12 Q1015 BECMG 0350 FG=
202212212000 METAR VIDP 212000Z 31003KT 0100 R28/0550 R29L/0750 FG VV/// 10/10 Q1015 NOSIG=
202212212030 METAR VIDP 212030Z 33004KT 0100 R28/1300 R29L/1200 FG VV/// 10/10 Q1015 NOSIG=
202212212100 METAR VIDP 212100Z VRB02KT 0100 R28/2000 R29L/1300 FG VV/// 10/10 Q1015 NOSIG=
202212212130 METAR VIDP 212130Z VRB02KT 0200 R28/2000 R29L/2000 FG VV/// 09/09 Q1015 NOSIG=
202212212200 METAR VIDP 212200Z VRB02KT 0300 R28/2000 R29L/2000 FG VV/// 09/09 Q1015 BECMG 0350 FG=
202212212205 METAR VIDP NIL=
202212212230 METAR VIDP 212230Z 31004KT 0500 R28/2000 R29L/2000 MIFG NSC 09/09 Q1015 BECMG 0600 MIFG=
202212212300 METAR VIDP 212300Z 30005KT 0600 R28/2000 R29L/2000 MIFG NSC 09/09 Q1015 NOSIG=
202212212330 METAR VIDP 212330Z 28004KT 0600 R28/1600 R29L/2000 MIFG NSC 09/09 Q1015 NOSIG=
202212220000 METAR VIDP 220000Z 27004KT 0600 R28/2000 R29L/2000 MIFG NSC 09/09 Q1015 NOSIG=
202212220030 METAR VIDP 220030Z 27004KT 0400 R28/2000 R29L/1700 FG VV/// 08/08 Q1015 BECMG 0350 FG=
202212220100 METAR VIDP 220100Z 28003KT 0350 R28/2000 R29L/1800 FG VV/// 08/08 Q1015 NOSIG=
202212220130 METAR VIDP 220130Z 29004KT 0200 R28/2000 R29L/2000 FG VV/// 08/08 Q1016 BECMG 0150 FG=
202212220200 METAR VIDP 220200Z 29004KT 0250 R28/1800 R29L/1200 FG VV/// 08/08 Q1016 NOSIG=
202212220230 METAR VIDP 220230Z 30003KT 0300 R28/2000 R29L/1500 FG VV/// 09/09 Q1016 BECMG 0350 FG=
202212220300 METAR VIDP 220300Z 32003KT 0500 R28/2000 R29L/1400 FG VV/// 09/09 Q1017 BECMG 0600 MIFG=
202212220330 METAR VIDP 220330Z 32003KT 0500 R28/2000 R29L/1400 FG VV/// 09/09 Q1017 BECMG 0600 MIFG=
202212220400 METAR VIDP 220400Z 29003KT 0700 R28/1800 R29L/2000 MIFG NSC 10/10 Q1018 BECMG 0800 MIFG=
202212220430 METAR VIDP 220430Z 28004KT 0800 R28/1900 R29L/2000 MIFG NSC 11/10 Q1017 NOSIG=
202212220500 METAR VIDP 220500Z 30004KT 0800 R28/2000 R29L/2000 MIFG NSC 11/10 Q1017 NOSIG=
202212220530 METAR VIDP 220530Z 32004KT 0800 R28/2000 R29L/2000 MIFG NSC 12/09 Q1017 NOSIG=
202212220600 METAR VIDP 220600Z 29005KT 1000 R28/1900 R29L/2000 MIFG NSC 13/08 Q1017 NOSIG=
202212220630 METAR VIDP 220630Z 29004KT 1200 R28/1900 R29L/2000 FU NSC 14/09 Q1016 NOSIG=
202212220700 METAR VIDP 220700Z 31004KT 1200 R28/2000 R29L/2000 FU NSC 15/08 Q1016 NOSIG=
202212220730 METAR VIDP 220730Z 29004KT 1300 R28/2000 R29L/2000 FU NSC 16/08 Q1015 BECMG 1500 FU=
202212220800 METAR VIDP 220800Z 31004KT 1500 R28/2000 R29L/2000 FU NSC 16/08 Q1015 NOSIG=
202212220830 METAR VIDP 220830Z 30003KT 1800 R28/2000 R29L/2000 FU NSC 17/09 Q1015 NOSIG=
202212220900 METAR VIDP 220900Z 32003KT 1800 R28/2000 R29L/2000 FU NSC 18/10 Q1015 NOSIG=
202212220930 METAR VIDP 220930Z 30004KT 2200 FU NSC 18/09 Q1014 NOSIG=
202212221000 METAR VIDP 221000Z 27003KT 2200 FU NSC 19/09 Q1014 NOSIG=
202212221030 METAR VIDP 221030Z 30004KT 2200 FU NSC 18/09 Q1014 NOSIG=
202212221100 METAR VIDP 221100Z 27003KT 2200 FU NSC 18/09 Q1014 NOSIG=
202212221130 METAR VIDP 221130Z 27004KT 1600 R28/P2000 R29L/P2000 FU NSC 16/09 Q1013 NOSIG=
202212221200 METAR VIDP 221200Z 27003KT 1500 R28/P2000 R29L/P2000 FU NSC 15/10 Q1013 NOSIG=
202212221205 METAR VIDP NIL=
202212221230 METAR VIDP 221230Z 25003KT 1500 R28/P2000 R29L/P2000 BR NSC 14/10 Q1013 NOSIG=
202212221300 METAR VIDP 221300Z 32003KT 1500 R28/P2000 R29L/P2000 BR NSC 13/10 Q1014 NOSIG=
202212221330 METAR VIDP 221330Z 00000KT 1500 R28/P2000 R29L/P2000 BR NSC 13/10 Q1014 NOSIG=
202212221400 METAR VIDP 221400Z 00000KT 1500 R28/P2000 R29L/P2000 BR NSC 13/10 Q1014 NOSIG=
202212221430 METAR VIDP 221430Z 00000KT 1300 R28/1900 R29L/P2000 BR NSC 13/10 Q1014 NOSIG=
202212221500 METAR VIDP 221500Z 00000KT 1300 R28/P2000 R29L/P2000 BR NSC 13/10 Q1014 NOSIG=
202212221530 METAR VIDP 221530Z 00000KT 1300 R28/1800 R29L/P2000 BR NSC 13/11 Q1014 NOSIG=
202212221600 METAR VIDP 221600Z 00000KT 1200 R28/1800 R29L/P2000 BR NSC 12/10 Q1015 BECMG 0800 MIFG=
202212221630 METAR VIDP 221630Z 25003KT 0800 R28/1500 R29L/P2000 BR NSC 12/10 Q1014 NOSIG=
202212221700 METAR VIDP 221700Z 00000KT 0700 R28/1500 R29L/2000 MIFG NSC 11/09 Q1015 BECMG 0600 MIFG=
202212221730 METAR VIDP 221730Z 00000KT 0500 R28/1500 R29L/1700 MIFG NSC 11/09 Q1015 NOSIG=
202212221800 METAR VIDP 221800Z 00000KT 0500 R28/1500 R29L/1400 MIFG NSC 11/10 Q1015 BECMG 0350 FG=
202212221830 METAR VIDP 221830Z 00000KT 0500 R28/1500 R29L/1400 MIFG NSC 10/09 Q1014 BECMG 0350 FG=
202212221900 METAR VIDP 221900Z 00000KT 0500 R28/1500 R29L/1400 MIFG NSC 10/09 Q1014 BECMG 0350 FG=
202212221930 METAR VIDP 221930Z 00000KT 0300 R28/2000 R29L/1000 FG NSC 10/10 Q1014 NOSIG=
202212222000 METAR COR VIDP 222000Z 00000KT 0200 R28/2000 R29L/0500 FG NSC 09/09 Q1014 BECMG 0150 FG=
202212222030 METAR VIDP 222030Z 00000KT 0150 R28/2000 R29L/0600 FG VV/// 09/09 Q1014 NOSIG=
202212222100 METAR VIDP 222100Z 00000KT 0100 R28/2000 R29L/0300 FG VV/// 08/08 Q1014 NOSIG=
202212222130 METAR VIDP 222130Z 00000KT 0050 R28/2000 R29L/0200 FG VV/// 08/08 Q1014 NOSIG=
202212222200 METAR VIDP 222200Z 00000KT 0000 R28/0075 R29L/0150 FG VV/// 08/08 Q1014 NOSIG=
202212222230 METAR VIDP 222230Z 00000KT 0000 R28/0125 R29L/0200 FG VV/// 09/09 Q1014 NOSIG=
202212222300 METAR VIDP 222300Z 32003KT 0050 R28/0175 R29L/0600 FG VV/// 09/09 Q1014 BECMG 0150 FG=
202212222330 METAR VIDP 222330Z 30003KT 0200 R28/0600 R29L/2000 FG VV/// 09/09 Q1014 BECMG 0350 FG=
202212230000 METAR VIDP 230000Z 36003KT 0200 R28/0700 R29L/1700 FG VV/// 08/08 Q1014 BECMG 0350 FG=
202212230030 METAR VIDP 230030Z 34004KT 0350 R28/1100 R29L/2000 FG VV/// 08/08 Q1014 NOSIG=
202212230100 METAR VIDP 230100Z 00000KT 0400 R28/1200 R29L/1800 FG VV/// 08/08 Q1014 NOSIG=
202212230130 METAR VIDP 230130Z 05003KT 0500 R28/1200 R29L/1900 MIFG NSC 08/08 Q1015 BECMG 0600 MIFG=
202212230200 METAR VIDP 230200Z 05003KT 0600 R28/1200 R29L/1500 MIFG NSC 08/08 Q1015 NOSIG=
202212230230 METAR VIDP 230230Z 01003KT 0400 R28/0750 R29L/1200 FG NSC 08/08 Q1015 NOSIG=
202212230300 METAR VIDP 230300Z 05003KT 0500 R28/1200 R29L/1100 FG NSC 08/08 Q1015 BECMG 0600 MIFG=
202212230330 METAR VIDP 230330Z 03003KT 0500 R28/1400 R29L/1200 FG NSC 09/08 Q1016 BECMG 0600 MIFG=
202212230400 METAR VIDP 230400Z 05003KT 0600 R28/1400 R29L/1500 MIFG NSC 09/08 Q1016 BECMG 0800 MIFG=
202212230430 METAR VIDP 230430Z 05003KT 0700 R28/1600 R29L/2000 MIFG NSC 10/09 Q1016 BECMG 0800 MIFG=
202212230500 METAR VIDP 230500Z 05003KT 0800 R28/1800 R29L/2000 MIFG NSC 11/10 Q1016 NOSIG=
202212230530 METAR VIDP 230530Z 00000KT 0900 R28/1800 R29L/P2000 MIFG NSC 13/12 Q1016 NOSIG=
202212230600 METAR VIDP 230600Z 31002KT 1000 R28/1800 R29L/2000 MIFG NSC 15/12 Q1016 NOSIG=
202212230630 METAR VIDP 230630Z 27003KT 1100 R28/1700 R29L/P2000 HZ NSC 16/10 Q1015 NOSIG=
202212230700 METAR VIDP 230700Z 33003KT 1200 R28/1900 R29L/P2000 HZ NSC 17/09 Q1014 NOSIG=
202212230730 METAR VIDP 230730Z 32003KT 1200 R28/1700 R29L/P2000 HZ NSC 18/08 Q1014 NOSIG=
202212230800 METAR VIDP 230800Z 36002KT 1500 R28/1600 R29L/P2000 HZ NSC 18/08 Q1014 NOSIG=
202212230830 METAR VIDP 230830Z 30004KT 1500 R28/2000 R29L/1800 HZ NSC 19/07 Q1013 NOSIG=
202212230900 METAR VIDP 230900Z 30005KT 1500 R28/2000 R29L/2000 HZ NSC 19/06 Q1013 NOSIG=
202212230930 METAR VIDP 230930Z 31003KT 1500 R28/2000 R29L/2000 HZ FEW100 19/06 Q1013 NOSIG=
202212231000 METAR VIDP 231000Z 35003KT 1500 R28/2000 R29L/2000 HZ FEW100 19/06 Q1013 NOSIG=
202212231030 METAR VIDP 231030Z 30004KT 1500 R28/2000 R29L/2000 HZ NSC 19/06 Q1013 NOSIG=
202212231100 METAR VIDP 231100Z 30005KT 1500 R28/2000 R29L/2000 HZ NSC 18/06 Q1013 NOSIG=
202212231130 METAR VIDP 231130Z 28003KT 1500 R28/2000 R29L/2000 HZ NSC 17/07 Q1012 NOSIG=
202212231200 METAR VIDP 231200Z 29004KT 1500 R28/2000 R29L/2000 HZ NSC 16/07 Q1013 NOSIG=
202212231230 METAR VIDP 231230Z 30003KT 1500 R28/2000 R29L/2000 HZ NSC 16/08 Q1013 NOSIG=
202212231300 METAR VIDP 231300Z 30003KT 1500 R28/2000 R29L/2000 HZ NSC 16/07 Q1013 NOSIG=
202212231330 METAR VIDP 231330Z 32003KT 1500 R28/2000 R29L/2000 HZ NSC 15/08 Q1013 NOSIG=
202212231400 METAR VIDP 231400Z 33003KT 1500 R28/2000 R29L/2000 HZ NSC 14/09 Q1014 NOSIG=
202212231430 METAR VIDP 231430Z 36003KT 1500 R28/2000 R29L/2000 HZ NSC 14/09 Q1014 NOSIG=
202212231500 METAR VIDP 231500Z 36003KT 1500 R28/2000 R29L/2000 BR FEW035 14/10 Q1014 NOSIG=
202212231530 METAR VIDP 231530Z 02003KT 1500 R28/1800 R29L/2000 BR FEW035 14/11 Q1014 NOSIG=
202212231600 METAR VIDP 231600Z 36003KT 1500 R28/1800 R29L/2000 BR FEW035 14/12 Q1014 NOSIG=
202212231630 METAR VIDP 231630Z 36003KT 1500 R28/1600 R29L/2000 BR FEW035 13/11 Q1015 NOSIG=
202212231700 METAR VIDP 231700Z 34003KT 1500 R28/1500 R29L/2000 BR FEW035 13/11 Q1015 NOSIG=
202212231730 METAR VIDP 231730Z 03003KT 1500 R28/1400 R29L/2000 BR FEW035 13/11 Q1015 NOSIG=
202212231800 METAR VIDP 231800Z 03003KT 1200 R28/1300 R29L/2000 BR FEW035 12/11 Q1015 NOSIG=
202212231830 METAR VIDP 231830Z 00000KT 1100 R28/1200 R29L/2000 BR NSC 12/11 Q1015 NOSIG=
202212231900 METAR VIDP 231900Z 32004KT 1000 R28/1200 R29L/2000 MIFG NSC 11/11 Q1015 NOSIG=
202212231930 METAR VIDP 231930Z 00000KT 1000 R28/1300 R29L/2000 MIFG NSC 11/11 Q1015 NOSIG=
202212232000 METAR VIDP 232000Z 00000KT 1000 R28/1400 R29L/1700 MIFG NSC 11/11 Q1015 NOSIG=
202212232030 METAR VIDP 232030Z 00000KT 0900 R28/1500 R29L/1400 MIFG NSC 11/10 Q1014 BECMG 0800 MIFG=
202212232100 METAR VIDP 232100Z 00000KT 0800 R28/1600 R29L/1400 MIFG NSC 11/10 Q1015 NOSIG=
202212232130 METAR VIDP 232130Z 00000KT 0800 R28/1500 R29L/1300 MIFG NSC 11/10 Q1015 NOSIG=
202212232200 METAR VIDP 232200Z 25003KT 0800 R28/1600 R29L/1400 MIFG NSC 11/10 Q1015 NOSIG=
202212232230 METAR VIDP 232230Z 23002KT 0800 R28/1200 R29L/1200 MIFG NSC 10/10 Q1015 NOSIG=
202212232300 METAR VIDP 232300Z 25002KT 0700 R28/1700 R29L/1000 MIFG NSC 10/09 Q1015 BECMG 0600 MIFG=
202212232330 METAR VIDP 232330Z 26003KT 0200 R28/1500 R29L/0125 FG VV/// 09/09 Q1015 BECMG 0150 FG=
202212240000 METAR VIDP 240000Z 26003KT 0100 R28/0125 R29L/0175 FG VV/// 08/07 Q1015 NOSIG=
202212240005 METAR VIDP NIL=
202212240030 METAR VIDP 240030Z 24003KT 0100 R28/0200 R29L/0175 FG VV/// 07/07 Q1015 NOSIG=
202212240100 METAR VIDP 240100Z 25003KT 0100 R28/0325 R29L/0200 FG VV/// 07/07 Q1015 BECMG 0150 FG=
202212240130 METAR VIDP 240130Z 25004KT 0150 R28/0150 R29L/0200 FG VV/// 07/07 Q1016 NOSIG=
202212240200 METAR VIDP 240200Z 24004KT 0150 R28/0350 R29L/0200 FG FEW100 07/07 Q1016 NOSIG=
202212240230 METAR VIDP 240230Z 24004KT 0100 R28/0450 R29L/0200 FG FEW100 07/07 Q1016 NOSIG=
202212240300 METAR VIDP 240300Z 25005KT 0100 R28/0600 R29L/0400 FG FEW100 07/07 Q1017 BECMG 0150 FG=
202212240330 METAR VIDP 240330Z 25005KT 0300 R28/1200 R29L/0600 FG FEW100 07/07 Q1017 BECMG 0350 FG=
202212240400 METAR VIDP 240400Z 25005KT 0500 R28/2000 R29L/1400 FG FEW100 08/07 Q1017 TEMPO 0600 MIFG=
202212240430 METAR VIDP 240430Z 26006KT 0700 R28/2000 R29L/2000 MIFG FEW100 09/08 Q1018 BECMG 0800 MIFG=
202212240500 METAR VIDP 240500Z 26007KT 1200 R28/2000 R29L/2000 BR FEW100 10/08 Q1018 BECMG 1500 BR=
202212240530 METAR VIDP 240530Z 26006KT 1400 R28/2000 R29L/2000 BR FEW100 12/10 Q1018 BECMG 1500 BR=
202212240600 METAR VIDP 240600Z 27005KT 1500 R28/2000 R29L/2000 BR FEW100 13/09 Q1018 NOSIG=
202212240630 METAR VIDP 240630Z 28005KT 1500 R28/2000 R29L/2000 HZ FEW100 14/08 Q1017 NOSIG=
202212240700 METAR VIDP 240700Z 28005KT 1500 R28/2000 R29L/2000 HZ FEW100 15/08 Q1017 NOSIG=
202212240730 METAR VIDP 240730Z 28004KT 1700 R28/2000 R29L/2000 HZ FEW100 16/08 Q1017 NOSIG=
202212240800 METAR VIDP 240800Z 27005KT 2100 FU FEW100 17/08 Q1016 NOSIG=
202212240830 METAR VIDP 240830Z 27005KT 2200 FU FEW100 16/07 Q1016 NOSIG=
202212240900 METAR VIDP 240900Z 29007KT 2200 FU NSC 17/07 Q1016 NOSIG=
202212240930 METAR VIDP 240930Z 28006KT 2200 FU NSC 17/07 Q1015 NOSIG=
202212241000 METAR VIDP 241000Z 29007KT 2200 HZ NSC 17/06 Q1015 NOSIG=
202212241030 METAR VIDP 241030Z 27007KT 2500 HZ NSC 17/05 Q1015 NOSIG=
202212241100 METAR VIDP 241100Z 29007KT 2500 HZ NSC 16/05 Q1015 NOSIG=
202212241130 METAR VIDP 241130Z 28005KT 2200 FU NSC 16/06 Q1015 NOSIG=
202212241200 METAR VIDP 241200Z 27004KT 2200 FU NSC 15/07 Q1015 NOSIG=
202212241230 METAR VIDP 241230Z 26003KT 2200 FU NSC 14/08 Q1015 NOSIG=
202212241300 METAR VIDP 241300Z 25003KT 2300 HZ NSC 13/08 Q1015 NOSIG=
202212241330 METAR VIDP 241330Z 25003KT 2300 HZ NSC 13/08 Q1015 NOSIG=
202212241400 METAR VIDP 241400Z 24003KT 2200 BR NSC 13/09 Q1015 NOSIG=
202212241430 METAR VIDP 241430Z 25003KT 2200 BR NSC 13/10 Q1016 NOSIG=
202212241500 METAR VIDP 241500Z 27004KT 2100 BR NSC 12/09 Q1017 NOSIG=
202212241530 METAR VIDP 241530Z 26004KT 1800 R28/P2000 R29L/P2000 BR NSC 11/09 Q1017 BECMG 1500 BR=
202212241600 METAR VIDP 241600Z 24003KT 1500 R28/P2000 R29L/P2000 BR NSC 11/09 Q1017 NOSIG=
202212241605 METAR VIDP NIL=
202212241630 METAR VIDP 241630Z 26002KT 1500 R28/P2000 R29L/P2000 BR NSC 11/09 Q1017 NOSIG=
202212241700 METAR VIDP 241700Z 27002KT 1500 R28/P2000 R29L/P2000 BR NSC 10/09 Q1017 NOSIG=
202212241730 METAR VIDP 241730Z 27003KT 1500 R28/P2000 R29L/P2000 BR NSC 10/09 Q1017 NOSIG=
202212241800 METAR VIDP 241800Z 25002KT 1200 R28/P2000 R29L/P2000 BR NSC 10/09 Q1017 NOSIG=
202212241830 METAR VIDP 241830Z 27004KT 1200 R28/P2000 R29L/P2000 BR NSC 09/08 Q1017 NOSIG=
202212241900 METAR VIDP 241900Z 27004KT 0900 R28/P2000 R29L/P2000 MIFG NSC 09/09 Q1016 BECMG 0800 MIFG=
202212241930 METAR VIDP 241930Z 27004KT 0800 R28/P2000 R29L/P2000 MIFG NSC 09/08 Q1016 BECMG 0600 MIFG=
202212242000 METAR VIDP 242000Z 27004KT 0400 R28/P2000 R29L/1700 FG NSC 08/08 Q1016 BECMG 0350 MIFG=
202212242030 METAR VIDP 242030Z 27005KT 0300 R28/P2000 R29L/0800 FG NSC 08/08 Q1016 BECMG 0150 FG=
202212242100 METAR VIDP 242100Z 30004KT 0300 R28/P2000 R29L/0375 FG NSC 08/08 Q1016 BECMG 0150 FG=
202212242130 METAR VIDP 242130Z 30004KT 0300 R28/P2000 R29L/0950 FG NSC 08/08 Q1016 NOSIG=
202212242200 METAR VIDP 242200Z 31004KT 0300 R28/2000 R29L/0950 FG NSC 08/08 Q1016 NOSIG=
202212242205 METAR VIDP NIL=
202212242230 METAR VIDP 242230Z 29005KT 0300 R28/P2000 R29L/P2000 FG NSC 08/08 Q1016 BECMG 0350 FG=
202212242300 METAR VIDP 242300Z 26005KT 0500 R28/P2000 R29L/P2000 FG NSC 08/08 Q1016 NOSIG=
202212242330 METAR VIDP 242330Z 28006KT 0500 R28/P2000 R29L/P2000 FG NSC 08/08 Q1016 NOSIG=
202212250000 METAR VIDP 250000Z 27006KT 0500 R28/P2000 R29L/P2000 FG NSC 08/08 Q1016 NOSIG=
202212250030 METAR VIDP 250030Z 28006KT 0500 R28/P2000 R29L/P2000 FG NSC 07/07 Q1016 NOSIG=
202212250100 METAR VIDP 250100Z 26005KT 0500 R28/P2000 R29L/P2000 FG NSC 07/07 Q1016 NOSIG=
202212250130 METAR VIDP 250130Z 27006KT 0500 R28/P2000 R29L/P2000 FG NSC 07/07 Q1016 NOSIG=
202212250200 METAR VIDP 250200Z 26006KT 0500 R28/1800 R29L/1800 MIFG NSC 06/06 Q1017 NOSIG=
202212250230 METAR VIDP 250230Z 26006KT 0500 R28/1800 R29L/1800 MIFG NSC 06/06 Q1018 BECMG 0600 MIFG=
202212250300 METAR VIDP 250300Z 27006KT 0700 R28/1300 R29L/1200 MIFG NSC 06/06 Q1018 NOSIG=
202212250330 METAR VIDP 250330Z 24007KT 0700 R28/1150 R29L/1050 MIFG NSC 07/07 Q1018 BECMG 0800 MIFG=
202212250400 METAR VIDP 250400Z 25007KT 0800 R28/1400 R29L/1150 MIFG NSC 07/07 Q1019 NOSIG=
202212250430 METAR VIDP 250430Z 27007KT 1000 R28/1400 R29L/1200 BR NSC 07/07 Q1019 NOSIG=
202212250500 METAR VIDP 250500Z 27009KT 1000 R28/1400 R29L/1300 BR NSC 07/07 Q1019 NOSIG=
202212250530 METAR VIDP 250530Z 26008KT 1200 R28///// R29L/1400 BR NSC 09/09 Q1019 BECMG 1500 BR=
202212250600 METAR VIDP 250600Z 27006KT 1200 R28///// R29L/1900 BR FEW040 10/10 Q1018 BECMG 1500 BR=
202212250630 METAR VIDP 250630Z 27007KT 1200 R28/1800 R29L/2000 BR FEW040 11/10 Q1018 BECMG 1500 BR=
202212250700 METAR VIDP 250700Z 25006KT 1500 R28/2000 R29L/1700 BR NSC 12/12 Q1017 NOSIG=
202212250730 METAR VIDP 250730Z 26007KT 1500 R28///// R29L/1500 BR NSC 12/12 Q1017 NOSIG=
202212250800 METAR VIDP 250800Z 27006KT 1500 R28/2000 R29L/1500 BR FEW100 13/11 Q1016 NOSIG=
202212250830 METAR VIDP 250830Z 29006KT 1500 R28/2000 R29L/1900 BR NSC 13/10 Q1016 NOSIG=
202212250900 METAR VIDP 250900Z 28006KT 1500 R28/2000 R29L/1900 BR SCT100 14/10 Q1016 NOSIG=
202212250905 METAR VIDP NIL=
202212250930 METAR VIDP 250930Z 28006KT 1500 R28///// R29L/2000 BR FEW100 14/10 Q1016 NOSIG=
202212251000 METAR VIDP 251000Z 27006KT 1500 R28/2000 R29L/2000 FU FEW100 15/10 Q1016 NOSIG=
202212251030 METAR VIDP 251030Z 30005KT 1500 R28/2000 R29L/1800 FU FEW100 15/10 Q1015 NOSIG=
202212251100 METAR VIDP 251100Z 29004KT 1500 R28/2000 R29L/2000 FU FEW100 15/10 Q1015 NOSIG=
202212251130 METAR VIDP 251130Z 31003KT 1500 R28/2000 R29L/2000 BR FEW100 14/10 Q1015 NOSIG=
202212251200 METAR VIDP 251200Z 30004KT 1500 R28/2000 R29L/2000 BR FEW100 14/10 Q1016 NOSIG=
202212251230 METAR VIDP 251230Z 29004KT 1800 R28/2000 R29L/2000 BR FEW100 13/09 Q1016 NOSIG=
202212251300 METAR VIDP 251300Z 30005KT 2000 BR FEW100 12/08 Q1016 NOSIG=
202212251330 METAR VIDP 251330Z 29003KT 2000 BR FEW100 12/08 Q1017 NOSIG=
202212251400 METAR VIDP 251400Z 25003KT 2000 BR FEW100 12/08 Q1017 NOSIG=
202212251430 METAR VIDP 251430Z 28004KT 2000 BR FEW100 11/08 Q1017 NOSIG=
202212251500 METAR VIDP 251500Z 30004KT 2000 BR NSC 11/08 Q1017 NOSIG=
202212251530 METAR VIDP 251530Z 28004KT 2000 BR NSC 11/08 Q1017 NOSIG=
202212251600 METAR VIDP 251600Z 28004KT 1800 R28/2000 R29L/2000 BR NSC 10/08 Q1017 NOSIG=
202212251630 METAR VIDP 251630Z 28003KT 1600 R28/2000 R29L/2000 BR NSC 09/09 Q1017 BECMG 1500 BR=
202212251700 METAR VIDP 251700Z 25004KT 1200 R28/2000 R29L/2000 BR NSC 09/09 Q1017 NOSIG=
202212251730 METAR VIDP 251730Z 25004KT 1200 R28/2000 R29L/2000 BR NSC 09/09 Q1017 NOSIG=
202212251800 METAR VIDP 251800Z 25003KT 1000 R28/2000 R29L/2000 BR NSC 08/08 Q1017 BECMG 0800 BR=
202212251830 METAR VIDP 251830Z 00000KT 0700 R28/1600 R29L/1800 MIFG NSC 07/07 Q1017 BECMG 0600 MIFG=
202212251900 METAR VIDP 251900Z 26003KT 0400 R28/1700 R29L/1600 FG NSC 07/07 Q1017 BECMG 0350 FG=
202212251930 METAR VIDP 251930Z 26003KT 0400 R28/1600 R29L/1600 FG NSC 07/07 Q1017 NOSIG=
202212252000 METAR VIDP 252000Z 23004KT 0400 R28/1700 R29L/1300 FG NSC 07/07 Q1016 NOSIG=
202212252030 METAR VIDP 252030Z 26003KT 0400 R28/1700 R29L/1700 FG NSC 07/07 Q1017 BECMG 0350 FG=
202212252100 METAR VIDP 252100Z 27003KT 0200 R28/1500 R29L/1200 FG NSC 07/07 Q1017 TEMPO 0150 FG=
202212252130 METAR VIDP 252130Z 27003KT 0200 R28/0800 R29L/0725 FG NSC 08/08 Q1017 TEMPO 0150 FG=
202212252200 METAR COR VIDP 252200Z 28004KT 0100 R28/0650 R29L/0650 FG VV/// 08/08 Q1017 NOSIG=
202212252230 METAR VIDP 252230Z 28004KT 0100 R28/0525 R29L/0350 FG VV/// 08/08 Q1016 NOSIG=
202212252300 METAR VIDP 252300Z 30004KT 0100 R28/0625 R29L/0575 FG VV/// 07/07 Q1016 NOSIG=
202212252330 METAR VIDP 252330Z 30005KT 0100 R28/1200 R29L/0800 FG VV/// 07/07 Q1016 NOSIG=
202212260000 METAR VIDP 260000Z 29004KT 0200 R28/1500 R29L/0650 FG VV/// 07/07 Q1017 NOSIG=
202212260030 METAR VIDP 260030Z 30006KT 0200 R28/1400 R29L/1100 FG VV/// 07/07 Q1017 NOSIG=
202212260100 METAR VIDP 260100Z 28005KT 0200 R28/1400 R29L/0950 FG VV/// 07/07 Q1018 NOSIG=
202212260130 METAR VIDP 260130Z 28005KT 0200 R28/1100 R29L/0550 FG VV/// 07/07 Q1018 NOSIG=
202212260200 METAR VIDP 260200Z 27005KT 0200 R28/0700 R29L/0400 FG VV/// 07/07 Q1018 NOSIG=
202212260230 METAR VIDP 260230Z 30004KT 0200 R28/1200 R29L/0450 FG VV/// 07/07 Q1019 TEMPO 0150 FG=
202212260300 METAR VIDP 260300Z 27005KT 0200 R28/1000 R29L/0550 FG VV/// 07/07 Q1019 NOSIG=
202212260330 METAR VIDP 260330Z 27005KT 0200 R28/1300 R29L/0700 FG NSC 07/07 Q1020 NOSIG=
202212260400 METAR VIDP 260400Z 30003KT 0200 R28/1200 R29L/0900 FG NSC 07/07 Q1020 NOSIG=
202212260430 METAR VIDP 260430Z 30004KT 0300 R28/1300 R29L/1050 FG NSC 08/07 Q1020 NOSIG=
202212260500 METAR VIDP 260500Z 30004KT 0300 R28/1400 R29L/1300 FG NSC 08/08 Q1020 BECMG 0350 FG=
202212260530 METAR VIDP 260530Z 34002KT 0500 R28/1600 R29L/1300 FG NSC 09/09 Q1020 BECMG 0600 MIFG=
202212260600 METAR VIDP 260600Z 00000KT 0600 R28/1900 R29L/1500 MIFG NSC 10/10 Q1020 NOSIG=
202212260630 METAR VIDP 260630Z 32003KT 0700 R28/1900 R29L/1600 MIFG NSC 11/11 Q1020 BECMG 0800 MIFG=
202212260700 METAR VIDP 260700Z 32004KT 0800 R28/2000 R29L/1400 MIFG NSC 12/11 Q1020 NOSIG=
202212260730 METAR VIDP 260730Z 27005KT 0800 R28/1800 R29L/1500 MIFG NSC 12/11 Q1019 NOSIG=
202212260800 METAR VIDP 260800Z 28005KT 0800 R28/1900 R29L/1400 MIFG NSC 12/11 Q1019 NOSIG=
202212260830 METAR VIDP 260830Z 27005KT 0800 R28/1800 R29L/1500 MIFG NSC 12/11 Q1018 NOSIG=
202212260900 METAR VIDP 260900Z 28005KT 0800 R28/1700 R29L/1400 MIFG NSC 12/11 Q1018 NOSIG=
202212260930 METAR VIDP 260930Z 27005KT 1000 R28/P2000 R29L/1400 BR NSC 13/12 Q1018 NOSIG=
202212261000 METAR VIDP 261000Z 28004KT 1000 R28/P2000 R29L/1400 BR NSC 13/11 Q1018 NOSIG=
202212261030 METAR VIDP 261030Z 30004KT 1200 R28/P2000 R29L/1500 BR NSC 13/11 Q1018 BECMG 1500 BR=
202212261100 METAR VIDP 261100Z 27004KT 1500 R28/P2000 R29L/1600 BR NSC 13/11 Q1018 NOSIG=
202212261130 METAR VIDP 261130Z 27005KT 1200 R28/P2000 R29L/1800 BR NSC 12/10 Q1018 NOSIG=
202212261200 METAR VIDP 261200Z 25005KT 1200 R28/P2000 R29L/2000 BR NSC 10/09 Q1018 NOSIG=
202212261230 METAR VIDP 261230Z 26004KT 1200 R28/P2000 R29L/P2000 BR NSC 09/08 Q1018 NOSIG=
202212261300 METAR VIDP 261300Z 27005KT 1000 R28/P2000 R29L/P2000 BR NSC 09/08 Q1019 NOSIG=
202212261330 METAR VIDP 261330Z 00000KT 1000 R28/P2000 R29L/P2000 BR NSC 09/08 Q1019 BECMG 0800 MIFG=
202212261400 METAR VIDP 261400Z 00000KT 0700 R28/2000 R29L/1600 MIFG NSC 08/08 Q1019 BECMG 0600 MIFG=
202212261430 METAR VIDP 261430Z 27003KT 0700 R28/2000 R29L/1200 MIFG NSC 09/08 Q1019 BECMG 0600 MIFG=
202212261500 METAR VIDP 261500Z 27003KT 0600 R28/2000 R29L/1400 MIFG NSC 09/08 Q1020 NOSIG=
202212261530 METAR VIDP 261530Z 26004KT 0500 R28/2000 R29L/1000 MIFG NSC 08/08 Q1020 TEMPO 0350 FG=
202212261600 METAR VIDP 261600Z 27003KT 0400 R28/2000 R29L/1200 FG NSC 08/08 Q1020 TEMPO 0350 FG=
202212261630 METAR VIDP 261630Z 27004KT 0250 R28/2000 R29L/0300 FG NSC 07/07 Q1020 NOSIG=
202212261700 METAR VIDP 261700Z 27005KT 0200 R28/2000 R29L/0200 FG NSC 07/07 Q1020 NOSIG=
202212261730 METAR VIDP 261730Z 27005KT 0200 R28/0500 R29L/0500 FG NSC 07/07 Q1020 TEMPO 0150 FG=
202212261800 METAR VIDP 261800Z 25003KT 0100 R28/0450 R29L/0200 FG VV/// 07/07 Q1020 NOSIG=
202212261830 METAR VIDP 261830Z 27003KT 0100 R28/0300 R29L/0200 FG VV/// 07/07 Q1020 NOSIG=
202212261900 METAR VIDP 261900Z 26004KT 0100 R28/0300 R29L/0200 FG VV/// 07/07 Q1019 NOSIG=
202212261930 METAR VIDP 261930Z 27005KT 0100 R28/0300 R29L/0200 FG VV/// 07/07 Q1019 NOSIG=
202212262000 METAR VIDP 262000Z 25003KT 0100 R28/0300 R29L/0200 FG VV/// 07/07 Q1019 NOSIG=
202212262030 METAR VIDP 262030Z 27005KT 0100 R28/0400 R29L/0200 FG VV/// 07/07 Q1019 NOSIG=
202212262100 METAR VIDP 262100Z 27006KT 0100 R28/0450 R29L/0200 FG VV/// 07/07 Q1019 NOSIG=
202212262130 METAR VIDP 262130Z 27006KT 0100 R28/0450 R29L/0200 FG VV/// 07/07 Q1019 NOSIG=
202212262200 METAR VIDP 262200Z 26005KT 0050 R28/0200 R29L/0200 FG VV/// 08/08 Q1019 NOSIG=
202212262230 METAR VIDP 262230Z 26004KT 0050 R28/0250 R29L/0200 FG VV/// 08/08 Q1018 NOSIG=
202212262300 METAR VIDP 262300Z 25005KT 0050 R28/0200 R29L/0200 FG VV/// 08/08 Q1018 NOSIG=
202212262330 METAR VIDP 262330Z 26005KT 0050 R28/0250 R29L/0200 FG VV/// 07/07 Q1018 NOSIG=
202212270000 METAR VIDP 270000Z 25005KT 0050 R28/0250 R29L/0200 FG VV/// 07/07 Q1018 NOSIG=
202212270030 METAR VIDP 270030Z 25005KT 0050 R28/0250 R29L/0200 FG VV/// 07/07 Q1018 NOSIG=
202212270100 METAR VIDP 270100Z 26006KT 0050 R28/0300 R29L/0225 FG VV/// 07/07 Q1018 NOSIG=
202212270130 METAR VIDP 270130Z 26004KT 0050 R28/0300 R29L/0250 FG VV/// 07/07 Q1018 NOSIG=
202212270200 METAR VIDP 270200Z 26005KT 0100 R28/0250 R29L/0225 FG VV/// 07/07 Q1019 NOSIG=
202212270230 METAR VIDP 270230Z 27005KT 0100 R28/0500 R29L/0300 FG VV/// 07/07 Q1019 BECMG 0150 FG=
202212270300 METAR VIDP 270300Z 27005KT 0150 R28/0600 R29L/0500 FG VV/// 07/07 Q1019 NOSIG=
202212270330 METAR VIDP 270330Z 25005KT 0150 R28/1000 R29L/0300 FG VV/// 07/07 Q1020 NOSIG=
202212270400 METAR VIDP 270400Z 26006KT 0150 R28/1050 R29L/0400 FG VV/// 07/07 Q1020 NOSIG=
202212270430 METAR VIDP 270430Z 25005KT 0200 R28/1150 R29L/0400 FG VV/// 07/07 Q1020 NOSIG=
202212270500 METAR COR VIDP 270500Z 26005KT 0250 R28/2000 R29L/0700 FG VV/// 07/07 Q1020 BECMG 0350 FG=
202212270530 METAR VIDP 270530Z 27007KT 0400 R28/2000 R29L/0850 FG VV/// 08/07 Q1020 NOSIG=
202212270600 METAR VIDP 270600Z 27006KT 0400 R28/2000 R29L/1200 FG NSC 09/08 Q1020 NOSIG=
202212270630 METAR VIDP 270630Z 26005KT 0500 R28/2000 R29L/1600 MIFG NSC 09/08 Q1020 BECMG 0600 MIFG=
202212270700 METAR VIDP 270700Z 26006KT 0800 R28/2000 R29L/2000 MIFG NSC 11/10 Q1018 NOSIG=
202212270730 METAR VIDP 270730Z 27007KT 1100 R28/2000 R29L/1800 BR NSC 13/11 Q1018 NOSIG=
202212270800 METAR VIDP 270800Z 27006KT 1100 R28/2000 R29L/1900 BR NSC 13/11 Q1018 NOSIG=
202212270830 METAR VIDP 270830Z 27006KT 1100 R28/1200 R29L/1600 BR NSC 15/11 Q1017 NOSIG=
202212270900 METAR VIDP 270900Z 28007KT 1100 R28/1100 R29L/1500 BR NSC 15/11 Q1017 NOSIG=
202212270930 METAR VIDP 270930Z 27007KT 1100 R28/1200 R29L/1600 FU NSC 16/10 Q1017 NOSIG=
202212271000 METAR VIDP 271000Z 26006KT 1300 R28/1400 R29L/1500 FU NSC 16/10 Q1016 NOSIG=
202212271030 METAR VIDP 271030Z 26007KT 1400 R28/2000 R29L/1600 FU NSC 16/10 Q1017 BECMG 1500 FU=
202212271100 METAR VIDP 271100Z 27007KT 1500 R28/2000 R29L/1600 FU NSC 16/10 Q1017 NOSIG=
202212271130 METAR VIDP 271130Z 25005KT 1500 R28/2000 R29L/2000 FU NSC 15/09 Q1016 NOSIG=
202212271200 METAR VIDP 271200Z 25005KT 1600 R28/2000 R29L/2000 FU NSC 15/10 Q1016 NOSIG=
202212271230 METAR VIDP 271230Z 25005KT 1600 R28/2000 R29L/2000 BR NSC 14/10 Q1016 NOSIG=
202212271300 METAR VIDP 271300Z 25005KT 1600 R28/2000 R29L/2000 BR NSC 13/10 Q1017 NOSIG=
202212271330 METAR VIDP 271330Z 26005KT 1600 R28/2000 R29L/2000 BR NSC 13/10 Q1017 NOSIG=
202212271400 METAR VIDP 271400Z 26005KT 1600 R28/2000 R29L/1600 BR NSC 13/10 Q1017 NOSIG=
202212271430 METAR VIDP 271430Z 26004KT 1600 R28/2000 R29L/2000 BR NSC 12/10 Q1017 NOSIG=
202212271500 METAR VIDP 271500Z 25004KT 1600 R28/2000 R29L/2000 BR NSC 12/10 Q1017 NOSIG=
202212271530 METAR VIDP 271530Z 24003KT 1600 R28/2000 R29L/2000 BR NSC 12/09 Q1017 NOSIG=
202212271600 METAR VIDP 271600Z 25003KT 1600 R28/2000 R29L/2000 BR NSC 11/09 Q1017 NOSIG=
202212271630 METAR VIDP 271630Z 25003KT 1600 R28/P2000 R29L/P2000 BR NSC 11/09 Q1017 NOSIG=
202212271700 METAR VIDP 271700Z 24003KT 1600 R28/P2000 R29L/P2000 BR NSC 10/08 Q1017 NOSIG=
202212271730 METAR VIDP 271730Z 24004KT 1600 R28/P2000 R29L/P2000 BR NSC 10/09 Q1018 NOSIG=
202212271800 METAR VIDP 271800Z 25003KT 1600 R28/P2000 R29L/P2000 BR NSC 10/08 Q1018 NOSIG=
202212271830 METAR VIDP 271830Z 26003KT 1600 R28/P2000 R29L/P2000 BR NSC 10/08 Q1017 NOSIG=
202212271900 METAR VIDP 271900Z 26003KT 1600 R28/P2000 R29L/P2000 BR NSC 09/08 Q1017 NOSIG=
202212271930 METAR VIDP 271930Z 25004KT 1600 R28/P2000 R29L/P2000 BR NSC 09/08 Q1017 NOSIG=
202212272000 METAR VIDP 272000Z 27003KT 1600 R28/P2000 R29L/P2000 BR NSC 08/07 Q1017 NOSIG=
202212272030 METAR VIDP 272030Z 26003KT 1600 R28/P2000 R29L/P2000 BR NSC 08/07 Q1017 BECMG 1500 BR=
202212272100 METAR VIDP 272100Z 25004KT 1500 R28/P2000 R29L/P2000 BR NSC 08/07 Q1017 NOSIG=
202212272130 METAR VIDP 272130Z 25003KT 1500 R28/P2000 R29L/P2000 BR NSC 08/07 Q1017 NOSIG=
202212272200 METAR VIDP 272200Z 24003KT 1500 R28/2000 R29L/2000 BR NSC 08/08 Q1017 NOSIG=
202212272230 METAR VIDP 272230Z 24003KT 1500 R28/2000 R29L/2000 BR NSC 08/07 Q1017 NOSIG=
202212272300 METAR VIDP 272300Z 24004KT 1500 R28/2000 R29L/2000 BR NSC 08/07 Q1017 NOSIG=
202212272330 METAR VIDP 272330Z 24003KT 1200 R28/2000 R29L/2000 BR NSC 08/07 Q1016 NOSIG=
202212280000 METAR VIDP 280000Z 24003KT 1200 R28/2000 R29L/2000 BR NSC 07/07 Q1017 NOSIG=
202212280030 METAR VIDP 280030Z 25003KT 1200 R28/2000 R29L/2000 BR NSC 07/07 Q1017 NOSIG=
202212280100 METAR VIDP 280100Z 25003KT 1200 R28/2000 R29L/2000 BR NSC 07/07 Q1017 NOSIG=
202212280130 METAR VIDP 280130Z 24002KT 1000 R28/2000 R29L/2000 BR NSC 07/07 Q1017 TEMPO 0800 MIFG=
202212280200 METAR VIDP 280200Z 23004KT 0700 R28/2000 R29L/1400 MIFG NSC 07/07 Q1018 NOSIG=
202212280230 METAR VIDP 280230Z 24004KT 0700 R28/2000 R29L/1300 MIFG NSC 08/08 Q1018 BECMG 0600 MIFG=
202212280300 METAR VIDP 280300Z 24006KT 0700 R28/2000 R29L/1500 MIFG NSC 09/08 Q1018 BECMG 0800 MIFG=
202212280330 METAR VIDP 280330Z 24006KT 0800 R28/1900 R29L/1800 MIFG NSC 09/09 Q1019 NOSIG=
202212280400 METAR VIDP 280400Z 25006KT 0800 R28/2000 R29L/2000 MIFG NSC 10/09 Q1019 NOSIG=
202212280430 METAR VIDP 280430Z 26007KT 1100 R28/2000 R29L/2000 BR NSC 12/10 Q1020 NOSIG=
202212280500 METAR VIDP 280500Z 26009KT 1100 R28/2000 R29L/2000 BR NSC 13/11 Q1020 NOSIG=
202212280530 METAR VIDP 280530Z 27007KT 1100 R28/2000 R29L/2000 BR NSC 14/11 Q1020 NOSIG=
202212280600 METAR VIDP 280600Z 28008KT 1300 R28/2000 R29L/2000 FU NSC 17/09 Q1019 NOSIG=
202212280630 METAR VIDP 280630Z 27008KT 1800 R28/2000 R29L/2000 FU NSC 18/07 Q1018 NOSIG=
202212280700 METAR VIDP 280700Z 26010KT 1800 R28/2000 R29L/2000 FU NSC 19/06 Q1018 NOSIG=
202212280730 METAR VIDP 280730Z 27010KT 2100 HZ NSC 20/05 Q1017 NOSIG=
202212280800 METAR VIDP 280800Z 27010KT 2100 HZ NSC 20/05 Q1017 NOSIG=
202212280830 METAR VIDP 280830Z 27010KT 2500 HZ NSC 21/05 Q1017 NOSIG=
202212280900 METAR VIDP 280900Z 25012KT 2500 HZ NSC 21/05 Q1016 NOSIG=
202212280930 METAR VIDP 280930Z 27009KT 2800 HZ NSC 20/06 Q1016 BECMG 3000 HZ=
202212281000 METAR VIDP 281000Z 26010KT 3500 HZ NSC 20/05 Q1016 NOSIG=
202212281030 METAR VIDP 281030Z 27008KT 3500 HZ NSC 20/06 Q1016 NOSIG=
202212281100 METAR VIDP 281100Z 27008KT 3500 HZ NSC 20/06 Q1016 NOSIG=
202212281130 METAR VIDP 281130Z 27006KT 3200 HZ NSC 19/06 Q1016 NOSIG=
202212281200 METAR VIDP 281200Z 27003KT 3200 HZ NSC 19/08 Q1016 NOSIG=
202212281230 METAR VIDP 281230Z VRB02KT 3200 HZ NSC 17/08 Q1017 BECMG 3000 HZ=
202212281300 METAR VIDP 281300Z VRB02KT 2800 HZ NSC 17/08 Q1017 NOSIG=
202212281330 METAR VIDP 281330Z 26002KT 2500 HZ NSC 15/07 Q1017 NOSIG=
202212281400 METAR VIDP 281400Z 25002KT 2500 HZ NSC 15/08 Q1018 NOSIG=
202212281430 METAR VIDP 281430Z 25002KT 2500 HZ NSC 15/08 Q1018 NOSIG=
202212281500 METAR VIDP 281500Z 24002KT 2500 HZ NSC 14/09 Q1018 NOSIG=
202212281530 METAR VIDP 281530Z 21002KT 2500 HZ NSC 14/09 Q1018 NOSIG=
202212281600 METAR VIDP 281600Z 21002KT 2200 BR NSC 13/10 Q1018 NOSIG=
202212281630 METAR VIDP 281630Z 27002KT 2200 BR NSC 12/10 Q1018 NOSIG=
202212281700 METAR VIDP 281700Z 27002KT 2200 BR NSC 12/10 Q1018 NOSIG=
202212281730 METAR VIDP 281730Z 23002KT 2100 BR NSC 12/10 Q1018 NOSIG=
202212281800 METAR VIDP 281800Z 24002KT 2100 BR NSC 12/10 Q1018 NOSIG=
202212281830 METAR VIDP 281830Z 23002KT 2100 BR NSC 12/09 Q1018 NOSIG=
202212281900 METAR VIDP 281900Z 00000KT 2100 BR NSC 11/09 Q1018 NOSIG=
202212281930 METAR VIDP 281930Z 00000KT 2100 BR NSC 11/09 Q1018 NOSIG=
202212282000 METAR VIDP 282000Z 00000KT 2100 BR NSC 11/09 Q1018 NOSIG=
202212282030 METAR VIDP 282030Z 00000KT 2100 BR NSC 11/09 Q1018 NOSIG=
202212282100 METAR VIDP 282100Z 00000KT 2100 BR NSC 11/09 Q1018 NOSIG=
202212282130 METAR VIDP 282130Z 00000KT 2100 BR NSC 11/09 Q1018 NOSIG=
202212282200 METAR VIDP 282200Z 00000KT 2100 BR NSC 10/09 Q1018 NOSIG=
202212282230 METAR VIDP 282230Z 00000KT 2100 BR NSC 10/09 Q1018 NOSIG=
202212282300 METAR VIDP 282300Z 00000KT 2100 BR NSC 10/09 Q1018 NOSIG=
202212282330 METAR VIDP 282330Z 00000KT 2100 BR NSC 10/09 Q1018 NOSIG=
202212290000 METAR VIDP 290000Z 00000KT 2100 BR NSC 10/09 Q1018 NOSIG=
202212290030 METAR VIDP 290030Z 00000KT 2100 BR NSC 10/09 Q1018 NOSIG=
202212290100 METAR VIDP 290100Z 00000KT 1800 R28/P2000 R29L/P2000 BR NSC 10/09 Q1018 NOSIG=
202212290130 METAR VIDP 290130Z 00000KT 1600 R28/P2000 R29L/P2000 BR FEW100 10/09 Q1018 BECMG 1500 BR=
202212290200 METAR VIDP 290200Z 00000KT 1500 R28/P2000 R29L/P2000 BR FEW100 10/09 Q1018 NOSIG=
202212290230 METAR VIDP 290230Z 26003KT 1800 R28/P2000 R29L/P2000 BR SCT100 11/09 Q1019 NOSIG=
202212290300 METAR VIDP 290300Z 27003KT 1800 R28/P2000 R29L/P2000 BR SCT100 11/09 Q1019 NOSIG=
202212290330 METAR VIDP 290330Z 26003KT 1800 R28/P2000 R29L/P2000 BR SCT100 13/09 Q1019 NOSIG=
202212290400 METAR VIDP 290400Z 29003KT 2100 FU SCT100 14/08 Q1020 NOSIG=
202212290430 METAR VIDP 290430Z 30003KT 2200 FU SCT035 BKN100 15/08 Q1020 NOSIG=
202212290500 METAR VIDP 290500Z 29003KT 2200 FU SCT035 BKN100 16/07 Q1020 NOSIG=
202212290530 METAR VIDP 290530Z 30003KT 2200 FU SCT035 BKN100 17/06 Q1020 NOSIG=
202212290600 METAR VIDP 290600Z 27003KT 2500 FU SCT035 BKN100 18/06 Q1020 NOSIG=
202212290630 METAR VIDP 290630Z 29003KT 2500 FU SCT035 BKN100 19/06 Q1020 NOSIG=
202212290700 METAR VIDP 290700Z 29005KT 2500 FU SCT035 BKN100 20/04 Q1019 NOSIG=
202212290730 METAR VIDP 290730Z 30003KT 2800 HZ SCT035 BKN100 21/02 Q1018 BECMG 3000 HZ=
202212290800 METAR VIDP 290800Z 00000KT 3000 HZ SCT035 BKN100 21/02 Q1018 NOSIG=
202212290830 METAR VIDP 290830Z 31003KT 3200 HZ SCT035 BKN100 21/02 Q1018 NOSIG=
202212290900 METAR VIDP 290900Z 28003KT 2500 HZ SCT035 BKN100 22/01 Q1017 NOSIG=
202212290930 METAR VIDP 290930Z 30003KT 1700 R28/2000 R29L/P2000 HZ SCT035 BKN100 21/02 Q1017 NOSIG=
202212291000 METAR VIDP 291000Z 33003KT 1600 R28/2000 R29L/2000 HZ SCT035 BKN100 21/02 Q1017 BECMG 1500 HZ=
202212291030 METAR VIDP 291030Z 33003KT 1500 R28/2000 R29L/2000 FU SCT035 BKN100 21/03 Q1017 NOSIG=
202212291100 METAR VIDP 291100Z 01003KT 1500 R28/2000 R29L/2000 FU SCT035 BKN100 21/03 Q1017 NOSIG=
202212291130 METAR VIDP 291130Z 04003KT 1500 R28/2000 R29L/2000 FU SCT035 BKN100 20/05 Q1017 NOSIG=
202212291200 METAR VIDP 291200Z 05003KT 1800 R28/2000 R29L/2000 FU SCT035 BKN100 19/07 Q1017 NOSIG=
202212291230 METAR VIDP 291230Z 05003KT 2000 R28/P2000 R29L/P2000 FU SCT035 BKN100 18/07 Q1017 NOSIG=
202212291300 METAR VIDP 291300Z 10006KT 2100 FU SCT035 BKN100 17/09 Q1017 NOSIG=
202212291305 METAR VIDP NIL=
202212291330 METAR VIDP 291330Z 09006KT 2100 FU FEW035 SCT100 16/10 Q1017 NOSIG=
202212291400 METAR VIDP 291400Z 09006KT 2100 FU FEW035 SCT100 15/10 Q1018 NOSIG=
202212291430 METAR VIDP 291430Z 07004KT 1800 R28/2000 R29L/2000 FU FEW035 SCT100 15/10 Q1018 NOSIG=
202212291500 METAR VIDP 291500Z 08005KT 1700 R28/2000 R29L/2000 BR FEW035 14/10 Q1018 BECMG 1500 BR=
202212291530 METAR VIDP 291530Z 09004KT 1200 R28/2000 R29L/2000 BR FEW035 14/11 Q1019 NOSIG=
202212291600 METAR VIDP 291600Z 10005KT 1000 R28/2000 R29L/2000 BR FEW035 14/11 Q1019 NOSIG=
202212291630 METAR VIDP 291630Z 10003KT 1200 R28/2000 R29L/2000 BR FEW100 14/11 Q1019 NOSIG=
202212291700 METAR VIDP 291700Z 08003KT 1400 R28/2000 R29L/2000 BR FEW100 14/11 Q1019 NOSIG=
202212291730 METAR VIDP 291730Z 07003KT 1400 R28/2000 R29L/2000 BR FEW100 14/10 Q1019 NOSIG=
202212291800 METAR VIDP 291800Z 09003KT 1400 R28/2000 R29L/2000 BR FEW035 SCT100 14/11 Q1019 NOSIG=
202212291830 METAR VIDP 291830Z 11003KT 1400 R28/2000 R29L/2000 BR FEW035 SCT100 14/11 Q1019 NOSIG=
202212291900 METAR VIDP 291900Z 07003KT 1400 R28/2000 R29L/2000 BR FEW035 SCT100 14/11 Q1018 NOSIG=
202212291930 METAR VIDP 291930Z 08004KT 1400 R28/2000 R29L/2000 BR FEW035 SCT100 13/11 Q1018 NOSIG=
202212292000 METAR VIDP 292000Z 10005KT 1400 R28/2000 R29L/2000 BR FEW035 SCT100 13/11 Q1018 NOSIG=
202212292005 METAR VIDP NIL=
202212292030 METAR VIDP 292030Z 10007KT 1400 R28/2000 R29L/2000 BR FEW035 SCT100 13/11 Q1018 NOSIG=
202212292100 METAR VIDP 292100Z 10007KT 1400 R28/2000 R29L/2000 BR FEW035 SCT100 13/11 Q1018 NOSIG=
202212292130 METAR VIDP 292130Z 10006KT 1400 R28/2000 R29L/2000 BR FEW035 SCT100 13/11 Q1018 NOSIG=
202212292200 METAR VIDP 292200Z 10006KT 1400 R28/2000 R29L/2000 BR FEW035 SCT100 12/11 Q1018 NOSIG=
202212292230 METAR VIDP 292230Z 09006KT 1400 R28/2000 R29L/2000 BR FEW035 SCT100 12/11 Q1017 NOSIG=
202212292300 METAR VIDP 292300Z 11005KT 1400 R28/2000 R29L/2000 BR FEW035 SCT100 12/11 Q1017 NOSIG=
202212292330 METAR VIDP 292330Z 10005KT 1400 R28/2000 R29L/2000 BR FEW035 SCT100 12/11 Q1017 NOSIG=
202212300000 METAR VIDP 300000Z 10005KT 1400 R28/2000 R29L/2000 BR FEW035 SCT100 12/11 Q1018 NOSIG=
202212300030 METAR VIDP 300030Z 08005KT 1400 R28/2000 R29L/2000 BR FEW035 SCT100 12/11 Q1018 NOSIG=
202212300100 METAR VIDP 300100Z 10006KT 1200 R28/2000 R29L/2000 BR FEW035 SCT100 12/11 Q1018 NOSIG=
202212300130 METAR VIDP NIL=
202212300200 METAR VIDP 300200Z 10005KT 1100 R28/2000 R29L/2000 BR FEW035 SCT100 12/11 Q1018 NOSIG=
202212300230 METAR VIDP 300230Z 10006KT 1100 R28/1600 R29L/1500 BR FEW035 SCT100 13/12 Q1019 NOSIG=
202212300300 METAR VIDP 300300Z 09006KT 1100 R28/1700 R29L/1500 BR FEW035 SCT100 13/12 Q1019 NOSIG=
202212300330 METAR COR VIDP 300330Z 09006KT 1000 R28/1500 R29L/1400 BR SCT100 14/13 Q1020 NOSIG=
202212300400 METAR VIDP 300400Z 09006KT 1000 R28/1600 R29L/1300 BR SCT100 15/12 Q1020 NOSIG=
202212300430 METAR VIDP 300430Z 10006KT 1000 R28/1700 R29L/1300 BR SCT100 16/12 Q1020 NOSIG=
202212300500 METAR VIDP 300500Z 10007KT 1000 R28/2000 R29L/1700 FU SCT100 17/11 Q1020 NOSIG=
202212300530 METAR VIDP 300530Z 12005KT 1100 R28/2000 R29L/1800 FU SCT100 19/08 Q1021 NOSIG=
202212300600 METAR VIDP 300600Z 14006KT 1100 R28/2000 R29L/1900 FU SCT100 19/08 Q1020 NOSIG=
202212300630 METAR VIDP 300630Z 13006KT 1200 R28/2000 R29L/1600 FU FEW040 SCT100 20/08 Q1020 NOSIG=
202212300700 METAR VIDP 300700Z 13004KT 1200 R28/2000 R29L/1800 FU FEW040 SCT100 20/08 Q1019 NOSIG=
202212300730 METAR VIDP 300730Z 14005KT 1200 R28/2000 R29L/1800 FU FEW040 SCT100 21/08 Q1019 NOSIG=
202212300800 METAR VIDP 300800Z 14004KT 1300 R28/2000 R29L/1600 FU SCT100 21/08 Q1019 BECMG 1500 FU=
202212300805 METAR VIDP NIL=
202212300830 METAR VIDP 300830Z 15004KT 1500 R28/P2000 R29L/1600 FU SCT100 21/08 Q1018 NOSIG=
202212300900 METAR COR VIDP 300900Z 15003KT 1500 R28/2000 R29L/1500 FU SCT100 21/09 Q1018 NOSIG=
202212300905 METAR VIDP NIL=
202212300930 METAR VIDP 300930Z 15003KT 1300 R28/2000 R29L/1400 FU SCT100 22/10 Q1018 NOSIG=
202212301000 METAR VIDP 301000Z 18003KT 1300 R28/2000 R29L/1400 FU SCT100 21/09 NOSIG=
202212301030 METAR VIDP 301030Z 13003KT 1300 R28/2000 R29L/1500 FU SCT100 21/09 Q1018 NOSIG=
202212301100 METAR VIDP 301100Z 12003KT 1300 R28/2000 R29L/1600 FU SCT100 21/10 Q1018 NOSIG=
202212301130 METAR VIDP NIL=
202212301200 METAR VIDP 301200Z 09003KT 1300 R28/P2000 R29L/P2000 FU SCT100 18/10 Q1018 NOSIG=
202212301230 METAR VIDP 301230Z 00000KT 1300 R28/P2000 R29L/P2000 FU SCT100 17/10 Q1018 NOSIG=
202212301300 METAR VIDP 301300Z 00000KT 1200 R28/P2000 R29L/P2000 FU SCT100 16/10 Q1019 NOSIG=
202212301330 METAR VIDP 301330Z 00000KT 1200 R28/P2000 R29L/P2000 FU SCT100 15/10 Q1019 NOSIG=
202212301400 METAR VIDP 301400Z 00000KT 1200 R28/P2000 R29L/P2000 FU SCT100 15/10 Q1019 NOSIG=
202212301430 METAR VIDP 301430Z 19003KT 1100 R28/P2000 R29L/P2000 BR FEW100 15/11 Q1019 NOSIG=
202212301500 METAR VIDP 301500Z 23005KT 1000 R28/P2000 R29L/P2000 BR NSC 15/11 Q1020 NOSIG=
202212301530 METAR VIDP 301530Z 25005KT 1000 R28/P2000 R29L/1900 BR NSC 15/12 Q1020 BECMG 0800 MIFG=
202212301600 METAR VIDP 301600Z 24005KT 0800 R28/2000 R29L/1800 MIFG NSC 15/12 Q1020 NOSIG=
202212301630 METAR VIDP 301630Z 27006KT 0700 R28/2000 R29L/1400 MIFG NSC 13/12 Q1020 BECMG 0600 MIFG=
202212301700 METAR VIDP 301700Z 27005KT 0600 R28/1800 R29L/1400 MIFG NSC 13/13 Q1020 NOSIG=
202212301730 METAR VIDP 301730Z 26005KT 0500 R28/1800 R29L/1300 MIFG NSC 13/13 Q1020 NOSIG=
202212301800 METAR VIDP 301800Z 27003KT 0400 R28/1700 R29L/1200 FG NSC 13/13 Q1020 BECMG 0350 FG=
202212301830 METAR VIDP 301830Z 27004KT 0400 R28/1800 R29L/1050 FG NSC 12/12 Q1020 BECMG 0350 FG=
202212301900 METAR VIDP 301900Z 27006KT 0350 R28/1300 R29L/0800 FG NSC 12/12 Q1020 NOSIG=
202212301930 METAR VIDP 301930Z 28007KT 0250 R28/1200 R29L/0750 FG NSC 12/12 Q1020 BECMG 0150 FG=
202212302000 METAR VIDP 302000Z 28006KT 0250 R28/1200 R29L/1050 FG NSC 12/12 Q1020 BECMG 0150 FG=
202212302030 METAR VIDP 302030Z 26008KT 0250 R28/1600 R29L/1150 FG NSC 12/12 Q1020 NOSIG=
202212302100 METAR VIDP 302100Z 27006KT 0300 R28/1500 R29L/1300 FG NSC 12/12 Q1020 BECMG 0350 FG=
202212302130 METAR VIDP 302130Z 27008KT 0500 R28/1800 R29L/1700 FG NSC 12/12 Q1019 NOSIG=
202212302200 METAR VIDP 302200Z 28007KT 0400 R28/2000 R29L/1400 FG NSC 13/12 Q1019 NOSIG=
202212302230 METAR VIDP 302230Z 27008KT 0400 R28/1600 R29L/1500 FG NSC 13/12 Q1019 NOSIG=
202212302300 METAR VIDP 302300Z 29008KT 0500 R28/2000 R29L/1800 MIFG NSC 13/12 Q1019 BECMG 0600 MIFG=
202212302330 METAR VIDP 302330Z 28007KT 0600 R28/2000 R29L/2000 MIFG NSC 13/12 Q1019 NOSIG=
