##########################################################
# Query made at 12/13/2025 04:20:54 UTC
# Time interval: from 12/10/2023 00:00  to 12/30/2023 23:59  UTC
##########################################################

##########################################################
# VIDP, New Delhi / Palam (India)
# WMO index: 42181. WIGOS ID: 0-20000-0-42181
# Latitude 28-34-00N. Longitude 077-07-00E. Altitude 225 m.
##########################################################

###################################
#  METAR/SPECI from VIDP
###################################
202312100000 METAR VIDP 100000Z 25003KT 1300 R27/2000 R29L/2000 R29R/2000 BR NSC 11/08 Q1014 NOSIG=
202312100030 METAR VIDP 100030Z 23003KT 1300 R27/2000 R29L/2000 R29R/2000 BR NSC 11/08 Q1014 NOSIG=
202312100100 METAR VIDP 100100Z 22003KT 1300 R27/2000 R29L/2000 R29R/2000 BR NSC 10/08 Q1014 NOSIG=
202312100130 METAR VIDP 100130Z 25004KT 1100 R27/2000 R29L/2000 R29R/2000 BR NSC 10/08 Q1015 NOSIG=
202312100200 METAR VIDP 100200Z 26003KT 1100 R27/2000 R29L/2000 R29R/2000 BR NSC 10/08 Q1015 NOSIG=
202312100230 METAR VIDP 100230Z 25005KT 1100 R27/1800 R29L/2000 R29R/2000 BR NSC 11/08 Q1016 NOSIG=
202312100300 METAR VIDP 100300Z 26006KT 1200 R27/1400 R29L/2000 R29R/2000 BR NSC 13/09 Q1016 NOSIG=
202312100330 METAR VIDP 100330Z 24006KT 1200 R27/1900 R29L/2000 R29R/2000 BR NSC 14/09 Q1016 NOSIG=
202312100400 METAR VIDP 100400Z 24005KT 1200 R27/1900 R29L/2000 R29R/2000 FU NSC 16/09 Q1017 NOSIG=
202312100430 METAR VIDP 100430Z 24006KT 1200 R27/1900 R29L/2000 R29R/2000 FU NSC 16/09 Q1017 NOSIG=
202312100500 METAR VIDP 100500Z 24005KT 1200 R27/1900 R29L/2000 R29R/2000 FU NSC 17/09 Q1017 BECMG 1500 FU=
202312100530 METAR VIDP 100530Z 28007KT 1500 R27/2000 R29L/2000 R29R/2000 HZ NSC 18/09 Q1017 NOSIG=
202312100600 METAR VIDP 100600Z 27006KT 1500 R27/2000 R29L/2000 R29R/2000 HZ NSC 20/09 Q1017 NOSIG=
202312100630 METAR VIDP 100630Z 28007KT 1500 R27/2000 R29L/2000 R29R/2000 FU NSC 20/09 Q1016 NOSIG=
202312100700 METAR VIDP 100700Z 27008KT 1700 R27/2000 R29L/2000 R29R/2000 FU NSC 21/08 Q1016 NOSIG=
202312100730 METAR VIDP 100730Z 28009KT 1800 R27/2000 R29L/2000 R29R/2000 FU NSC 22/07 Q1015 NOSIG=
202312100800 METAR VIDP 100800Z 27009KT 2200 FU NSC 22/08 Q1015 NOSIG=
202312100830 METAR VIDP 100830Z 28009KT 2500 HZ NSC 22/08 Q1015 NOSIG=
202312100900 METAR VIDP 100900Z 28010KT 2500 HZ NSC 22/08 Q1015 NOSIG=
202312100905 METAR VIDP NIL=
202312100930 METAR VIDP 100930Z 28010KT 2500 HZ NSC 22/08 Q1014 NOSIG=
202312101000 METAR VIDP 101000Z 28010KT 2500 HZ NSC 22/08 Q1014 NOSIG=
202312101030 METAR VIDP 101030Z 25008KT 2500 HZ NSC 21/08 Q1014 NOSIG=
202312101100 METAR VIDP 101100Z 25006KT 2500 HZ NSC 21/08 Q1014 NOSIG=
202312101130 METAR VIDP 101130Z 25005KT 2500 HZ NSC 20/08 Q1014 NOSIG=
202312101200 METAR VIDP 101200Z 25003KT 2500 HZ NSC 19/09 Q1014 NOSIG=
202312101230 METAR VIDP 101230Z 25003KT 2500 HZ NSC 19/10 Q1014 NOSIG=
202312101300 METAR VIDP 101300Z 25004KT 2500 HZ NSC 19/10 Q1014 NOSIG=
202312101330 METAR VIDP 101330Z 26003KT 2500 HZ NSC 18/11 Q1014 NOSIG=
202312101400 METAR VIDP 101400Z 25003KT 2500 HZ NSC 17/11 Q1015 NOSIG=
202312101430 METAR VIDP 101430Z 23002KT 2500 HZ NSC 17/10 Q1015 NOSIG=
202312101500 METAR VIDP 101500Z 23002KT 2500 HZ NSC 16/10 Q1015 NOSIG=
202312101530 METAR VIDP 101530Z 25003KT 2500 HZ NSC 16/09 Q1015 NOSIG=
202312101600 METAR VIDP 101600Z 00000KT 2500 HZ NSC 15/09 Q1015 NOSIG=
202312101605 METAR VIDP NIL=
202312101630 METAR VIDP 101630Z 20002KT 2500 HZ NSC 15/09 Q1015 NOSIG=
202312101700 METAR VIDP 101700Z 00000KT 2500 HZ NSC 15/09 Q1016 NOSIG=
202312101730 METAR VIDP 101730Z 00000KT 2200 HZ NSC 15/09 Q1016 NOSIG=
202312101800 METAR VIDP 101800Z 00000KT 2200 HZ NSC 14/08 Q1016 NOSIG=
202312101830 METAR VIDP 101830Z 00000KT 2200 HZ NSC 13/09 Q1016 NOSIG=
202312101900 METAR VIDP 101900Z 00000KT 2200 HZ NSC 13/09 Q1015 NOSIG=
202312101930 METAR VIDP 101930Z 00000KT 1900 R27/2000 R29L/2000 R29R/2000 HZ NSC 13/09 Q1015 NOSIG=
202312102000 METAR VIDP 102000Z 00000KT 1900 R27/2000 R29L/2000 R29R/2000 BR NSC 12/09 Q1015 NOSIG=
202312102030 METAR VIDP 102030Z 00000KT 1800 R27/2000 R29L/2000 R29R/2000 BR NSC 12/08 Q1015 NOSIG=
202312102100 METAR VIDP 102100Z 00000KT 1600 R27/2000 R29L/2000 R29R/2000 BR NSC 12/09 Q1015 BECMG 1500 BR=
202312102130 METAR VIDP 102130Z 00000KT 1500 R27/2000 R29L/2000 R29R/2000 BR NSC 12/09 Q1014 NOSIG=
202312102200 METAR VIDP 102200Z 19002KT 1500 R27/2000 R29L/2000 R29R/2000 BR NSC 12/09 Q1014 NOSIG=
202312102230 METAR VIDP 102230Z 26002KT 1300 R27/2000 R29L/2000 R29R/2000 BR NSC 12/08 Q1014 NOSIG=
202312102300 METAR VIDP 102300Z 00000KT 1300 R27/2000 R29L/2000 R29R/2000 BR NSC 12/08 Q1014 NOSIG=
202312102330 METAR VIDP 102330Z 00000KT 1300 R27/2000 R29L/1800 R29R/2000 BR NSC 11/08 Q1014 NOSIG=
202312110000 METAR VIDP 110000Z 00000KT 1100 R27/2000 R29L/1400 R29R/2000 BR NSC 11/08 Q1015 NOSIG=
202312110030 METAR VIDP 110030Z 00000KT 1100 R27/2000 R29L/2000 R29R/2000 BR NSC 11/08 Q1015 NOSIG=
202312110100 METAR VIDP 110100Z 00000KT 1100 R27/2000 R29L/2000 R29R/2000 BR NSC 11/08 Q1015 NOSIG=
202312110130 METAR VIDP 110130Z 00000KT 0900 R27/2000 R29L/1500 R29R/2000 MIFG NSC 11/08 Q1016 BECMG 0800 MIFG=
202312110200 METAR VIDP 110200Z 00000KT 0700 R27/1600 R29L/1200 R29R/1800 MIFG NSC 11/08 Q1016 BECMG 0600 MIFG=
202312110230 METAR VIDP 110230Z VRB02KT 0700 R27/1400 R29L/1200 R29R/1800 MIFG NSC 12/08 NOSIG=
202312110300 METAR VIDP 110300Z VRB02KT 0700 R27/1300 R29L/1200 R29R/1800 MIFG NSC 13/09 BECMG 0800 FU=
202312110330 METAR VIDP 110330Z 25003KT 0800 R27/1200 R29L/1400 R29R/1900 MIFG NSC 14/10 Q1017 NOSIG=
202312110400 METAR VIDP 110400Z 25003KT 0800 R27/1500 R29L/1500 R29R/1700 FU NSC 15/10 Q1018 NOSIG=
202312110430 METAR VIDP 110430Z VRB02KT 0900 R27/2000 R29L/1900 R29R/2000 FU NSC 17/09 Q1018 NOSIG=
202312110500 METAR VIDP 110500Z 24003KT 1200 R27/2000 R29L/2000 R29R/2000 FU NSC 18/09 Q1018 BECMG 1500 FU=
202312110530 METAR VIDP 110530Z VRB02KT 1300 R27/2000 R29L/2000 R29R/2000 FU NSC 19/08 Q1018 BECMG 1500 FU=
202312110600 METAR VIDP 110600Z 00000KT 1300 R27/2000 R29L/2000 R29R/2000 FU NSC 21/08 Q1018 BECMG 1500 FU=
202312110630 METAR VIDP NIL=
202312110705 METAR VIDP NIL=
202312110730 METAR VIDP 110730Z 25003KT 1700 R27/2000 R29L/2000 R29R/2000 FU NSC 23/07 Q1016 NOSIG=
202312110805 METAR VIDP NIL=
202312110830 METAR VIDP 110830Z 25005KT 2500 HZ NSC 23/06 Q1015 NOSIG=
202312110900 METAR VIDP 110900Z 27005KT 2500 HZ NSC 23/06 Q1015 NOSIG=
202312110930 METAR COR VIDP 110930Z 27004KT 2800 HZ NSC 23/05 Q1015 BECMG 3000 HZ=
202312111000 METAR VIDP 111000Z 30005KT 3000 HZ NSC 23/05 Q1015 NOSIG=
202312111005 METAR VIDP NIL=
202312111030 METAR VIDP 111030Z 29004KT 3000 HZ NSC 23/05 Q1015 NOSIG=
202312111100 METAR VIDP 111100Z 28004KT 3000 HZ NSC 23/05 Q1015 NOSIG=
202312111130 METAR VIDP 111130Z 30003KT 3000 HZ NSC 22/05 Q1014 NOSIG=
202312111200 METAR VIDP 111200Z 24003KT 2800 HZ NSC 20/06 Q1015 NOSIG=
202312111230 METAR VIDP 111230Z 00000KT 2600 HZ NSC 18/07 Q1015 NOSIG=
202312111300 METAR VIDP 111300Z 00000KT 2500 HZ NSC 17/07 Q1015 NOSIG=
202312111330 METAR VIDP 111330Z 00000KT 2500 HZ NSC 16/08 Q1015 NOSIG=
202312111400 METAR VIDP 111400Z 00000KT 2500 HZ NSC 15/08 Q1016 NOSIG=
202312111430 METAR VIDP 111430Z 11002KT 2200 FU NSC 14/08 Q1016 NOSIG=
202312111500 METAR VIDP 111500Z 00000KT 2200 FU NSC 14/08 Q1016 NOSIG=
202312111530 METAR VIDP 111530Z 00000KT 2200 FU NSC 14/08 Q1016 NOSIG=
202312111600 METAR VIDP 111600Z 00000KT 2200 FU NSC 14/08 Q1016 NOSIG=
202312111630 METAR VIDP 111630Z 00000KT 2200 FU NSC 14/08 Q1016 NOSIG=
202312111700 METAR VIDP 111700Z 00000KT 2200 BR NSC 13/09 Q1016 NOSIG=
202312111730 METAR VIDP 111730Z 00000KT 2200 BR NSC 13/09 Q1016 NOSIG=
202312111800 METAR VIDP 111800Z 00000KT 2200 BR NSC 13/09 Q1016 NOSIG=
202312111830 METAR VIDP 111830Z 00000KT 2200 BR NSC 13/09 Q1016 NOSIG=
202312111900 METAR VIDP 111900Z 00000KT 1800 R27/2000 R29L/2000 R29R/2000 BR NSC 12/09 Q1015 NOSIG=
202312111930 METAR VIDP 111930Z 00000KT 1800 R27/2000 R29L/2000 R29R/2000 BR NSC 12/09 Q1015 NOSIG=
202312112000 METAR VIDP 112000Z 00000KT 1800 R27/2000 R29L/2000 R29R/2000 BR NSC 12/09 Q1015 NOSIG=
202312112030 METAR VIDP 112030Z 00000KT 1800 R27/2000 R29L/2000 R29R/2000 BR NSC 12/09 Q1015 NOSIG=
202312112100 METAR VIDP 112100Z 00000KT 1800 R27/2000 R29L/2000 R29R/2000 BR NSC 12/09 Q1015 NOSIG=
202312112130 METAR VIDP 112130Z 00000KT 1600 R27/2000 R29L/2000 R29R/2000 BR NSC 12/09 Q1015 NOSIG=
202312112200 METAR VIDP 112200Z 00000KT 1600 R27/2000 R29L/2000 R29R/2000 BR NSC 12/09 Q1014 NOSIG=
202312112230 METAR VIDP 112230Z 00000KT 1600 R27/2000 R29L/2000 R29R/2000 BR NSC 11/09 Q1014 BECMG 1500 BR=
202312112300 METAR VIDP 112300Z 00000KT 1500 R27/2000 R29L/2000 R29R/2000 BR NSC 11/09 Q1014 NOSIG=
202312112330 METAR VIDP 112330Z 00000KT 1500 R27/2000 R29L/2000 R29R/2000 BR NSC 11/09 Q1014 NOSIG=
202312120000 METAR VIDP 120000Z 00000KT 1300 R27/2000 R29L/2000 R29R/2000 BR NSC 11/09 Q1014 NOSIG=
202312120030 METAR VIDP 120030Z 09003KT 1300 R27/2000 R29L/2000 R29R/2000 BR NSC 11/09 Q1014 NOSIG=
202312120100 METAR VIDP 120100Z 11003KT 1100 R27/2000 R29L/2000 R29R/2000 BR NSC 10/09 Q1015 NOSIG=
202312120130 METAR VIDP 120130Z 00000KT 0900 R27/2000 R29L/1900 R29R/2000 MIFG NSC 10/09 Q1015 BECMG 0800 MIFG=
202312120200 METAR VIDP 120200Z 00000KT 0700 R27/1400 R29L/1500 R29R/2000 MIFG NSC 10/09 Q1015 TEMPO 0600 MIFG=
202312120230 METAR VIDP 120230Z 00000KT 0700 R27/1200 R29L/1600 R29R/1700 MIFG NSC 12/10 Q1016 BECMG 0800 MIFG=
202312120300 METAR VIDP 120300Z 12003KT 1000 R27/1300 R29L/1300 R29R/1600 BR NSC 14/11 Q1016 NOSIG=
202312120330 METAR VIDP 120330Z 12004KT 1000 R27/1300 R29L/1500 R29R/1800 FU NSC 15/10 Q1016 NOSIG=
202312120400 METAR VIDP 120400Z 11003KT 1200 R27/1400 R29L/2000 R29R/2000 FU NSC 17/10 Q1017 NOSIG=
202312120430 METAR VIDP 120430Z 10004KT 1400 R27/1700 R29L/2000 R29R/2000 FU NSC 18/10 Q1017 BECMG 1500 FU=
202312120500 METAR VIDP 120500Z 11005KT 1600 R27/2000 R29L/1900 R29R/2000 FU NSC 19/10 Q1017 NOSIG=
202312120530 METAR VIDP 120530Z 13005KT 1800 R27/2000 R29L/1800 R29R/2000 FU NSC 20/10 Q1016 NOSIG=
202312120600 METAR VIDP 120600Z 11004KT 1800 R27/2000 R29L/1900 R29R/2000 FU NSC 21/10 Q1016 NOSIG=
202312120630 METAR VIDP 120630Z 10005KT 2200 FU NSC 21/09 Q1016 NOSIG=
202312120700 METAR VIDP 120700Z 14004KT 2200 FU NSC 22/09 Q1015 NOSIG=
202312120705 METAR VIDP NIL=
202312120730 METAR VIDP 120730Z 16004KT 2200 FU NSC 23/09 Q1015 NOSIG=
202312120800 METAR VIDP 120800Z 13004KT 2500 HZ NSC 23/09 Q1014 NOSIG=
202312120830 METAR VIDP 120830Z 16003KT 2500 HZ NSC 23/09 Q1014 NOSIG=
202312120900 METAR VIDP 120900Z 18003KT 2500 HZ NSC 23/09 Q1014 NOSIG=
202312120930 METAR VIDP 120930Z 22003KT 2500 HZ NSC 23/09 Q1013 NOSIG=
202312121000 METAR VIDP 121000Z 22003KT 2500 HZ NSC 23/08 Q1013 NOSIG=
202312121030 METAR VIDP 121030Z 25003KT 2500 HZ NSC 23/08 Q1013 NOSIG=
202312121100 METAR VIDP 121100Z 25003KT 2500 HZ NSC 22/09 Q1013 NOSIG=
202312121130 METAR VIDP 121130Z 19002KT 2500 HZ NSC 21/10 Q1013 NOSIG=
202312121200 METAR VIDP 121200Z 14004KT 2500 HZ NSC 21/11 Q1013 NOSIG=
202312121230 METAR VIDP 121230Z 14004KT 2500 HZ NSC 20/11 Q1013 NOSIG=
202312121300 METAR VIDP 121300Z 13003KT 2500 HZ NSC 19/11 Q1013 NOSIG=
202312121330 METAR VIDP 121330Z 13004KT 2500 HZ NSC 18/11 Q1014 NOSIG=
202312121400 METAR VIDP 121400Z 10003KT 2500 HZ NSC 17/11 Q1014 NOSIG=
202312121430 METAR VIDP 121430Z 10003KT 2500 HZ NSC 17/12 Q1014 NOSIG=
202312121500 METAR VIDP 121500Z 12003KT 2500 HZ NSC 17/12 Q1014 NOSIG=
202312121530 METAR VIDP 121530Z 11003KT 2500 BR NSC 16/12 Q1015 NOSIG=
202312121600 METAR VIDP 121600Z 11003KT 2500 BR NSC 16/12 Q1015 NOSIG=
202312121630 METAR VIDP 121630Z 12003KT 2500 BR NSC 16/12 Q1015 NOSIG=
202312121700 METAR VIDP 121700Z 00000KT 2200 BR NSC 15/12 Q1015 NOSIG=
202312121730 METAR VIDP 121730Z 00000KT 2200 BR NSC 15/12 Q1016 NOSIG=
202312121800 METAR VIDP 121800Z 00000KT 2200 BR NSC 14/11 Q1016 NOSIG=
202312121830 METAR VIDP 121830Z 05003KT 2200 BR NSC 14/12 Q1016 NOSIG=
202312121900 METAR VIDP 121900Z 04003KT 2200 BR NSC 14/11 Q1015 NOSIG=
202312121930 METAR VIDP 121930Z 09003KT 2100 BR NSC 13/11 Q1015 NOSIG=
202312122000 METAR VIDP 122000Z 00000KT 2100 BR NSC 13/12 Q1015 NOSIG=
202312122030 METAR VIDP 122030Z 00000KT 2000 BR NSC 13/11 Q1015 NOSIG=
202312122100 METAR VIDP 122100Z 00000KT 1700 R27/2000 R29L/2000 R29R/2000 BR NSC 13/12 Q1015 BECMG 1500 BR=
202312122130 METAR VIDP 122130Z 04003KT 1500 R27/2000 R29L/2000 R29R/2000 BR NSC 12/11 Q1015 NOSIG=
202312122200 METAR VIDP 122200Z 00000KT 1500 R27/2000 R29L/1900 R29R/2000 BR NSC 12/11 Q1015 NOSIG=
202312122230 METAR VIDP 122230Z 00000KT 1200 R27/2000 R29L/2000 R29R/2000 BR NSC 12/11 Q1015 NOSIG=
202312122300 METAR VIDP 122300Z 00000KT 1000 R27/2000 R29L/1700 R29R/2000 BR NSC 12/11 Q1015 BECMG 0800 MIFG=
202312122330 METAR VIDP 122330Z 00000KT 0900 R27/1800 R29L/1900 R29R/2000 MIFG NSC 12/11 Q1015 BECMG 0800 MIFG=
202312130000 METAR VIDP 130000Z VRB02KT 0800 R27/2000 R29L/1000 R29R/1600 MIFG NSC 12/11 Q1015 NOSIG=
202312130030 METAR VIDP 130030Z VRB02KT 0800 R27/1800 R29L/1700 R29R/2000 MIFG NSC 12/11 Q1016 NOSIG=
202312130100 METAR VIDP 130100Z 00000KT 0700 R27/2000 R29L/1500 R29R/2000 MIFG NSC 12/11 Q1016 TEMPO 0600 MIFG=
202312130130 METAR VIDP 130130Z 00000KT 0600 R27/1500 R29L/0700 R29R/1700 MIFG NSC 12/11 Q1016 TEMPO 0350 FG=
202312130200 METAR VIDP 130200Z VRB02KT 0500 R27/1100 R29L/1200 R29R/1600 MIFG NSC 12/11 Q1017 NOSIG=
202312130230 METAR VIDP 130230Z 22002KT 0500 R27/0900 R29L/0900 R29R/1300 MIFG NSC 12/11 Q1017 NOSIG=
202312130300 METAR VIDP 130300Z 21002KT 0500 R27/0900 R29L/1000 R29R/1500 MIFG NSC 14/11 Q1018 NOSIG=
202312130330 METAR VIDP 130330Z 23002KT 0500 R27/0900 R29L/1300 R29R/1300 MIFG NSC 15/12 Q1018 BECMG 0600 MIFG=
202312130400 METAR VIDP 130400Z 23002KT 0700 R27/1100 R29L/1300 R29R/1400 MIFG NSC 17/13 Q1018 BECMG 0800 MIFG=
202312130430 METAR VIDP 130430Z 29002KT 1000 R27/1200 R29L/1900 R29R/1600 FU NSC 18/13 Q1019 NOSIG=
202312130500 METAR VIDP 130500Z 28002KT 1100 R27/1200 R29L/2000 R29R/1600 FU NSC 19/13 Q1019 NOSIG=
202312130530 METAR VIDP 130530Z 33002KT 1100 R27/1400 R29L/2000 R29R/2000 FU NSC 20/13 Q1018 NOSIG=
202312130600 METAR VIDP 130600Z 31003KT 1200 R27/1500 R29L/2000 R29R/2000 FU NSC 21/13 Q1018 NOSIG=
202312130630 METAR VIDP 130630Z 26003KT 1400 R27/1800 R29L/2000 R29R/2000 FU NSC 22/11 Q1018 BECMG 1500 FU=
202312130700 METAR VIDP 130700Z 28004KT 1500 R27/2000 R29L/2000 R29R/2000 FU NSC 22/09 Q1017 NOSIG=
202312130730 METAR VIDP 130730Z 31003KT 1600 R27/2000 R29L/2000 R29R/2000 FU NSC 23/07 Q1017 NOSIG=
202312130800 METAR VIDP 130800Z 31003KT 1800 R27/2000 R29L/2000 R29R/2000 FU NSC 23/06 Q1016 NOSIG=
202312130830 METAR VIDP 130830Z 32005KT 2200 FU NSC 23/09 Q1016 NOSIG=
202312130900 METAR VIDP 130900Z 32004KT 2200 FU NSC 23/04 Q1016 NOSIG=
202312130930 METAR VIDP 130930Z 34005KT 2200 FU NSC 23/04 Q1015 NOSIG=
202312131000 METAR VIDP 131000Z 32005KT 2200 FU NSC 23/04 Q1015 NOSIG=
202312131030 METAR VIDP 131030Z 32006KT 2600 HZ NSC 23/04 Q1015 BECMG 3000 HZ=
202312131100 METAR VIDP 131100Z 32005KT 3000 HZ NSC 22/04 Q1015 NOSIG=
202312131130 METAR VIDP 131130Z 30004KT 2800 HZ NSC 22/05 Q1015 NOSIG=
202312131200 METAR VIDP 131200Z 32004KT 2500 HZ NSC 21/05 Q1015 NOSIG=
202312131205 METAR VIDP NIL=
202312131230 METAR VIDP 131230Z 32004KT 2500 HZ NSC 21/05 Q1016 NOSIG=
202312131300 METAR VIDP 131300Z 31005KT 2500 HZ NSC 20/07 Q1017 NOSIG=
202312131330 METAR VIDP 131330Z 31004KT 2500 HZ NSC 19/08 Q1017 NOSIG=
202312131400 METAR VIDP 131400Z 30004KT 2500 HZ NSC 18/08 Q1017 NOSIG=
202312131430 METAR VIDP 131430Z 33003KT 2500 HZ NSC 18/08 Q1017 NOSIG=
202312131500 METAR COR VIDP 131500Z 00000KT 2500 HZ NSC 16/08 Q1018 NOSIG=
202312131530 METAR VIDP 131530Z 00000KT 2200 HZ NSC 15/09 Q1018 NOSIG=
202312131600 METAR VIDP 131600Z 00000KT 2200 HZ NSC 15/09 Q1018 NOSIG=
202312131630 METAR VIDP 131630Z 00000KT 2200 HZ NSC 15/09 Q1018 NOSIG=
202312131700 METAR VIDP 131700Z 00000KT 2200 HZ NSC 15/09 Q1018 NOSIG=
202312131730 METAR VIDP 131730Z 00000KT 2200 HZ NSC 14/09 Q1018 NOSIG=
202312131800 METAR VIDP 131800Z 00000KT 2200 HZ NSC 14/09 Q1018 NOSIG=
202312131830 METAR COR VIDP 131830Z 00000KT 1800 R27/2000 R29L/2000 R29R/2000 HZ NSC 14/09 Q1018 NOSIG=
202312131900 METAR VIDP 131900Z 00000KT 1600 R27/2000 R29L/2000 R29R/2000 BR NSC 13/09 Q1017 NOSIG=
202312131930 VIDP 131930Z 00000KT 1600 R27/2000 R29L/2000 R29R/2000 BR NSC 13/09 Q1017 BECMG 1500 BR=
202312132000 METAR COR VIDP 132000Z 00000KT 1500 R27/2000 R29L/2000 R29R/2000 BR NSC 13/09 Q1017 NOSIG=
202312132005 METAR VIDP NIL=
202312132030 METAR VIDP 132030Z 00000KT 1500 R27/2000 R29L/2000 R29R/2000 BR NSC 12/08 Q1017 NOSIG=
202312132100 METAR VIDP 132100Z 00000KT 1300 R27/2000 R29L/2000 R29R/2000 BR NSC 12/08 Q1017 NOSIG=
202312132130 METAR VIDP 132130Z 24002KT 1100 R27/2000 R29L/2000 R29R/2000 BR NSC 12/08 Q1017 NOSIG=
202312132200 METAR VIDP 132200Z 00000KT 1100 R27/2000 R29L/1900 R29R/2000 BR NSC 11/08 Q1017 NOSIG=
202312132230 METAR VIDP 132230Z 00000KT 1000 R27/2000 R29L/1000 R29R/2000 BR NSC 10/08 Q1016 BECMG 0800 MIFG=
202312132300 METAR VIDP 132300Z 00000KT 1000 R27/2000 R29L/1600 R29R/2000 BR NSC 10/08 Q1016 BECMG 0800 MIFG=
202312132330 METAR VIDP 132330Z 00000KT 1000 R27/2000 R29L/1800 R29R/2000 BR NSC 10/09 Q1016 BECMG 0800 MIFG=
202312140000 METAR VIDP 140000Z 00000KT 0800 R27/2000 R29L/2000 R29R/2000 MIFG NSC 10/09 Q1016 NOSIG=
202312140030 METAR VIDP 140030Z 25003KT 0800 R27/2000 R29L/1800 R29R/2000 MIFG NSC 10/08 Q1017 BECMG 0600 MIFG=
202312140100 METAR VIDP 140100Z 24003KT 0600 R27/2000 R29L/1800 R29R/2000 MIFG NSC 10/08 Q1017 NOSIG=
202312140130 METAR VIDP 140130Z 23004KT 0600 R27/2000 R29L/1600 R29R/2000 MIFG FEW100 10/08 Q1017 NOSIG=
202312140200 METAR VIDP 140200Z 24003KT 0600 R27/1500 R29L/1200 R29R/2000 MIFG SCT100 10/08 Q1018 BECMG 0800 MIFG=
202312140230 METAR VIDP 140230Z 25003KT 0800 R27/1300 R29L/1200 R29R/1700 MIFG SCT100 10/08 Q1018 NOSIG=
202312140300 METAR VIDP 140300Z 26003KT 0800 R27/1300 R29L/1400 R29R/1800 MIFG SCT100 12/09 Q1018 NOSIG=
202312140330 METAR VIDP 140330Z 25004KT 1000 R27/1300 R29L/1600 R29R/1900 BR SCT100 13/09 Q1019 NOSIG=
202312140400 METAR VIDP 140400Z 26005KT 1000 R27/1400 R29L/2000 R29R/2000 BR SCT100 14/10 Q1019 NOSIG=
202312140430 METAR VIDP 140430Z 25005KT 1100 R27///// R29L/2000 R29R/2000 FU SCT100 15/09 Q1019 NOSIG=
202312140500 METAR VIDP 140500Z 25004KT 1200 R27///// R29L/2000 R29R/2000 FU SCT100 17/08 Q1019 NOSIG=
202312140530 METAR VIDP 140530Z 27005KT 1300 R27///// R29L/2000 R29R/2000 FU SCT100 18/08 Q1019 BECMG 1500 FU=
202312140600 METAR VIDP 140600Z 27006KT 1600 R27///// R29L/2000 R29R/2000 FU SCT100 19/07 Q1019 NOSIG=
202312140630 METAR VIDP 140630Z 26006KT 1600 R27/2000 R29L/2000 R29R/2000 FU SCT100 20/07 Q1019 NOSIG=
202312140700 METAR VIDP 140700Z 26008KT 1800 R27/2000 R29L/2000 R29R/2000 FU SCT100 21/06 Q1018 NOSIG=
202312140730 METAR VIDP 140730Z 26010KT 2000 R27/2000 R29L/2000 R29R/2000 FU SCT100 22/05 Q1018 NOSIG=
202312140800 METAR VIDP 140800Z 25009KT 2200 FU SCT100 22/05 Q1017 NOSIG=
202312140830 METAR VIDP 140830Z 25009KT 2600 HZ SCT100 23/05 Q1017 NOSIG=
202312140900 METAR VIDP 140900Z 25008KT 2800 HZ SCT100 23/05 Q1017 BECMG 3000 HZ=
202312140930 METAR VIDP 140930Z 25008KT 3000 HZ SCT100 23/05 Q1017 NOSIG=
202312141000 METAR VIDP 141000Z 27006KT 3000 HZ SCT100 23/05 Q1017 NOSIG=
202312141030 METAR VIDP 141030Z 27006KT 3000 HZ SCT100 23/05 Q1017 NOSIG=
202312141100 METAR VIDP 141100Z 27006KT 3000 HZ SCT100 22/05 Q1017 NOSIG=
202312141130 METAR VIDP 141130Z 26005KT 3000 HZ SCT100 22/05 Q1017 NOSIG=
202312141200 METAR VIDP 141200Z 26004KT 2800 HZ SCT100 21/07 Q1017 NOSIG=
202312141230 METAR VIDP 141230Z 24003KT 2500 HZ SCT100 20/08 Q1017 NOSIG=
202312141300 METAR VIDP 141300Z 22003KT 2500 HZ SCT100 19/08 Q1017 NOSIG=
202312141330 METAR VIDP 141330Z 22002KT 2500 HZ SCT100 19/08 Q1017 NOSIG=
202312141400 METAR VIDP 141400Z 00000KT 2500 HZ SCT100 18/09 Q1018 NOSIG=
202312141430 METAR VIDP 141430Z 00000KT 2500 HZ SCT100 17/07 Q1018 NOSIG=
202312141500 METAR VIDP 141500Z 24003KT 2500 HZ SCT100 16/07 Q1018 NOSIG=
202312141530 METAR VIDP 141530Z 00000KT 2500 HZ FEW100 16/07 Q1019 NOSIG=
202312141600 METAR VIDP 141600Z 00000KT 2500 HZ FEW100 15/08 Q1019 NOSIG=
202312141630 METAR VIDP 141630Z 00000KT 2500 HZ FEW100 15/07 Q1019 NOSIG=
202312141700 METAR VIDP 141700Z 00000KT 2500 HZ FEW100 14/07 Q1019 NOSIG=
202312141730 METAR VIDP 141730Z 00000KT 2500 HZ FEW100 14/08 Q1019 NOSIG=
202312141800 METAR VIDP 141800Z 00000KT 2500 HZ FEW100 13/08 Q1019 NOSIG=
202312141830 METAR VIDP 141830Z 00000KT 2500 HZ FEW100 13/07 Q1018 NOSIG=
202312141900 METAR VIDP 141900Z 00000KT 2500 HZ FEW100 13/07 Q1018 NOSIG=
202312141930 METAR VIDP 141930Z 19002KT 2500 HZ FEW100 13/07 Q1018 NOSIG=
202312142000 METAR VIDP 142000Z 17002KT 2500 HZ FEW100 12/07 Q1018 NOSIG=
202312142030 METAR VIDP 142030Z 00000KT 2200 HZ FEW100 12/07 Q1018 NOSIG=
202312142100 METAR VIDP 142100Z 21002KT 2200 BR FEW100 11/07 Q1018 NOSIG=
202312142130 METAR VIDP 142130Z 00000KT 1900 R27/2000 R29L/2000 R29R/2000 BR FEW100 11/07 Q1018 NOSIG=
202312142200 METAR VIDP 142200Z 18002KT 1900 R27/2000 R29L/2000 R29R/2000 BR FEW100 11/07 Q1018 NOSIG=
202312142230 METAR VIDP NIL=
202312142305 METAR VIDP NIL=
202312142330 METAR VIDP NIL=
202312150000 METAR VIDP 150000Z 00000KT 1900 R27/2000 R29L/2000 R29R/2000 BR FEW100 10/07 Q1018 NOSIG=
202312150030 METAR VIDP 150030Z 00000KT 1900 R27/2000 R29L/2000 R29R/2000 BR FEW100 10/07 Q1019 NOSIG=
202312150100 METAR VIDP 150100Z 00000KT 1700 R27/2000 R29L/2000 R29R/2000 BR FEW100 10/07 Q1019 TEMPO 1500 BR=
202312150130 METAR VIDP 150130Z 00000KT 1500 R27/1800 R29L/2000 R29R/2000 BR FEW100 10/07 Q1019 NOSIG=
202312150200 METAR VIDP 150200Z 00000KT 1000 R27/1400 R29L/1600 R29R/1900 BR FEW100 10/07 Q1020 TEMPO 0800 MIFG=
202312150230 METAR VIDP 150230Z 00000KT 0800 R27/1200 R29L/1600 R29R/1800 MIFG FEW100 11/08 Q1020 NOSIG=
202312150300 METAR VIDP 150300Z 18003KT 0800 R27/1100 R29L/2000 R29R/1800 MIFG FEW100 11/08 Q1021 NOSIG=
202312150330 METAR VIDP 150330Z 23003KT 0900 R27/1100 R29L/2000 R29R/2000 MIFG FEW100 12/09 Q1021 NOSIG=
202312150400 METAR VIDP 150400Z 25002KT 1000 R27/1200 R29L/2000 R29R/1900 FU FEW100 15/09 Q1021 NOSIG=
202312150430 METAR VIDP 150430Z 22003KT 1100 R27/1200 R29L/2000 R29R/2000 FU FEW100 16/09 Q1022 NOSIG=
202312150500 METAR VIDP 150500Z 00000KT 1200 R27/1300 R29L/2000 R29R/2000 FU FEW100 17/10 Q1022 BECMG 1500 FU=
202312150530 METAR VIDP 150530Z VRB02KT 1200 R27/1300 R29L/2000 R29R/2000 FU FEW100 18/09 Q1021 BECMG 1500 FU=
202312150600 METAR VIDP 150600Z VRB02KT 1200 R27/1400 R29L/2000 R29R/2000 FU FEW100 19/09 Q1021 BECMG 1500 FU=
202312150630 METAR VIDP 150630Z 25003KT 1500 R27/2000 R29L/2000 R29R/2000 FU FEW100 19/08 Q1021 NOSIG=
202312150700 METAR VIDP 150700Z 25003KT 1800 R27/2000 R29L/2000 R29R/2000 FU FEW100 20/08 Q1020 NOSIG=
202312150730 METAR VIDP 150730Z 27004KT 2100 FU FEW100 21/07 Q1020 NOSIG=
202312150800 METAR VIDP 150800Z 27003KT 2200 FU FEW100 21/07 Q1019 NOSIG=
202312150830 METAR VIDP 150830Z 26004KT 2200 FU FEW100 23/07 Q1018 NOSIG=
202312150900 METAR VIDP 150900Z 29004KT 2200 FU FEW100 23/07 Q1018 NOSIG=
202312150930 METAR VIDP 150930Z 29004KT 2200 FU FEW100 23/07 Q1018 NOSIG=
202312151000 METAR VIDP 151000Z 30004KT 2200 FU FEW100 23/07 Q1017 NOSIG=
202312151030 METAR VIDP 151030Z 29004KT 2500 FU FEW100 23/07 Q1017 NOSIG=
202312151100 METAR VIDP 151100Z 27004KT 2500 FU FEW100 23/07 Q1017 NOSIG=
202312151130 METAR VIDP 151130Z 25004KT 2600 HZ FEW100 23/07 Q1017 NOSIG=
202312151200 METAR VIDP 151200Z 26004KT 2500 HZ FEW100 21/07 Q1017 NOSIG=
202312151230 METAR VIDP 151230Z 29002KT 2500 HZ FEW100 20/07 Q1017 NOSIG=
202312151300 METAR VIDP 151300Z 00000KT 2500 HZ FEW100 19/07 Q1017 NOSIG=
202312151330 METAR VIDP 151330Z 00000KT 2300 HZ FEW100 17/07 Q1018 NOSIG=
202312151400 METAR VIDP 151400Z 00000KT 2300 HZ FEW100 17/07 Q1018 NOSIG=
202312151430 METAR VIDP 151430Z 00000KT 2300 FU FEW100 16/07 Q1018 NOSIG=
202312151500 METAR VIDP 151500Z 00000KT 2300 FU FEW100 15/09 Q1018 NOSIG=
202312151530 METAR VIDP 151530Z 00000KT 2300 FU FEW100 15/09 Q1018 NOSIG=
202312151600 METAR VIDP 151600Z 00000KT 2300 FU FEW100 14/08 Q1018 NOSIG=
202312151630 METAR VIDP 151630Z 00000KT 2300 FU FEW100 13/08 Q1018 NOSIG=
202312151700 METAR VIDP 151700Z 00000KT 2300 FU FEW100 13/08 Q1018 NOSIG=
202312151730 METAR VIDP 151730Z 00000KT 1700 R27/2000 R29L/2000 R29R/2000 BR FEW100 12/08 Q1018 BECMG 1500 BR=
202312151800 METAR VIDP 151800Z 00000KT 1700 R27/2000 R29L/2000 R29R/2000 BR FEW100 12/08 Q1018 NOSIG=
202312151830 METAR VIDP 151830Z 00000KT 1700 R27/2000 R29L/2000 R29R/2000 BR FEW100 12/08 Q1018 NOSIG=
202312151905 METAR VIDP NIL=
202312151930 METAR VIDP 151930Z 00000KT 1500 R27/2000 R29L/2000 R29R/2000 BR FEW100 11/08 Q1018 NOSIG=
202312152000 METAR VIDP 152000Z 00000KT 1500 R27/2000 R29L/2000 R29R/2000 BR FEW100 11/08 Q1018 NOSIG=
202312152030 METAR VIDP 152030Z 00000KT 1500 R27/2000 R29L/2000 R29R/2000 BR FEW100 11/08 Q1018 NOSIG=
202312152100 METAR VIDP 152100Z 00000KT 1500 R27/2000 R29L/2000 R29R/2000 BR FEW100 11/08 Q1018 NOSIG=
202312152130 METAR VIDP 152130Z 00000KT 1500 R27/2000 R29L/2000 R29R/2000 BR FEW100 10/08 Q1018 NOSIG=
202312152205 METAR VIDP NIL=
202312152230 METAR VIDP NIL=
202312152305 METAR VIDP NIL=
202312152330 METAR VIDP NIL=
202312160005 METAR VIDP NIL=
202312160030 METAR VIDP NIL=
202312160105 METAR VIDP NIL=
202312160130 METAR VIDP NIL=
202312160205 METAR VIDP NIL=
202312160230 METAR VIDP 160230Z 00000KT 0700 R27/1100 R29L/1000 R29R/1700 MIFG FEW100 10/08 Q1019 BECMG 0800 MIFG=
202312160300 METAR VIDP 160300Z 00000KT 0800 R27/1200 R29L/1200 R29R/1400 MIFG FEW100 12/09 Q1019 NOSIG=
202312160330 METAR VIDP NIL=
202312160405 METAR VIDP NIL=
202312160430 METAR VIDP 160430Z 00000KT 1000 R27/1100 R29L/1400 R29R/1800 FU FEW100 16/10 Q1020 NOSIG=
202312160500 METAR VIDP 160500Z 00000KT 1100 R27/2000 R29L/1900 R29R/1800 FU FEW100 18/10 Q1020 NOSIG=
202312160530 METAR VIDP 160530Z VRB02KT 1200 R27/1900 R29L/2000 R29R/1900 FU FEW100 19/09 Q1020 NOSIG=
202312160600 METAR VIDP 160600Z 25003KT 1400 R27/2000 R29L/2000 R29R/2000 FU FEW100 20/09 Q1019 BECMG 1500 FU=
202312160630 METAR VIDP 160630Z 26003KT 1600 R27/2000 R29L/2000 R29R/2000 FU FEW100 21/07 Q1019 NOSIG=
202312160700 METAR VIDP 160700Z 26004KT 1800 R27/2000 R29L/2000 R29R/2000 FU FEW100 21/05 Q1018 NOSIG=
202312160730 METAR VIDP 160730Z 26004KT 2100 FU NSC 22/05 Q1017 NOSIG=
202312160800 METAR VIDP 160800Z 27004KT 2500 HZ NSC 22/04 Q1017 NOSIG=
202312160830 METAR VIDP 160830Z 29004KT 2500 HZ NSC 23/04 Q1016 NOSIG=
202312160900 METAR VIDP 160900Z 31004KT 2700 HZ NSC 23/04 Q1016 NOSIG=
202312160930 METAR VIDP 160930Z 28004KT 2700 HZ NSC 23/04 Q1016 NOSIG=
202312161000 METAR VIDP 161000Z 32005KT 2700 HZ NSC 22/04 Q1016 NOSIG=
202312161030 METAR VIDP 161030Z 31005KT 2700 HZ NSC 22/04 Q1016 NOSIG=
202312161100 METAR VIDP 161100Z 31005KT 2700 HZ NSC 22/04 Q1015 NOSIG=
202312161130 METAR VIDP 161130Z 31004KT 2700 HZ NSC 21/04 Q1015 NOSIG=
202312161200 METAR VIDP 161200Z 29002KT 2700 HZ NSC 20/04 Q1015 NOSIG=
202312161230 METAR VIDP 161230Z 00000KT 2700 HZ NSC 18/05 Q1015 NOSIG=
202312161300 METAR VIDP 161300Z 00000KT 2700 HZ NSC 17/06 Q1016 NOSIG=
202312161330 METAR VIDP 161330Z 00000KT 2700 HZ NSC 17/05 Q1016 NOSIG=
202312161400 METAR VIDP 161400Z 00000KT 2700 HZ NSC 17/05 Q1016 NOSIG=
202312161430 METAR VIDP 161430Z 24002KT 2700 HZ NSC 17/06 Q1017 NOSIG=
202312161500 METAR VIDP 161500Z 18002KT 2700 HZ NSC 16/06 Q1017 NOSIG=
202312161530 METAR VIDP 161530Z 12002KT 2700 HZ NSC 16/06 Q1017 NOSIG=
202312161600 METAR VIDP 161600Z 00000KT 2500 HZ NSC 15/07 Q1017 NOSIG=
202312161630 METAR VIDP 161630Z 00000KT 2500 HZ NSC 15/07 Q1017 NOSIG=
202312161700 METAR VIDP 161700Z 10002KT 2500 HZ NSC 14/07 Q1017 NOSIG=
202312161730 METAR VIDP 161730Z 00000KT 2500 HZ NSC 14/07 Q1018 NOSIG=
202312161800 METAR VIDP 161800Z 09002KT 2500 HZ NSC 14/07 Q1018 NOSIG=
202312161830 METAR VIDP 161830Z 00000KT 2500 HZ NSC 13/08 Q1017 NOSIG=
202312161900 METAR VIDP 161900Z 03003KT 2500 HZ NSC 13/08 Q1017 NOSIG=
202312161930 METAR VIDP 161930Z 00000KT 2500 BR NSC 12/08 Q1017 NOSIG=
202312162000 METAR VIDP 162000Z 00000KT 2500 BR NSC 12/08 Q1018 NOSIG=
202312162030 METAR VIDP 162030Z 00000KT 2500 BR NSC 11/08 Q1018 NOSIG=
202312162100 METAR VIDP 162100Z 00000KT 2500 BR NSC 10/08 Q1018 NOSIG=
202312162130 METAR VIDP 162130Z 03003KT 2500 BR NSC 10/08 Q1017 NOSIG=
202312162200 METAR VIDP 162200Z 00000KT 2500 BR NSC 10/08 Q1017 NOSIG=
202312162230 METAR VIDP 162230Z 00000KT 2200 BR NSC 10/08 Q1017 NOSIG=
202312162300 METAR VIDP 162300Z 00000KT 2000 R27/2000 R29L/2000 R29R/2000 BR NSC 10/08 Q1017 BECMG 1500 BR=
202312162330 METAR VIDP 162330Z 00000KT 1800 R27/2000 R29L/2000 R29R/2000 BR NSC 10/09 Q1017 BECMG 1500 BR=
202312170000 METAR VIDP 170000Z 00000KT 1500 R27/2000 R29L/2000 R29R/2000 BR NSC 10/09 Q1017 NOSIG=
202312170030 METAR VIDP 170030Z 00000KT 1500 R27/2000 R29L/2000 R29R/2000 BR NSC 11/09 Q1018 NOSIG=
202312170100 METAR VIDP 170100Z 00000KT 1200 R27/2000 R29L/2000 R29R/2000 BR NSC 11/09 Q1018 NOSIG=
202312170130 METAR VIDP 170130Z 00000KT 1000 R27/2000 R29L/2000 R29R/2000 BR NSC 11/09 Q1018 BECMG 0800 MIFG=
202312170200 METAR VIDP 170200Z 20003KT 0800 R27/1800 R29L/1500 R29R/2000 MIFG NSC 11/08 Q1019 NOSIG=
202312170230 METAR VIDP 170230Z 22002KT 0800 R27/1100 R29L/1700 R29R/1300 MIFG NSC 11/08 Q1019 NOSIG=
202312170300 METAR VIDP 170300Z 00000KT 0800 R27/1100 R29L/1200 R29R/1800 MIFG NSC 12/09 Q1019 NOSIG=
202312170330 METAR VIDP 170330Z 22002KT 0800 R27/1100 R29L/1400 R29R/1800 FU NSC 14/09 Q1019 NOSIG=
202312170400 METAR VIDP 170400Z 20002KT 0900 R27/1100 R29L/1800 R29R/1800 FU NSC 16/09 Q1020 NOSIG=
202312170430 METAR VIDP 170430Z 21002KT 1000 R27/1200 R29L/2000 R29R/2000 FU NSC 18/10 Q1020 NOSIG=
202312170500 METAR VIDP 170500Z 21002KT 1300 R27/1500 R29L/2000 R29R/2000 FU NSC 20/07 Q1020 BECMG 1500 FU=
202312170530 METAR VIDP 170530Z 24003KT 2100 FU NSC 21/05 Q1020 NOSIG=
202312170600 METAR VIDP 170600Z 26003KT 2500 FU NSC 22/05 Q1019 NOSIG=
202312170630 METAR VIDP 170630Z 27005KT 2500 FU NSC 22/05 Q1019 NOSIG=
202312170700 METAR VIDP 170700Z 27005KT 2500 FU NSC 22/05 Q1019 NOSIG=
202312170730 METAR VIDP 170730Z 26005KT 2500 FU NSC 23/05 Q1018 NOSIG=
202312170800 METAR VIDP 170800Z 26005KT 2500 FU NSC 23/05 Q1018 NOSIG=
202312170830 METAR VIDP 170830Z 27006KT 2500 FU NSC 23/05 Q1018 NOSIG=
202312170900 METAR VIDP 170900Z 28007KT 2500 FU NSC 23/06 Q1017 NOSIG=
202312170930 METAR VIDP 170930Z 28006KT 2500 FU NSC 23/06 Q1017 NOSIG=
202312171000 METAR VIDP 171000Z 32006KT 2500 FU NSC 23/06 Q1017 NOSIG=
202312171030 METAR VIDP 171030Z 32006KT 2500 FU NSC 22/06 Q1017 NOSIG=
202312171100 METAR VIDP 171100Z 32005KT 2500 FU NSC 22/06 Q1017 NOSIG=
202312171130 METAR VIDP 171130Z 32005KT 2500 FU NSC 21/06 Q1017 NOSIG=
202312171200 METAR VIDP 171200Z 36005KT 2200 FU NSC 20/09 Q1017 NOSIG=
202312171230 METAR VIDP 171230Z 35004KT 2000 R27/2000 R29L/2000 R29R/2000 FU NSC 19/09 Q1018 NOSIG=
202312171300 METAR VIDP 171300Z 35004KT 2000 R27/2000 R29L/2000 R29R/2000 FU NSC 18/09 Q1018 NOSIG=
202312171330 METAR VIDP 171330Z 01003KT 2000 R27/2000 R29L/2000 R29R/2000 FU NSC 18/09 Q1018 NOSIG=
202312171400 METAR VIDP 171400Z 36004KT 2000 R27/2000 R29L/2000 R29R/2000 FU NSC 18/09 Q1019 NOSIG=
202312171430 METAR VIDP 171430Z 36004KT 2000 R27/2000 R29L/2000 R29R/2000 FU NSC 17/09 Q1019 NOSIG=
202312171500 METAR VIDP 171500Z 35003KT 2000 R27/2000 R29L/2000 R29R/2000 FU NSC 17/09 Q1019 NOSIG=
202312171530 METAR VIDP 171530Z 00000KT 2000 R27/2000 R29L/2000 R29R/2000 FU NSC 17/09 Q1020 NOSIG=
202312171600 METAR VIDP 171600Z 00000KT 2000 R27/2000 R29L/2000 R29R/2000 FU NSC 16/10 Q1020 NOSIG=
202312171630 METAR VIDP 171630Z 00000KT 1800 R27/2000 R29L/2000 R29R/2000 FU NSC 15/10 Q1020 NOSIG=
202312171700 METAR VIDP 171700Z 00000KT 1800 R27/2000 R29L/2000 R29R/2000 FU NSC 14/09 Q1020 NOSIG=
202312171705 METAR VIDP NIL=
202312171730 METAR VIDP 171730Z 00000KT 1700 R27/2000 R29L/2000 R29R/2000 FU NSC 14/09 Q1020 NOSIG=
202312171800 METAR VIDP 171800Z 00000KT 1600 R27/2000 R29L/2000 R29R/2000 FU NSC 13/08 Q1020 BECMG 1500 BR=
202312171830 METAR VIDP 171830Z 00000KT 1500 R27/2000 R29L/2000 R29R/2000 BR NSC 13/08 Q1020 NOSIG=
202312171900 METAR VIDP 171900Z 00000KT 1500 R27/2000 R29L/2000 R29R/2000 BR NSC 12/08 Q1020 NOSIG=
202312171930 METAR VIDP 171930Z VRB02KT 1300 R27/2000 R29L/2000 R29R/2000 BR NSC 12/09 Q1020 NOSIG=
202312172000 METAR VIDP 172000Z 00000KT 1100 R27/2000 R29L/2000 R29R/2000 BR NSC 11/09 Q1020 NOSIG=
202312172030 METAR VIDP 172030Z VRB02KT 1000 R27/2000 R29L/2000 R29R/2000 BR NSC 12/09 Q1020 NOSIG=
202312172100 METAR VIDP 172100Z 22003KT 1000 R27/2000 R29L/2000 R29R/2000 BR NSC 12/09 Q1020 NOSIG=
202312172130 METAR VIDP 172130Z VRB02KT 1000 R27/2000 R29L/2000 R29R/2000 BR NSC 12/09 Q1020 NOSIG=
202312172200 METAR VIDP 172200Z 00000KT 1000 R27/2000 R29L/2000 R29R/2000 BR NSC 11/09 Q1020 NOSIG=
202312172230 METAR VIDP 172230Z 00000KT 1000 R27/2000 R29L/2000 R29R/2000 BR NSC 11/09 Q1020 NOSIG=
202312172300 METAR VIDP 172300Z 00000KT 1000 R27/2000 R29L/2000 R29R/2000 BR NSC 10/08 Q1020 NOSIG=
202312172330 METAR VIDP 172330Z 00000KT 1000 R27/2000 R29L/2000 R29R/2000 BR NSC 10/08 Q1020 BECMG 0800 MIFG=
202312180000 METAR VIDP 180000Z 25004KT 1000 R27/2000 R29L/2000 R29R/2000 BR NSC 10/08 Q1020 NOSIG=
202312180030 METAR VIDP 180030Z 24003KT 1000 R27/2000 R29L/2000 R29R/2000 BR NSC 10/08 Q1020 NOSIG=
202312180100 METAR VIDP 180100Z 23003KT 1000 R27/2000 R29L/2000 R29R/2000 BR NSC 10/08 Q1021 BECMG 0800 MIFG=
202312180130 METAR VIDP 180130Z 23003KT 0800 R27/1800 R29L/1500 R29R/2000 MIFG NSC 10/09 Q1021 BECMG 0600 MIFG=
202312180200 METAR VIDP 180200Z 24004KT 0600 R27/1400 R29L/1200 R29R/1800 MIFG NSC 10/09 Q1021 NOSIG=
202312180230 METAR VIDP 180230Z 25004KT 0600 R27/1200 R29L/1100 R29R/1600 MIFG NSC 10/09 Q1021 NOSIG=
202312180300 METAR VIDP 180300Z 24004KT 0700 R27/1000 R29L/1100 R29R/1500 MIFG NSC 11/09 Q1022 NOSIG=
202312180330 METAR VIDP 180330Z 26005KT 0700 R27/1000 R29L/1200 R29R/1500 MIFG NSC 12/09 Q1022 BECMG 0800 MIFG=
202312180400 METAR VIDP 180400Z 26005KT 0900 R27/1100 R29L/1300 R29R/1600 MIFG NSC 13/10 Q1022 NOSIG=
202312180430 METAR VIDP 180430Z 27006KT 1100 R27/1200 R29L/1600 R29R/1700 BR NSC 14/10 Q1022 NOSIG=
202312180500 METAR VIDP 180500Z 27006KT 1200 R27/1500 R29L/1800 R29R/2000 FU NSC 16/09 Q1022 NOSIG=
202312180530 METAR VIDP 180530Z 28006KT 1400 R27/1700 R29L/2000 R29R/2000 FU NSC 17/09 Q1022 BECMG 1500 FU=
202312180600 METAR VIDP 180600Z 27008KT 1700 R27/1800 R29L/2000 R29R/2000 FU NSC 18/09 Q1021 NOSIG=
202312180630 METAR VIDP 180630Z 27008KT 2100 FU NSC 19/09 Q1021 NOSIG=
202312180700 METAR VIDP 180700Z 27008KT 2100 FU NSC 20/09 Q1020 NOSIG=
202312180730 METAR VIDP 180730Z 27008KT 2100 FU NSC 20/08 Q1020 NOSIG=
202312180800 METAR VIDP 180800Z 27008KT 2500 FU NSC 20/08 Q1020 NOSIG=
202312180830 METAR VIDP 180830Z 27009KT 2500 HZ NSC 20/09 Q1020 NOSIG=
202312180900 METAR VIDP 180900Z 28008KT 2500 HZ NSC 21/09 Q1019 NOSIG=
202312180930 METAR VIDP 180930Z 27009KT 2800 HZ NSC 21/09 Q1019 BECMG 3000 HZ=
202312181000 METAR VIDP 181000Z 27010KT 3000 HZ NSC 20/08 Q1019 NOSIG=
202312181030 METAR VIDP 181030Z 27008KT 3000 HZ NSC 20/08 Q1019 NOSIG=
202312181100 METAR VIDP 181100Z 27007KT 3000 HZ NSC 20/08 Q1019 NOSIG=
202312181130 METAR VIDP 181130Z 27007KT 3000 HZ NSC 19/08 Q1019 NOSIG=
202312181200 METAR VIDP 181200Z 26005KT 3000 HZ NSC 19/09 Q1019 NOSIG=
202312181230 METAR VIDP 181230Z 25004KT 3000 HZ NSC 18/10 Q1019 NOSIG=
202312181300 METAR VIDP 181300Z 27004KT 2800 HZ NSC 17/10 Q1019 NOSIG=
202312181330 METAR VIDP 181330Z 27004KT 2500 HZ NSC 16/10 Q1019 NOSIG=
202312181400 METAR VIDP 181400Z 27004KT 2500 HZ NSC 16/10 Q1020 NOSIG=
202312181430 METAR VIDP 181430Z 26004KT 2500 HZ NSC 15/09 Q1020 NOSIG=
202312181500 METAR VIDP 181500Z 26005KT 2500 HZ NSC 13/08 Q1020 NOSIG=
202312181530 METAR VIDP 181530Z 26005KT 2500 HZ NSC 14/08 Q1020 NOSIG=
202312181600 METAR VIDP 181600Z 25004KT 2500 HZ NSC 14/09 Q1020 NOSIG=
202312181630 METAR VIDP 181630Z 26005KT 2500 HZ NSC 14/09 Q1020 NOSIG=
202312181700 METAR VIDP 181700Z 25005KT 2500 HZ NSC 14/09 Q1020 NOSIG=
202312181730 METAR VIDP 181730Z 25004KT 2200 HZ NSC 14/09 Q1020 NOSIG=
202312181800 METAR VIDP 181800Z 25004KT 2200 HZ NSC 13/08 Q1020 NOSIG=
202312181830 METAR VIDP 181830Z 27004KT 2200 HZ NSC 13/08 Q1020 NOSIG=
202312181900 METAR VIDP 181900Z 25004KT 2200 BR NSC 13/09 Q1020 NOSIG=
202312181930 METAR VIDP 181930Z 26004KT 2200 BR NSC 13/09 Q1020 NOSIG=
202312182000 METAR VIDP 182000Z 26005KT 2200 BR NSC 12/08 Q1020 NOSIG=
202312182030 METAR VIDP 182030Z 25003KT 2200 BR NSC 12/09 Q1020 NOSIG=
202312182100 METAR VIDP 182100Z 24003KT 2200 BR NSC 12/09 Q1020 NOSIG=
202312182130 METAR VIDP 182130Z 25004KT 2100 BR NSC 12/08 Q1020 NOSIG=
202312182200 METAR VIDP 182200Z 25003KT 2100 BR NSC 12/09 Q1020 NOSIG=
202312182230 METAR VIDP 182230Z 25004KT 2100 BR NSC 11/09 Q1020 NOSIG=
202312182300 METAR VIDP 182300Z 24003KT 2100 BR NSC 10/08 Q1020 NOSIG=
202312182330 METAR VIDP 182330Z 24004KT 2100 BR NSC 10/08 Q1020 NOSIG=
202312190000 METAR VIDP 190000Z 23004KT 2100 BR NSC 10/08 Q1020 NOSIG=
202312190005 METAR VIDP NIL=
202312190030 METAR VIDP 190030Z 25004KT 1800 R27/2000 R29L/2000 R29R/2000 BR NSC 09/08 Q1020 TEMPO 1500 BR=
202312190100 METAR VIDP 190100Z 24004KT 1500 R27/2000 R29L/2000 R29R/2000 BR NSC 08/07 Q1021 NOSIG=
202312190130 METAR VIDP 190130Z 25004KT 1200 R27/2000 R29L/2000 R29R/2000 BR NSC 09/08 Q1021 NOSIG=
202312190200 METAR VIDP 190200Z 26005KT 1100 R27/2000 R29L/1900 R29R/2000 BR NSC 09/08 Q1021 TEMPO 0800 MIFG=
202312190230 METAR VIDP 190230Z 26005KT 0800 R27/1400 R29L/2000 R29R/2000 MIFG NSC 10/08 Q1021 NOSIG=
202312190300 METAR VIDP 190300Z 25004KT 0800 R27/1600 R29L/2000 R29R/2000 MIFG NSC 10/07 Q1021 NOSIG=
202312190330 METAR VIDP 190330Z 25004KT 0900 R27/1300 R29L/2000 R29R/2000 MIFG NSC 11/08 Q1022 NOSIG=
202312190400 METAR VIDP 190400Z 24004KT 1000 R27/1600 R29L/2000 R29R/2000 BR NSC 12/09 Q1022 NOSIG=
202312190430 METAR VIDP 190430Z 27004KT 1200 R27/1400 R29L/2000 R29R/2000 FU NSC 14/08 Q1022 BECMG 1500 FU=
202312190500 METAR VIDP 190500Z 27004KT 1200 R27/1500 R29L/2000 R29R/2000 FU NSC 15/08 Q1022 BECMG 1500 FU=
202312190530 METAR VIDP 190530Z 27005KT 1500 R27/2000 R29L/2000 R29R/2000 FU NSC 16/08 Q1022 NOSIG=
202312190600 METAR VIDP 190600Z 26005KT 1500 R27/2000 R29L/2000 R29R/2000 FU NSC 17/07 Q1022 NOSIG=
202312190630 METAR VIDP 190630Z 27007KT 1800 R27/2000 R29L/2000 R29R/2000 FU NSC 18/07 Q1022 NOSIG=
202312190700 METAR VIDP 190700Z 27008KT 2000 R27/2000 R29L/2000 R29R/2000 FU NSC 19/07 Q1021 NOSIG=
202312190730 METAR VIDP 190730Z 29009KT 2200 FU NSC 20/05 Q1020 NOSIG=
202312190800 METAR VIDP 190800Z 29008KT 2200 FU NSC 21/05 Q1020 NOSIG=
202312190830 METAR VIDP 190830Z 28008KT 2200 HZ NSC 22/05 Q1019 NOSIG=
202312190900 METAR VIDP 190900Z 29009KT 2500 HZ NSC 22/05 Q1019 NOSIG=
202312190930 METAR VIDP 190930Z 28008KT 2500 HZ NSC 22/04 Q1019 NOSIG=
202312191000 METAR VIDP 191000Z 29010KT 2500 HZ NSC 22/03 Q1019 NOSIG=
202312191030 METAR VIDP 191030Z 30009KT 2500 HZ NSC 22/04 Q1019 NOSIG=
202312191100 METAR VIDP 191100Z 28008KT 2500 HZ NSC 21/04 Q1019 NOSIG=
202312191130 METAR VIDP 191130Z 26008KT 2500 HZ NSC 20/04 Q1018 NOSIG=
202312191200 METAR VIDP 191200Z 26006KT 2500 HZ NSC 18/05 Q1019 NOSIG=
202312191230 METAR VIDP 191230Z 25003KT 2500 HZ NSC 17/05 Q1019 NOSIG=
202312191300 METAR VIDP 191300Z 24003KT 2500 HZ NSC 17/05 Q1019 NOSIG=
202312191330 METAR VIDP 191330Z VRB02KT 2500 HZ NSC 16/05 Q1019 NOSIG=
202312191400 METAR VIDP 191400Z 25003KT 2500 HZ NSC 15/05 Q1020 NOSIG=
202312191430 METAR VIDP 191430Z 25003KT 2500 HZ NSC 15/06 Q1020 NOSIG=
202312191500 METAR VIDP 191500Z 25004KT 2200 HZ NSC 14/06 Q1020 NOSIG=
202312191530 METAR VIDP 191530Z 25003KT 2200 FU NSC 14/06 Q1020 NOSIG=
202312191600 METAR VIDP 191600Z 24003KT 2200 FU NSC 14/06 Q1020 NOSIG=
202312191630 METAR VIDP 191630Z 23004KT 2200 FU NSC 13/07 Q1020 NOSIG=
202312191700 METAR VIDP 191700Z 00000KT 2200 FU NSC 13/07 Q1020 NOSIG=
202312191730 METAR VIDP 191730Z 26004KT 2200 FU NSC 13/08 Q1020 NOSIG=
202312191800 METAR VIDP 191800Z 26004KT 2100 FU NSC 13/08 Q1020 NOSIG=
202312191830 METAR VIDP 191830Z 22003KT 2100 FU NSC 13/08 Q1020 NOSIG=
202312191900 METAR VIDP 191900Z 22004KT 2100 FU NSC 13/08 Q1020 NOSIG=
202312191930 METAR VIDP 191930Z 21004KT 2100 BR NSC 12/08 Q1020 NOSIG=
202312192000 METAR VIDP 192000Z 00000KT 2100 BR NSC 12/08 Q1020 NOSIG=
202312192030 METAR VIDP 192030Z 00000KT 2100 BR NSC 11/07 Q1020 NOSIG=
202312192100 METAR VIDP 192100Z 00000KT 2100 BR NSC 11/07 Q1020 NOSIG=
202312192130 METAR VIDP 192130Z 00000KT 2100 BR NSC 11/07 Q1020 NOSIG=
202312192200 METAR VIDP 192200Z 00000KT 2000 R27/2000 R29L/2000 R29R/2000 BR NSC 11/07 Q1020 NOSIG=
202312192230 METAR VIDP 192230Z 00000KT 1800 R27/2000 R29L/2000 R29R/2000 BR NSC 11/07 Q1020 NOSIG=
202312192300 METAR VIDP 192300Z 27003KT 1700 R27/2000 R29L/2000 R29R/2000 BR NSC 11/07 Q1020 BECMG VIS 1500 BR=
202312192330 METAR VIDP 192330Z 00000KT 1500 R27/2000 R29L/2000 R29R/2000 BR NSC 10/07 Q1020 NOSIG=
202312200000 METAR VIDP 200000Z 00000KT 1200 R27/2000 R29L/2000 R29R/2000 BR NSC 10/07 Q1019 NOSIG=
202312200030 METAR VIDP 200030Z 00000KT 1200 R27/2000 R29L/2000 R29R/2000 BR NSC 10/07 Q1020 NOSIG=
202312200100 METAR VIDP 200100Z 28004KT 1000 R27/2000 R29L/2000 R29R/2000 BR NSC 10/07 Q1020 BECMG 0800 MIFG=
202312200130 METAR VIDP 200130Z 28004KT 0800 R27/2000 R29L/2000 R29R/2000 MIFG FEW100 10/07 Q1020 NOSIG=
202312200200 METAR VIDP 200200Z 28004KT 0900 R27/2000 R29L/2000 R29R/2000 MIFG FEW100 09/07 Q1021 NOSIG=
202312200230 METAR VIDP 200230Z 25003KT 1000 R27/1900 R29L/2000 R29R/2000 BR FEW100 08/06 Q1021 NOSIG=
202312200300 METAR VIDP 200300Z 26003KT 1200 R27/1600 R29L/2000 R29R/2000 BR FEW100 09/07 Q1021 NOSIG=
202312200330 METAR VIDP 200330Z 25004KT 1200 R27/1500 R29L/2000 R29R/2000 BR FEW100 10/07 Q1022 NOSIG=
202312200400 METAR VIDP 200400Z 26004KT 1400 R27/2000 R29L/2000 R29R/2000 FU FEW100 12/07 Q1022 BECMG 1500 FU=
202312200430 METAR VIDP 200430Z 25003KT 1700 R27/2000 R29L/2000 R29R/2000 FU FEW100 Q1022 NOSIG=
202312200500 METAR VIDP 200500Z 24004KT 1900 R27/2000 R29L/2000 R29R/2000 FU FEW100 14/07 Q1022 NOSIG=
202312200530 METAR VIDP 200530Z 26004KT 2100 FU FEW100 16/06 Q1022 NOSIG=
202312200600 METAR VIDP 200600Z 28005KT 2100 FU FEW100 17/07 Q1021 NOSIG=
202312200630 METAR VIDP 200630Z 28005KT 2200 FU FEW100 18/06 Q1020 NOSIG=
202312200700 METAR VIDP 200700Z 29006KT 2400 FU FEW100 19/07 Q1020 NOSIG=
202312200730 METAR VIDP 200730Z 28006KT 2400 FU FEW100 20/07 Q1019 NOSIG=
202312200800 METAR VIDP 200800Z 29006KT 2600 FU FEW100 21/07 Q1019 BECMG 3000 FU=
202312200830 METAR VIDP 200830Z 28006KT 2600 FU FEW100 21/07 Q1019 BECMG 3000 FU=
202312200900 METAR VIDP 200900Z 28006KT 2700 HZ FEW035 SCT100 21/07 Q1019 NOSIG=
202312200930 METAR VIDP 200930Z 27006KT 2700 HZ FEW035 SCT100 21/07 Q1018 NOSIG=
202312201000 METAR VIDP 201000Z 26007KT 2700 HZ SCT035 BKN100 20/07 Q1018 NOSIG=
202312201030 METAR VIDP 201030Z 26006KT 2700 HZ SCT035 BKN100 20/07 Q1018 NOSIG=
202312201100 METAR VIDP 201100Z 26005KT 2700 HZ SCT035 BKN100 19/08 Q1018 NOSIG=
202312201130 METAR VIDP 201130Z 28004KT 2700 HZ SCT035 BKN100 19/08 Q1017 NOSIG=
202312201200 METAR VIDP 201200Z 25003KT 2600 HZ FEW035 SCT100 18/08 Q1018 NOSIG=
202312201230 METAR VIDP 201230Z 22004KT 2500 HZ FEW035 SCT100 18/08 Q1018 NOSIG=
202312201300 METAR VIDP 201300Z 24003KT 2500 HZ FEW035 SCT100 17/08 Q1018 NOSIG=
202312201330 METAR VIDP 201330Z 28003KT 2500 HZ FEW035 SCT100 17/09 Q1019 NOSIG=
202312201400 METAR VIDP 201400Z 00000KT 2500 HZ FEW035 SCT100 16/08 Q1019 NOSIG=
202312201430 METAR VIDP 201430Z 22003KT 2500 HZ FEW035 SCT100 16/09 Q1019 NOSIG=
202312201500 METAR VIDP 201500Z VRB02KT 2500 HZ FEW035 SCT100 15/10 Q1019 NOSIG=
202312201530 METAR VIDP 201530Z 24003KT 2500 HZ FEW035 SCT100 15/10 Q1019 NOSIG=
202312201600 METAR VIDP 201600Z VRB02KT 2500 HZ FEW035 SCT100 15/10 Q1019 NOSIG=
202312201630 METAR VIDP 201630Z 23003KT 2500 HZ FEW035 SCT100 15/10 Q1019 NOSIG=
202312201700 METAR VIDP 201700Z 23003KT 2500 BR FEW035 SCT100 14/10 Q1020 NOSIG=
202312201730 METAR VIDP 201730Z VRB02KT 2500 BR FEW035 SCT100 14/11 Q1020 NOSIG=
202312201800 METAR VIDP 201800Z VRB02KT 2500 BR FEW035 SCT100 14/12 Q1019 NOSIG=
202312201830 METAR VIDP 201830Z 23002KT 2500 BR FEW035 SCT100 14/12 Q1019 NOSIG=
202312201900 METAR VIDP 201900Z 00000KT 2400 BR FEW035 SCT100 14/12 Q1019 NOSIG=
202312201930 METAR VIDP 201930Z VRB02KT 2300 BR FEW035 SCT100 13/12 Q1019 NOSIG=
202312202000 METAR VIDP 202000Z 00000KT 2200 BR FEW035 SCT100 13/12 Q1019 NOSIG=
202312202030 METAR VIDP 202030Z VRB02KT 2200 BR FEW035 SCT100 13/12 Q1018 NOSIG=
202312202100 METAR VIDP 202100Z 22002KT 2200 BR FEW035 SCT100 13/12 Q1018 NOSIG=
202312202130 METAR VIDP 202130Z 22002KT 2100 BR FEW035 SCT100 12/11 Q1018 NOSIG=
202312202200 METAR VIDP 202200Z VRB02KT 2100 BR FEW035 SCT100 12/11 Q1018 NOSIG=
202312202230 METAR VIDP 202230Z 24003KT 2100 BR FEW035 SCT100 11/10 Q1018 NOSIG=
202312202300 METAR VIDP 202300Z 00000KT 1800 R27/2000 R29L/2000 R29R/2000 BR FEW035 SCT100 11/09 Q1017 BECMG 1500 BR=
202312202330 METAR VIDP 202330Z 24004KT 1500 R27/2000 R29L/2000 R29R/2000 BR FEW035 SCT100 11/09 Q1018 NOSIG=
202312210000 METAR VIDP 210000Z 22003KT 1500 R27/2000 R29L/2000 R29R/2000 BR FEW035 SCT100 10/08 Q1018 NOSIG=
202312210030 METAR VIDP 210030Z 25003KT 1200 R27/2000 R29L/1900 R29R/2000 BR FEW035 SCT100 09/08 Q1018 NOSIG=
202312210100 METAR VIDP 210100Z 24003KT 1200 R27/2000 R29L/1500 R29R/2000 BR FEW035 SCT100 09/08 Q1018 NOSIG=
202312210130 METAR VIDP 210130Z 26002KT 1000 R27/2000 R29L/1700 R29R/2000 BR FEW035 SCT100 09/08 Q1018 BECMG 0800 MIFG=
202312210200 METAR VIDP 210200Z 23003KT 0700 R27/1300 R29L/1200 R29R/1700 MIFG FEW035 SCT100 08/07 Q1018 NOSIG=
202312210230 METAR VIDP 210230Z 25003KT 0700 R27/1100 R29L/1200 R29R/1900 MIFG FEW035 SCT100 09/07 Q1019 NOSIG=
202312210300 METAR VIDP 210300Z 23003KT 0700 R27/1200 R29L/1400 R29R/1900 MIFG SCT100 10/08 Q1019 BECMG 0800 MIFG=
202312210330 METAR VIDP 210330Z 23003KT 0800 R27/1300 R29L/1400 R29R/2000 MIFG SCT100 11/08 Q1020 NOSIG=
202312210400 METAR VIDP 210400Z 23003KT 0800 R27/1300 R29L/1300 R29R/1600 MIFG SCT100 11/09 Q1020 NOSIG=
202312210430 METAR VIDP 210430Z 23004KT 0900 R27/1000 R29L/1600 R29R/1700 MIFG SCT100 13/09 Q1020 NOSIG=
202312210500 METAR VIDP 210500Z 24003KT 0900 R27/1100 R29L/1900 R29R/1800 MIFG SCT100 14/10 Q1020 NOSIG=
202312210530 METAR VIDP 210530Z 26003KT 1000 R27/1100 R29L/2000 R29R/1900 FU SCT100 15/10 Q1020 NOSIG=
202312210600 METAR VIDP 210600Z 28003KT 1100 R27/1300 R29L/2000 R29R/2000 FU SCT100 17/09 Q1019 NOSIG=
202312210630 METAR VIDP 210630Z 26004KT 1300 R27/1400 R29L/2000 R29R/2000 FU FEW100 19/08 Q1019 BECMG 1500 FU=
202312210700 METAR VIDP 210700Z 27004KT 1500 R27/1500 R29L/2000 R29R/2000 FU FEW100 19/08 Q1018 NOSIG=
202312210730 METAR VIDP 210730Z 28004KT 1500 R27/1500 R29L/2000 R29R/2000 FU FEW100 20/08 Q1018 NOSIG=
202312210800 METAR VIDP 210800Z 29005KT 1700 R27/1700 R29L/2000 R29R/2000 FU FEW100 21/07 Q1017 NOSIG=
202312210830 METAR VIDP 210830Z 28005KT 1700 R27/1700 R29L/2000 R29R/2000 FU FEW100 21/07 Q1017 NOSIG=
202312210900 METAR VIDP 210900Z 28006KT 1700 R27/1700 R29L/2000 R29R/2000 FU FEW100 21/08 Q1016 NOSIG=
202312210930 METAR VIDP 210930Z 27007KT 1900 R27/1900 R29L/2000 R29R/2000 FU FEW100 21/08 Q1016 NOSIG=
202312211000 METAR VIDP 211000Z 27006KT 2000 R27/2000 R29L/2000 R29R/2000 FU FEW100 22/08 Q1016 NOSIG=
202312211030 METAR VIDP 211030Z 28006KT 2000 R27/2000 R29L/2000 R29R/2000 FU FEW100 21/08 Q1016 NOSIG=
202312211100 METAR VIDP 211100Z 27005KT 2000 R27/2000 R29L/2000 R29R/2000 FU FEW100 21/08 Q1016 NOSIG=
202312211130 METAR VIDP 211130Z 27005KT 2000 R27/2000 R29L/2000 R29R/2000 FU FEW100 20/08 Q1016 NOSIG=
202312211200 METAR VIDP 211200Z 27004KT 2000 R27/2000 R29L/2000 R29R/2000 FU FEW100 19/09 Q1016 NOSIG=
202312211230 METAR VIDP 211230Z 27003KT 2100 FU FEW100 18/10 Q1017 NOSIG=
202312211300 METAR VIDP 211300Z 00000KT 2100 FU FEW100 17/10 Q1017 NOSIG=
202312211330 METAR VIDP 211330Z 00000KT 2100 FU FEW100 17/10 Q1017 NOSIG=
202312211400 METAR VIDP 211400Z 00000KT 2100 FU FEW100 16/10 Q1017 NOSIG=
202312211430 METAR VIDP 211430Z 00000KT 2100 FU FEW100 16/10 Q1017 NOSIG=
202312211500 METAR VIDP 211500Z 00000KT 1800 R27/2000 R29L/2000 R29R/2000 FU NSC 15/10 Q1018 NOSIG=
202312211530 METAR VIDP 211530Z 00000KT 1600 R27/2000 R29L/1900 R29R/2000 BR NSC 14/10 Q1018 BECMG 1500 BR=
202312211600 METAR VIDP 211600Z 00000KT 1200 R27/2000 R29L/1700 R29R/2000 BR NSC 14/10 Q1018 NOSIG=
202312211630 METAR VIDP 211630Z 00000KT 1000 R27/2000 R29L/2000 R29R/2000 BR NSC 13/10 Q1018 BECMG 0800 MIFG=
202312211700 METAR VIDP 211700Z 00000KT 1000 R27/2000 R29L/2000 R29R/2000 BR NSC 12/09 Q1018 BECMG 0800 MIFG=
202312211730 METAR VIDP 211730Z 00000KT 0900 R27/2000 R29L/2000 R29R/2000 MIFG NSC 11/09 Q1018 BECMG 0800 MIFG=
202312211800 METAR VIDP 211800Z 27003KT 0800 R27/2000 R29L/2000 R29R/2000 MIFG NSC 11/09 Q1018 NOSIG=
202312211830 METAR VIDP 211830Z 00000KT 0800 R27/2000 R29L/2000 R29R/2000 MIFG NSC 11/09 Q1018 NOSIG=
202312211900 METAR VIDP 211900Z 00000KT 0700 R27/2000 R29L/1800 R29R/2000 MIFG NSC 11/09 Q1017 NOSIG=
202312211930 METAR VIDP 211930Z 00000KT 0700 R27/2000 R29L/1900 R29R/2000 MIFG NSC 11/09 Q1017 BECMG 0600 MIFG=
202312212000 METAR VIDP 212000Z 00000KT 0700 R27/2000 R29L/1900 R29R/2000 MIFG NSC 11/09 Q1017 BECMG 0600 MIFG=
202312212030 METAR VIDP 212030Z 00000KT 0600 R27/2000 R29L/2000 R29R/2000 MIFG NSC 11/09 Q1017 NOSIG=
202312212100 METAR VIDP 212100Z 00000KT 0600 R27/2000 R29L/1700 R29R/2000 MIFG NSC 11/09 Q1017 NOSIG=
202312212130 METAR VIDP 212130Z 00000KT 0600 R27/2000 R29L/1700 R29R/2000 MIFG NSC 11/09 Q1017 NOSIG=
202312212200 METAR VIDP 212200Z 00000KT 0600 R27/2000 R29L/1800 R29R/2000 MIFG NSC 11/09 Q1017 NOSIG=
202312212230 METAR VIDP 212230Z 00000KT 0600 R27/2000 R29L/2000 R29R/2000 MIFG NSC 10/08 Q1017 NOSIG=
202312212300 METAR VIDP 212300Z 00000KT 0600 R27/2000 R29L/1800 R29R/2000 MIFG NSC 09/07 Q1017 NOSIG=
202312212330 METAR VIDP 212330Z 00000KT 0600 R27/2000 R29L/1400 R29R/2000 MIFG NSC 09/07 Q1017 NOSIG=
202312220000 METAR VIDP 220000Z 00000KT 0500 R27/2000 R29L/1400 R29R/2000 MIFG NSC 09/07 Q1017 NOSIG=
202312220030 METAR VIDP 220030Z 00000KT 0400 R27/2000 R29L/1800 R29R/2000 FG NSC 09/08 Q1018 NOSIG=
202312220100 METAR VIDP 220100Z 00000KT 0400 R27/2000 R29L/1800 R29R/2000 FG NSC 09/08 Q1018 NOSIG=
202312220130 METAR VIDP 220130Z 00000KT 0400 R27/1500 R29L/1200 R29R/2000 FG NSC 08/08 Q1018 BECMG 0350 FG=
202312220200 METAR VIDP 220200Z 00000KT 0350 R27/1200 R29L/1000 R29R/1800 FG NSC 08/07 Q1019 NOSIG=
202312220230 METAR VIDP 220230Z 00000KT 0350 R27/1000 R29L/1000 R29R/1800 FG NSC 08/07 Q1019 NOSIG=
202312220300 METAR VIDP 220300Z 00000KT 0500 R27/1000 R29L/1000 R29R/1500 MIFG NSC 10/07 Q1019 BECMG 0600 MIFG=
202312220330 METAR VIDP 220330Z 24002KT 0600 R27/1100 R29L/1300 R29R/1600 MIFG NSC 11/08 Q1019 BECMG 0800 MIFG=
202312220400 METAR VIDP 220400Z 23003KT 0900 R27/1100 R29L/1300 R29R/1600 MIFG NSC 12/08 Q1020 NOSIG=
202312220430 METAR VIDP 220430Z 23003KT 1000 R27/1100 R29L/1600 R29R/1600 BR NSC 14/09 Q1020 NOSIG=
202312220500 METAR VIDP 220500Z 00000KT 1000 R27/1100 R29L/1800 R29R/1800 BR NSC 15/10 Q1020 NOSIG=
202312220530 METAR VIDP 220530Z 00000KT 1100 R27/1200 R29L/1800 R29R/2000 FU NSC 17/09 Q1019 NOSIG=
202312220600 METAR VIDP 220600Z 00000KT 1100 R27/1200 R29L/2000 R29R/2000 FU NSC 18/10 Q1019 NOSIG=
202312220630 METAR VIDP 220630Z 26003KT 1200 R27/1300 R29L/2000 R29R/2000 FU NSC 19/09 Q1018 NOSIG=
202312220700 METAR VIDP 220700Z 27007KT 1200 R27/1300 R29L/1600 R29R/2000 FU NSC 20/09 Q1018 NOSIG=
202312220730 METAR VIDP 220730Z 26006KT 1200 R27/1300 R29L/1600 R29R/2000 FU NSC 20/09 Q1017 NOSIG=
202312220800 METAR VIDP 220800Z 27004KT 1300 R27/1300 R29L/1600 R29R/2000 FU NSC 20/09 Q1017 NOSIG=
202312220830 METAR VIDP 220830Z 25002KT 1300 R27/1400 R29L/1500 R29R/2000 FU NSC 20/09 Q1016 NOSIG=
202312220900 METAR VIDP 220900Z 00000KT 1300 R27/1400 R29L/1500 R29R/2000 FU NSC 21/10 Q1016 NOSIG=
202312220930 METAR VIDP 220930Z VRB02KT 1300 R27/1500 R29L/1500 R29R/2000 FU NSC 21/10 Q1016 NOSIG=
202312221000 METAR VIDP 221000Z VRB02KT 1300 R27/1500 R29L/1500 R29R/2000 FU NSC 21/10 Q1016 NOSIG=
202312221030 METAR VIDP 221030Z VRB02KT 1300 R27/1500 R29L/1600 R29R/2000 FU NSC 21/10 Q1016 NOSIG=
202312221100 METAR VIDP 221100Z 25003KT 1300 R27/1600 R29L/1700 R29R/2000 FU NSC 20/10 Q1016 NOSIG=
202312221130 METAR VIDP 221130Z 27003KT 1400 R27/1600 R29L/2000 R29R/2000 FU NSC 20/10 Q1016 BECMG 1500 FU=
202312221200 METAR VIDP 221200Z 27003KT 1500 R27/1900 R29L/2000 R29R/2000 FU NSC 19/11 Q1016 NOSIG=
202312221230 METAR VIDP 221230Z VRB02KT 1500 R27/2000 R29L/2000 R29R/2000 FU NSC 19/11 Q1016 NOSIG=
202312221300 METAR VIDP 221300Z VRB02KT 1500 R27/2000 R29L/2000 R29R/2000 FU NSC 18/11 Q1017 NOSIG=
202312221330 METAR VIDP 221330Z 26003KT 1500 R27/2000 R29L/2000 R29R/2000 FU NSC 17/11 Q1017 NOSIG=
202312221400 METAR VIDP 221400Z 05003KT 1500 R27/2000 R29L/2000 R29R/2000 FU NSC 16/10 Q1017 NOSIG=
202312221430 METAR VIDP 221430Z 05002KT 1400 R27/2000 R29L/2000 R29R/2000 FU NSC 16/11 Q1017 NOSIG=
202312221500 METAR VIDP 221500Z 05002KT 1200 R27/2000 R29L/2000 R29R/2000 BR NSC 16/12 Q1018 NOSIG=
202312221530 METAR VIDP 221530Z 00000KT 1200 R27/2000 R29L/2000 R29R/2000 BR FEW100 16/12 Q1018 NOSIG=
202312221600 METAR VIDP 221600Z 00000KT 1000 R27/2000 R29L/2000 R29R/2000 BR FEW035 SCT100 15/12 Q1019 NOSIG=
202312221630 METAR VIDP 221630Z 09002KT 1000 R27/1900 R29L/1700 R29R/2000 BR FEW035 SCT100 15/12 Q1018 NOSIG=
202312221700 METAR VIDP 221700Z 00000KT 0900 R27/1900 R29L/1700 R29R/2000 MIFG FEW035 SCT100 15/12 Q1019 BECMG 0800 MIFG=
202312221730 METAR VIDP 221730Z 00000KT 0900 R27/1800 R29L/1800 R29R/2000 MIFG FEW035 SCT100 14/12 Q1019 BECMG 0800 MIFG=
202312221800 METAR VIDP 221800Z 00000KT 0800 R27/1800 R29L/1300 R29R/2000 MIFG FEW035 SCT100 14/12 Q1019 NOSIG=
202312221830 METAR VIDP 221830Z 00000KT 0800 R27/1700 R29L/1300 R29R/2000 MIFG FEW035 SCT100 14/12 Q1019 NOSIG=
202312221900 METAR VIDP 221900Z 06002KT 0800 R27/1700 R29L/1300 R29R/2000 MIFG FEW035 SCT100 14/12 Q1018 NOSIG=
202312221930 METAR VIDP 221930Z 08002KT 0800 R27/1700 R29L/1300 R29R/2000 MIFG FEW035 SCT100 13/11 Q1018 NOSIG=
202312222000 METAR VIDP 222000Z 11002KT 0800 R27/1900 R29L/1300 R29R/2000 MIFG FEW035 SCT100 13/11 Q1018 NOSIG=
202312222030 METAR VIDP 222030Z 05004KT 0800 R27/1900 R29L/1300 R29R/2000 MIFG FEW035 SCT100 13/12 Q1017 NOSIG=
202312222100 METAR VIDP 222100Z VRB02KT 0700 R27/1800 R29L/1300 R29R/2000 MIFG SCT035 BKN100 14/11 Q1018 BECMG 0600 MIFG=
202312222130 METAR VIDP 222130Z 07004KT 0600 R27/1800 R29L/1300 R29R/2000 MIFG SCT035 BKN100 13/11 Q1017 NOSIG=
202312222200 METAR VIDP 222200Z 10006KT 0600 R27/1700 R29L/1300 R29R/2000 MIFG SCT035 BKN100 13/12 Q1017 NOSIG=
202312222230 METAR VIDP 222230Z 07003KT 0600 R27/1800 R29L/1300 R29R/2000 MIFG SCT035 BKN100 13/12 Q1017 NOSIG=
202312222300 METAR VIDP 222300Z 08004KT 0600 R27/1800 R29L/1300 R29R/2000 MIFG SCT035 BKN100 13/12 Q1017 NOSIG=
202312222305 METAR VIDP NIL=
202312222330 METAR VIDP 222330Z 09004KT 0600 R27/1800 R29L/1300 R29R/2000 MIFG SCT035 BKN100 13/12 Q1017 NOSIG=
202312230000 METAR VIDP 230000Z 13005KT 0600 R27/1700 R29L/1300 R29R/2000 MIFG SCT035 BKN100 13/12 Q1017 NOSIG=
202312230005 METAR VIDP NIL=
202312230030 METAR VIDP 230030Z 13002KT 0600 R27/1800 R29L/1300 R29R/2000 MIFG SCT035 BKN100 14/11 Q1017 NOSIG=
202312230105 METAR VIDP NIL=
202312230130 METAR VIDP 230130Z 25004KT 0500 R27/1300 R29L/1300 R29R/1900 MIFG FEW100 13/11 Q1019 NOSIG=
202312230200 METAR VIDP 230200Z 00000KT 0500 R27/1000 R29L/1000 R29R/1400 MIFG FEW100 13/11 Q1019 NOSIG=
202312230230 METAR VIDP 230230Z 17003KT 0500 R27/0900 R29L/0900 R29R/1300 MIFG FEW100 13/11 Q1020 NOSIG=
202312230300 METAR VIDP 230300Z 00000KT 0500 R27/0800 R29L/0800 R29R/1200 MIFG FEW100 14/12 Q1020 NOSIG=
202312230330 METAR VIDP 230330Z 00000KT 0500 R27/0800 R29L/0900 R29R/1200 MIFG FEW100 14/12 Q1021 TEMPO 0600 MIFG=
202312230400 METAR VIDP 230400Z 00000KT 0600 R27/0800 R29L/1000 R29R/1200 MIFG FEW100 15/13 Q1022 NOSIG=
202312230430 METAR VIDP 230430Z VRB02KT 0600 R27/0800 R29L/1100 R29R/1400 MIFG FEW100 16/13 Q1022 NOSIG=
202312230500 METAR VIDP 230500Z VRB02KT 0700 R27/1000 R29L/1300 R29R/1500 MIFG FEW100 17/13 Q1022 BECMG 0800 FU=
202312230530 METAR VIDP 230530Z 11003KT 0900 R27/1150 R29L/1600 R29R/1800 FU FEW100 19/11 Q1022 NOSIG=
202312230600 METAR VIDP 230600Z 10003KT 1100 R27/1100 R29L/2000 R29R/1800 FU FEW100 20/10 Q1022 NOSIG=
202312230630 METAR VIDP 230630Z 12003KT 1200 R27/1300 R29L/1800 R29R/1900 FU FEW100 21/10 Q1021 BECMG 1500 FU=
202312230700 METAR VIDP 230700Z 11004KT 1600 R27/1800 R29L/2000 R29R/2000 FU FEW100 21/09 Q1021 NOSIG=
202312230730 METAR VIDP 230730Z 12004KT 1800 R27/2000 R29L/2000 R29R/2000 FU FEW100 22/10 Q1020 NOSIG=
202312230800 METAR VIDP 230800Z 12005KT 1800 R27/1900 R29L/2000 R29R/2000 FU FEW100 22/09 Q1020 NOSIG=
202312230830 METAR VIDP 230830Z 10005KT 1800 R27/2000 R29L/1700 R29R/2000 FU FEW100 23/09 Q1020 NOSIG=
202312230900 METAR VIDP 230900Z 11005KT 1800 R27/1600 R29L/1800 R29R/2000 FU FEW100 23/09 Q1019 NOSIG=
202312230930 METAR VIDP 230930Z 10006KT 1800 R27/1700 R29L/1800 R29R/2000 FU FEW100 23/10 Q1019 NOSIG=
202312231000 METAR VIDP 231000Z 09006KT 1800 R27/1800 R29L/2000 R29R/2000 FU FEW100 23/10 Q1019 NOSIG=
202312231030 METAR VIDP 231030Z 08006KT 1800 R27/2000 R29L/2000 R29R/2000 FU FEW100 22/09 Q1019 NOSIG=
202312231100 METAR VIDP 231100Z 11005KT 1800 R27/2000 R29L/2000 R29R/2000 FU FEW100 22/09 Q1019 NOSIG=
202312231130 METAR VIDP 231130Z 11004KT 1800 R27/2000 R29L/2000 R29R/2000 FU FEW100 21/09 Q1019 NOSIG=
202312231200 METAR VIDP 231200Z 11003KT 1800 R27/2000 R29L/2000 R29R/2000 FU FEW100 20/09 Q1019 NOSIG=
202312231230 METAR VIDP 231230Z 00000KT 2100 FU FEW100 19/10 Q1019 NOSIG=
202312231300 METAR VIDP 231300Z 00000KT 2100 FU FEW100 18/10 Q1019 NOSIG=
202312231330 METAR VIDP 231330Z 00000KT 2100 FU NSC 17/10 Q1020 NOSIG=
202312231400 METAR VIDP 231400Z 00000KT 2100 FU NSC 16/10 Q1020 NOSIG=
202312231430 METAR VIDP 231430Z 00000KT 2100 FU NSC 16/10 Q1020 NOSIG=
202312231500 METAR VIDP 231500Z 00000KT 1800 R27/2000 R29L/2000 R29R/2000 FU NSC 15/10 Q1020 NOSIG=
202312231530 METAR VIDP 231530Z 00000KT 1800 R27/2000 R29L/2000 R29R/2000 BR NSC 15/11 Q1021 NOSIG=
202312231600 METAR VIDP 231600Z 00000KT 1600 R27/2000 R29L/2000 R29R/2000 BR NSC 15/11 Q1021 BECMG 1500 BR=
202312231630 METAR VIDP 231630Z 10003KT 1200 R27/2000 R29L/2000 R29R/2000 BR NSC 15/11 Q1021 NOSIG=
202312231700 METAR VIDP 231700Z 11003KT 1200 R27/2000 R29L/2000 R29R/2000 BR NSC 14/11 Q1021 NOSIG=
202312231730 METAR VIDP 231730Z 09003KT 1200 R27/2000 R29L/2000 R29R/2000 BR NSC 14/11 Q1021 NOSIG=
202312231800 METAR VIDP 231800Z 00000KT 1000 R27/2000 R29L/2000 R29R/2000 BR NSC 14/11 Q1021 TEMPO 0800 MIFG=
202312231830 METAR VIDP 231830Z 00000KT 1000 R27/2000 R29L/2000 R29R/2000 BR NSC 14/11 Q1021 TEMPO 0800 MIFG=
202312231900 METAR VIDP 231900Z 00000KT 0800 R27/2000 R29L/2000 R29R/2000 MIFG NSC 13/11 Q1021 NOSIG=
202312231930 METAR VIDP 231930Z 00000KT 0800 R27/2000 R29L/2000 R29R/2000 MIFG NSC 13/11 Q1021 NOSIG=
202312232000 METAR VIDP 232000Z 00000KT 0800 R27/2000 R29L/2000 R29R/2000 MIFG NSC 13/11 Q1021 NOSIG=
202312232030 METAR VIDP 232030Z 00000KT 0800 R27/2000 R29L/2000 R29R/2000 MIFG NSC 13/11 Q1021 NOSIG=
202312232100 METAR VIDP 232100Z 00000KT 0800 R27/2000 R29L/1600 R29R/2000 MIFG NSC 13/11 Q1021 NOSIG=
202312232130 METAR VIDP 232130Z 00000KT 0800 R27/2000 R29L/2000 R29R/2000 MIFG NSC 12/10 Q1021 NOSIG=
202312232200 METAR VIDP 232200Z 00000KT 0800 R27/1900 R29L/2000 R29R/2000 MIFG NSC 12/10 Q1021 BECMG 0600 FG=
202312232230 METAR VIDP 232230Z 00000KT 0700 R27/1700 R29L/2000 R29R/2000 MIFG NSC 11/10 Q1021 BECMG 0600 FG=
202312232300 METAR VIDP 232300Z 00000KT 0600 R27/1500 R29L/1700 R29R/2000 MIFG NSC 11/10 Q1021 NOSIG=
202312232330 METAR VIDP 232330Z 00000KT 0600 R27/1400 R29L/1200 R29R/2000 MIFG NSC 11/10 Q1021 NOSIG=
202312240000 METAR VIDP 240000Z 00000KT 0600 R27/1600 R29L/1200 R29R/2000 MIFG NSC 11/10 Q1021 NOSIG=
202312240030 METAR VIDP 240030Z 00000KT 0600 R27/1500 R29L/1600 R29R/2000 FG NSC 11/10 Q1021 BECMG 0350 FG=
202312240100 METAR VIDP 240100Z 00000KT 0400 R27/1300 R29L/1500 R29R/2000 FG NSC 10/10 Q1022 NOSIG=
202312240130 METAR COR VIDP 240130Z 00000KT 0400 R27/1400 R29L/1200 R29R/2000 FG NSC 10/10 Q1022 BECMG 0350 FG=
202312240200 METAR VIDP 240200Z 00000KT 0350 R27/0950 R29L/0725 R29R/1300 FG NSC 10/10 Q1022 NOSIG=
202312240230 METAR VIDP 240230Z 00000KT 0350 R27/0800 R29L/0750 R29R/1200 FG NSC 11/10 Q1023 BECMG 0600 MIFG=
202312240300 METAR VIDP 240300Z 00000KT 0400 R27/0700 R29L/0800 R29R/1300 FG NSC 12/10 Q1023 BECMG 0600 MIFG=
202312240330 METAR VIDP 240330Z 00000KT 0500 R27/0800 R29L/1000 R29R/1200 MIFG NSC 13/11 Q1023 BECMG 0600 MIFG=
202312240400 METAR VIDP 240400Z 00000KT 0600 R27/0800 R29L/1100 R29R/1300 MIFG NSC 15/12 Q1024 BECMG 0800 MIFG=
202312240430 METAR VIDP 240430Z 00000KT 0800 R27/0800 R29L/1100 R29R/1300 MIFG NSC 17/13 Q1024 NOSIG=
202312240500 METAR COR VIDP 240500Z 00000KT 0800 R27/0800 R29L/1500 R29R/1700 FU NSC 19/13 Q1024 NOSIG=
202312240505 METAR VIDP NIL=
202312240530 METAR VIDP 240530Z 00000KT 1000 R27/1100 R29L/1700 R29R/1800 FU NSC 20/13 Q1023 NOSIG=
202312240600 METAR VIDP 240600Z 25003KT 1200 R27/1200 R29L/2000 R29R/2000 FU NSC 21/12 Q1023 NOSIG=
202312240630 METAR VIDP 240630Z 29003KT 1200 R27/1200 R29L/2000 R29R/2000 FU NSC 21/12 Q1023 BECMG 1500 FU=
202312240700 METAR VIDP 240700Z 29004KT 1200 R27/1200 R29L/1800 R29R/2000 FU NSC 22/11 Q1022 BECMG 1500 FU=
202312240730 METAR VIDP 240730Z 30004KT 1200 R27/1300 R29L/1600 R29R/1900 FU NSC 22/11 Q1022 BECMG 1500 FU=
202312240800 METAR VIDP 240800Z 28004KT 1200 R27/1200 R29L/1400 R29R/1900 FU NSC 22/11 Q1021 NOSIG=
202312240830 METAR VIDP 240830Z 30003KT 1200 R27/1200 R29L/1400 R29R/1900 FU NSC 23/12 Q1021 NOSIG=
202312240900 METAR VIDP 240900Z 32003KT 1200 R27/1200 R29L/1300 R29R/1900 FU NSC 23/12 Q1020 NOSIG=
202312240930 METAR VIDP 240930Z 33004KT 1200 R27/1500 R29L/1500 R29R/2000 FU SCT100 23/12 Q1020 NOSIG=
202312241000 METAR VIDP 241000Z 33005KT 1200 R27/1400 R29L/1500 R29R/2000 FU SCT100 23/11 Q1020 NOSIG=
202312241030 METAR VIDP 241030Z 30004KT 1200 R27/1600 R29L/1500 R29R/2000 FU FEW100 23/11 Q1020 NOSIG=
202312241100 METAR VIDP 241100Z 30005KT 1200 R27/1700 R29L/1700 R29R/2000 FU FEW100 23/11 Q1020 NOSIG=
202312241130 METAR VIDP 241130Z 31004KT 1300 R27/1900 R29L/1900 R29R/2000 FU FEW100 22/11 Q1020 NOSIG=
202312241200 METAR VIDP 241200Z 31004KT 1300 R27/2000 R29L/2000 R29R/2000 FU FEW100 21/12 Q1020 BECMG 1500 FU=
202312241230 METAR VIDP 241230Z 31003KT 1500 R27/2000 R29L/2000 R29R/2000 FU FEW100 20/12 Q1020 NOSIG=
202312241300 METAR VIDP 241300Z 30002KT 1500 R27/2000 R29L/2000 R29R/2000 FU FEW100 19/12 Q1020 NOSIG=
202312241330 METAR VIDP 241330Z 00000KT 1500 R27/2000 R29L/2000 R29R/2000 FU FEW100 18/12 Q1020 NOSIG=
202312241400 METAR VIDP 241400Z 00000KT 1500 R27/2000 R29L/2000 R29R/2000 FU FEW100 17/12 Q1021 NOSIG=
202312241430 METAR VIDP 241430Z VRB02KT 1500 R27/2000 R29L/2000 R29R/2000 FU FEW100 17/13 Q1021 NOSIG=
202312241500 METAR VIDP 241500Z VRB02KT 1500 R27/2000 R29L/2000 R29R/2000 FU FEW100 17/13 Q1021 NOSIG=
202312241530 METAR VIDP 241530Z VRB02KT 1500 R27/2000 R29L/2000 R29R/2000 BR FEW100 17/13 Q1021 NOSIG=
202312241600 METAR VIDP 241600Z VRB02KT 1500 R27/2000 R29L/2000 R29R/2000 BR FEW100 16/13 Q1021 NOSIG=
202312241630 METAR VIDP 241630Z VRB02KT 1300 R27/2000 R29L/2000 R29R/2000 BR FEW100 16/13 Q1021 NOSIG=
202312241700 METAR VIDP 241700Z VRB02KT 1200 R27/2000 R29L/2000 R29R/2000 BR FEW100 15/13 Q1021 NOSIG=
202312241730 METAR VIDP 241730Z 21002KT 1200 R27/2000 R29L/2000 R29R/2000 BR FEW100 14/13 Q1021 NOSIG=
202312241800 METAR VIDP 241800Z VRB02KT 1000 R27/1900 R29L/1900 R29R/2000 BR FEW100 14/12 Q1021 NOSIG=
202312241830 METAR VIDP 241830Z 22002KT 1000 R27/2000 R29L/1600 R29R/2000 BR FEW100 14/12 Q1021 NOSIG=
202312241900 METAR COR VIDP 241900Z 00000KT 0900 R27/1900 R29L/1500 R29R/2000 BR FEW100 14/13 Q1020 BECMG 0800 MIFG=
202312241930 METAR VIDP 241930Z VRB02KT 0600 R27/1800 R29L/1100 R29R/2000 MIFG FEW100 13/12 Q1020 TEMPO 0350 FG=
202312242000 METAR VIDP 242000Z VRB02KT 0500 R27/1800 R29L/1400 R29R/2000 MIFG FEW100 13/12 Q1020 TEMPO 0350 FG=
202312242030 METAR VIDP 242030Z 25002KT 0500 R27/1800 R29L/1200 R29R/2000 MIFG FEW100 13/12 Q1020 NOSIG=
202312242100 METAR VIDP 242100Z VRB02KT 0500 R27/1600 R29L/1100 R29R/2000 MIFG FEW100 12/11 Q1020 NOSIG=
202312242130 METAR VIDP 242130Z 00000KT 0500 R27/1900 R29L/0600 R29R/2000 MIFG FEW100 12/11 Q1019 NOSIG=
202312242200 METAR VIDP 242200Z 00000KT 0500 R27/1200 R29L/1300 R29R/2000 MIFG FEW100 12/11 Q1019 NOSIG=
202312242230 METAR VIDP 242230Z VRB02KT 0300 R27/1200 R29L/1200 R29R/2000 FG FEW100 12/11 Q1019 TEMPO 0150 FG=
202312242300 METAR VIDP 242300Z VRB02KT 0300 R27/0750 R29L/1100 R29R/1900 FG FEW100 12/11 Q1019 NOSIG=
202312242305 METAR VIDP NIL=
202312242330 METAR VIDP 242330Z 25002KT 0300 R27/0350 R29L/0700 R29R/1700 FG FEW100 12/11 Q1019 NOSIG=
202312250000 METAR VIDP 250000Z 25002KT 0050 R27/0750 R29L/0100 R29R/1400 FG FEW100 12/11 Q1019 NOSIG=
202312250030 METAR VIDP 250030Z 23003KT 0000 R27/0150 R29L/0150 R29R/0250 FG VV/// 12/11 Q1019 NOSIG=
202312250100 METAR VIDP 250100Z VRB02KT 0000 R27/0125 R29L/0150 R29R/0175 FG VV/// 12/11 Q1020 NOSIG=
202312250105 METAR VIDP NIL=
202312250130 METAR VIDP 250130Z 00000KT 0000 R27/0125 R29L/0150 R29R/0150 FG VV/// 12/11 Q1020 NOSIG=
202312250200 METAR VIDP 250200Z 23003KT 0000 R27/0100 R29L/0125 R29R/0150 FG VV/// 11/11 Q1020 NOSIG=
202312250230 METAR VIDP 250230Z 22003KT 0000 R27/0100 R29L/0100 R29R/0150 FG VV/// 11/11 Q1020 NOSIG=
202312250300 METAR VIDP 250300Z 22003KT 0000 R27/0125 R29L/0100 R29R/0175 FG VV/// 11/11 Q1021 NOSIG=
202312250330 METAR VIDP 250330Z 23003KT 0000 R27/0200 R29L/0125 R29R/0175 FG VV/// 11/11 Q1021 NOSIG=
202312250400 METAR VIDP 250400Z 23003KT 0050 R27/0700 R29L/0300 R29R/0400 FG VV/// 11/11 Q1022 BECMG 0150 FG=
202312250430 METAR VIDP 250430Z 23003KT 0250 R27/0800 R29L/0650 R29R/0800 FG VV/// 12/11 Q1022 BECMG 0350 FG=
202312250500 METAR VIDP 250500Z 26004KT 0450 R27/0900 R29L/1200 R29R/1400 FG VV/// 13/12 Q1022 BECMG 0600 MIFG=
202312250530 METAR VIDP 250530Z 26004KT 0700 R27/1100 R29L/1500 R29R/1800 MIFG NSC 14/13 Q1022 BECMG 0800 MIFG=
202312250600 METAR VIDP 250600Z 25005KT 0800 R27/1100 R29L/1400 R29R/1700 FU NSC 16/11 Q1022 NOSIG=
202312250630 METAR VIDP 250630Z 26005KT 1000 R27/1200 R29L/1600 R29R/1900 FU NSC 18/11 Q1021 NOSIG=
202312250700 METAR VIDP 250700Z 26006KT 1200 R27/1300 R29L/1600 R29R/1900 FU NSC 19/13 Q1021 BECMG 1500 FU=
202312250730 METAR VIDP 250730Z 26005KT 1300 R27/1300 R29L/1600 R29R/2000 FU NSC 20/13 Q1020 BECMG 1500 FU=
202312250800 METAR VIDP 250800Z 27004KT 1300 R27/1300 R29L/1500 R29R/2000 FU NSC 20/13 Q1020 BECMG 1500 FU=
202312250830 METAR VIDP 250830Z 27005KT 1500 R27/1500 R29L/1600 R29R/2000 FU NSC 21/10 Q1019 NOSIG=
202312250900 METAR VIDP 250900Z 27005KT 1500 R27/1500 R29L/1600 R29R/2000 FU NSC 22/09 Q1019 NOSIG=
202312250930 METAR VIDP 250930Z 28005KT 1200 R27/1400 R29L/1500 R29R/2000 FU NSC 22/10 Q1019 NOSIG=
202312251000 METAR VIDP 251000Z 27004KT 1200 R27/1500 R29L/1500 R29R/2000 FU NSC 21/10 Q1018 NOSIG=
202312251030 METAR VIDP 251030Z 26005KT 1300 R27/1500 R29L/1500 R29R/2000 FU NSC 21/11 Q1018 NOSIG=
202312251100 METAR VIDP 251100Z 24005KT 1300 R27/1600 R29L/1600 R29R/2000 FU NSC 21/11 Q1018 NOSIG=
202312251130 METAR VIDP 251130Z 24005KT 1300 R27/1700 R29L/1700 R29R/2000 FU NSC 20/11 Q1018 NOSIG=
202312251200 METAR VIDP 251200Z 25003KT 1400 R27/2000 R29L/2000 R29R/2000 FU NSC 20/11 Q1018 BECMG 1500 FU=
202312251230 METAR VIDP 251230Z 25004KT 1500 R27/2000 R29L/2000 R29R/2000 FU NSC 17/11 Q1019 NOSIG=
202312251300 METAR VIDP 251300Z 24004KT 1500 R27/2000 R29L/2000 R29R/2000 FU NSC 17/12 Q1019 NOSIG=
202312251330 METAR VIDP 251330Z 23003KT 1500 R27/2000 R29L/2000 R29R/2000 BR NSC 16/12 Q1019 NOSIG=
202312251400 METAR VIDP 251400Z 25004KT 1500 R27/2000 R29L/2000 R29R/2000 BR NSC 16/12 Q1019 NOSIG=
202312251430 METAR VIDP 251430Z 26003KT 1500 R27/2000 R29L/2000 R29R/2000 BR NSC 15/12 Q1019 NOSIG=
202312251500 METAR VIDP 251500Z 00000KT 1500 R27/2000 R29L/2000 R29R/2000 BR NSC 14/11 Q1019 NOSIG=
202312251530 METAR VIDP 251530Z 00000KT 1500 R27/2000 R29L/2000 R29R/2000 BR NSC 13/11 Q1019 NOSIG=
202312251600 METAR VIDP 251600Z 00000KT 1200 R27/2000 R29L/2000 R29R/2000 BR NSC 13/11 Q1019 NOSIG=
202312251630 METAR VIDP 251630Z 00000KT 1200 R27/2000 R29L/2000 R29R/2000 BR NSC 12/11 Q1019 NOSIG=
202312251700 METAR VIDP 251700Z 00000KT 1200 R27/2000 R29L/2000 R29R/2000 BR NSC 12/11 Q1019 NOSIG=
202312251730 METAR VIDP 251730Z 00000KT 1000 R27/2000 R29L/2000 R29R/2000 BR NSC 12/11 Q1019 BECMG 0800 MIFG=
202312251800 METAR VIDP 251800Z 00000KT 0800 R27/2000 R29L/2000 R29R/2000 MIFG NSC 12/11 Q1019 NOSIG=
202312251830 METAR VIDP 251830Z 00000KT 0800 R27/1900 R29L/2000 R29R/2000 MIFG NSC 12/11 Q1019 BECMG 0600 MIFG=
202312251900 METAR VIDP 251900Z 00000KT 0700 R27/2000 R29L/1700 R29R/2000 MIFG NSC 12/11 Q1018 BECMG 0600 MIFG=
202312251930 METAR VIDP 251930Z 00000KT 0700 R27/1900 R29L/1900 R29R/2000 MIFG NSC 11/10 Q1018 BECMG 0600 MIFG=
202312252000 METAR VIDP 252000Z 00000KT 0600 R27/1900 R29L/1800 R29R/2000 MIFG NSC 11/10 Q1018 NOSIG=
202312252030 METAR VIDP 252030Z 00000KT 0600 R27/1700 R29L/1500 R29R/2000 MIFG NSC 11/10 Q1018 NOSIG=
202312252100 METAR VIDP 252100Z 00000KT 0600 R27/1900 R29L/1600 R29R/2000 MIFG NSC 11/10 Q1018 NOSIG=
202312252130 METAR VIDP 252130Z 00000KT 0500 R27/1400 R29L/1200 R29R/2000 MIFG NSC 11/10 Q1018 NOSIG=
202312252200 METAR VIDP 252200Z 00000KT 0400 R27/1200 R29L/1200 R29R/2000 FG NSC 11/10 Q1018 BECMG 0350 FG=
202312252230 METAR VIDP 252230Z 00000KT 0350 R27/1100 R29L/1000 R29R/1800 FG NSC 10/10 Q1018 NOSIG=
202312252300 METAR VIDP 252300Z 00000KT 0300 R27/1400 R29L/1000 R29R/1800 FG NSC 10/10 Q1018 BECMG 0150 FG=
202312252330 METAR VIDP 252330Z 00000KT 0250 R27/0900 R29L/0500 R29R/1800 FG NSC 10/10 Q1018 BECMG 0150 FG=
202312260000 METAR VIDP 260000Z 00000KT 0150 R27/0600 R29L/0200 R29R/1600 FG VV/// 09/09 Q1018 NOSIG=
202312260030 METAR VIDP 260030Z 00000KT 0150 R27/1200 R29L/1000 R29R/1600 FG VV/// 09/09 Q1018 NOSIG=
202312260100 METAR VIDP 260100Z 00000KT 0100 R27/0900 R29L/0250 R29R/1600 FG VV/// 09/09 Q1018 NOSIG=
202312260130 METAR VIDP 260130Z 27003KT 0050 R27/0500 R29L/0125 R29R/1600 FG VV/// 08/08 Q1019 NOSIG=
202312260200 METAR VIDP 260200Z 25003KT 0050 R27/0100 R29L/0125 R29R/1000 FG VV/// 08/08 Q1019 NOSIG=
202312260205 METAR VIDP NIL=
202312260230 METAR VIDP 260230Z 26003KT 0050 R27/0075 R29L/0075 R29R/0125 FG VV/// 08/08 Q1019 NOSIG=
202312260300 METAR VIDP 260300Z 24003KT 0050 R27/0075 R29L/0100 R29R/0125 FG VV/// 10/09 Q1020 NOSIG=
202312260330 METAR VIDP 260330Z 23003KT 0050 R27/0075 R29L/0125 R29R/0175 FG VV/// 10/09 Q1020 NOSIG=
202312260400 METAR VIDP 260400Z 23003KT 0050 R27/0100 R29L/0100 R29R/0125 FG VV/// 12/11 Q1021 NOSIG=
202312260430 METAR VIDP 260430Z 26003KT 0050 R27/0100 R29L/0075 R29R/0125 FG VV/// 12/12 Q1021 NOSIG=
202312260500 METAR VIDP 260500Z 00000KT 0100 R27/0125 R29L/0175 R29R/0200 FG VV/// 12/12 Q1021 BECMG 0150 FG=
202312260530 METAR VIDP 260530Z 00000KT 0300 R27/0300 R29L/0500 R29R/0600 FG VV/// 13/12 Q1021 BECMG 0350 FG=
202312260600 METAR VIDP 260600Z 00000KT 0700 R27/0700 R29L/0900 R29R/0900 FG VV/// 13/12 Q1021 BECMG 0800 MIFG=
202312260630 METAR VIDP 260630Z 28003KT 0900 R27/1000 R29L/1300 R29R/1400 MIFG NSC 15/12 Q1020 NOSIG=
202312260700 METAR VIDP 260700Z 28004KT 1000 R27/1200 R29L/1300 R29R/1700 BR NSC 17/14 Q1020 NOSIG=
202312260730 METAR VIDP 260730Z 28004KT 1000 R27/1150 R29L/1400 R29R/1800 BR NSC 19/16 Q1020 NOSIG=
202312260805 METAR VIDP NIL=
202312260830 METAR VIDP 260830Z 26005KT 1200 R27/1300 R29L/1700 R29R/2000 FU NSC 21/13 Q1019 BECMG 1500 FU=
202312260900 METAR VIDP 260900Z 28005KT 1400 R27/1400 R29L/2000 R29R/2000 FU NSC 21/12 Q1018 BECMG 1500 FU=
202312260930 METAR VIDP 260930Z 28005KT 1500 R27/1500 R29L/1800 R29R/2000 FU NSC 21/11 Q1018 NOSIG=
202312261000 METAR VIDP 261000Z 28005KT 1500 R27/1500 R29L/1500 R29R/2000 FU NSC 21/11 Q1018 NOSIG=
202312261030 METAR VIDP 261030Z 30004KT 1300 R27/1300 R29L/1700 R29R/2000 FU NSC 21/11 Q1019 NOSIG=
202312261100 METAR VIDP 261100Z 30004KT 1100 R27/1600 R29L/1400 R29R/2000 FU NSC 21/11 Q1019 NOSIG=
202312261130 METAR VIDP 261130Z 30003KT 1100 R27/2000 R29L/1600 R29R/2000 FU NSC 20/11 Q1019 NOSIG=
202312261200 METAR VIDP 261200Z 30004KT 1100 R27/2000 R29L/2000 R29R/2000 FU NSC 20/11 Q1019 NOSIG=
202312261230 METAR VIDP 261230Z 30003KT 1100 R27/2000 R29L/2000 R29R/2000 FU NSC 19/12 Q1019 NOSIG=
202312261300 METAR VIDP 261300Z 29002KT 1100 R27/2000 R29L/2000 R29R/2000 FU NSC 18/12 Q1019 NOSIG=
202312261330 METAR VIDP 261330Z VRB02KT 1100 R27/2000 R29L/2000 R29R/2000 FU NSC 18/12 Q1019 NOSIG=
202312261400 METAR VIDP 261400Z VRB02KT 1100 R27/2000 R29L/2000 R29R/2000 FU NSC 17/13 Q1020 NOSIG=
202312261430 METAR VIDP 261430Z 00000KT 1100 R27/2000 R29L/2000 R29R/2000 BR NSC 16/12 Q1020 NOSIG=
202312261500 METAR VIDP 261500Z 00000KT 1100 R27/2000 R29L/2000 R29R/2000 BR NSC 15/13 Q1020 NOSIG=
202312261530 METAR VIDP 261530Z 00000KT 1100 R27/2000 R29L/2000 R29R/2000 BR NSC 14/14 Q1020 NOSIG=
202312261600 METAR VIDP 261600Z 00000KT 1100 R27/2000 R29L/2000 R29R/2000 BR NSC 14/14 Q1020 NOSIG=
202312261630 METAR VIDP 261630Z 00000KT 1100 R27/2000 R29L/2000 R29R/2000 BR NSC 14/14 Q1020 NOSIG=
202312261700 METAR VIDP 261700Z 00000KT 1100 R27/2000 R29L/2000 R29R/2000 BR NSC 13/13 Q1020 NOSIG=
202312261730 METAR VIDP 261730Z 00000KT 1100 R27/2000 R29L/2000 R29R/2000 BR NSC 13/13 Q1020 NOSIG=
202312261800 METAR VIDP 261800Z 00000KT 1100 R27/2000 R29L/1700 R29R/2000 BR NSC 13/13 Q1020 NOSIG=
202312261830 METAR VIDP 261830Z 00000KT 1100 R27/2000 R29L/2000 R29R/2000 BR NSC 13/12 Q1020 NOSIG=
202312261900 METAR VIDP 261900Z 00000KT 1100 R27/2000 R29L/1700 R29R/2000 BR NSC 12/10 Q1020 NOSIG=
202312261930 METAR VIDP 261930Z 30002KT 1000 R27/1800 R29L/1600 R29R/2000 BR NSC 12/10 Q1020 NOSIG=
202312262000 METAR VIDP 262000Z 00000KT 0900 R27/1700 R29L/1800 R29R/2000 MIFG NSC 12/10 Q1020 BECMG 0800 MIFG=
202312262030 METAR VIDP 262030Z 07002KT 0900 R27/1600 R29L/1900 R29R/2000 MIFG NSC 12/10 Q1020 BECMG 0800 MIFG=
202312262100 METAR VIDP 262100Z 12002KT 0700 R27/1300 R29L/1900 R29R/2000 MIFG NSC 13/11 Q1019 BECMG 0600 MIFG=
202312262130 METAR VIDP 262130Z 13002KT 0500 R27/1200 R29L/1600 R29R/1900 MIFG NSC 12/11 Q1019 BECMG 0350 FG=
202312262200 METAR VIDP 262200Z 00000KT 0500 R27/1600 R29L/1200 R29R/2000 MIFG NSC 12/11 Q1019 BECMG 0350 FG=
202312262230 METAR VIDP 262230Z 00000KT 0500 R27/1400 R29L/1300 R29R/1800 MIFG NSC 12/11 Q1019 BECMG 0350 FG=
202312262300 METAR VIDP 262300Z 00000KT 0350 R27/1400 R29L/0900 R29R/1500 FG NSC 11/10 Q1019 NOSIG=
202312262330 METAR VIDP 262330Z 27003KT 0150 R27/1500 R29L/0400 R29R/1800 FG VV/// 11/10 Q1019 NOSIG=
202312270000 METAR VIDP 270000Z 23002KT 0125 R27/0125 R29L/0900 R29R/1500 FG VV/// 11/11 Q1019 NOSIG=
202312270030 METAR VIDP 270030Z 21002KT 0125 R27/0225 R29L/1300 R29R/1900 FG VV/// 11/11 Q1020 NOSIG=
202312270100 METAR VIDP 270100Z 00000KT 0100 R27/0100 R29L/1400 R29R/2000 FG VV/// 11/11 Q1020 NOSIG=
202312270130 METAR VIDP 270130Z 00000KT 0050 R27/0350 R29L/1400 R29R/2000 FG VV/// 12/11 Q1021 NOSIG=
202312270200 METAR VIDP 270200Z 00000KT 0050 R27/0450 R29L/0650 R29R/0150 FG VV/// 12/11 Q1021 NOSIG=
202312270230 METAR VIDP 270230Z 21002KT 0000 R27/0125 R29L/0125 R29R/0125 FG VV/// 12/11 Q1022 NOSIG=
202312270300 METAR VIDP 270300Z 24002KT 0000 R27/0125 R29L/0075 R29R/0125 FG VV/// 12/12 Q1022 NOSIG=
202312270330 METAR VIDP 270330Z 26002KT 0000 R27/0125 R29L/0100 R29R/0175 FG VV/// 12/12 Q1023 NOSIG=
202312270400 METAR VIDP 270400Z VRB02KT 0000 R27/0275 R29L/0300 R29R/0125 FG VV/// 12/12 Q1023 NOSIG=
202312270430 METAR VIDP 270430Z VRB02KT 0050 R27/0375 R29L/0200 R29R/0325 FG VV/// 12/12 Q1023 NOSIG=
202312270500 METAR VIDP 270500Z VRB02KT 0050 R27/0550 R29L/0225 R29R/0400 FG VV/// 13/12 Q1023 TEMPO 0150 FG=
202312270530 METAR VIDP 270530Z VRB02KT 0150 R27/0650 R29L/0450 R29R/0650 FG VV/// 13/12 Q1023 TEMPO 0350 FG=
202312270600 METAR VIDP 270600Z VRB02KT 0400 R27/0800 R29L/0600 R29R/0900 FG VV/// 14/12 Q1023 NOSIG=
202312270630 METAR VIDP 270630Z 21003KT 0400 R27/0800 R29L/0650 R29R/0800 FG VV/// 15/12 Q1022 NOSIG=
202312270700 METAR VIDP 270700Z 23003KT 0400 R27/0900 R29L/0550 R29R/0900 FG VV/// 15/12 Q1022 NOSIG=
202312270730 METAR VIDP 270730Z 25003KT 0500 R27/1000 R29L/1300 R29R/0900 MIFG NSC 15/12 Q1022 BECMG 0600 MIFG=
202312270800 METAR VIDP 270800Z 26005KT 0700 R27/1000 R29L/0900 R29R/1300 MIFG NSC 16/12 Q1021 BECMG 0800 MIFG=
202312270830 METAR VIDP 270830Z 25005KT 0700 R27/1000 R29L/0900 R29R/1200 MIFG NSC 16/12 Q1020 BECMG 0800 MIFG=
202312270900 METAR VIDP 270900Z 26005KT 0800 R27/0900 R29L/0900 R29R/1300 MIFG NSC 16/13 Q1020 NOSIG=
202312270930 METAR VIDP 270930Z 25006KT 0800 R27/1000 R29L/1000 R29R/1300 MIFG NSC 16/13 Q1020 NOSIG=
202312271000 METAR VIDP 271000Z 24005KT 0800 R27/1200 R29L/1000 R29R/1400 MIFG NSC 16/13 Q1020 NOSIG=
202312271030 METAR VIDP 271030Z 24005KT 0800 R27/0900 R29L/0800 R29R/1100 MIFG NSC 16/13 Q1020 NOSIG=
202312271100 METAR VIDP 271100Z 25004KT 0800 R27/1000 R29L/0800 R29R/1100 MIFG NSC 15/13 Q1020 NOSIG=
202312271130 METAR VIDP 271130Z 26005KT 0800 R27/1000 R29L/0800 R29R/1100 MIFG NSC 14/12 Q1019 NOSIG=
202312271200 METAR VIDP 271200Z 24004KT 0700 R27/1000 R29L/0700 R29R/0900 MIFG NSC 13/12 Q1019 BECMG 0600 MIFG=
202312271230 METAR VIDP 271230Z 25004KT 0400 R27/1000 R29L/0700 R29R/1200 FG NSC 12/12 Q1020 BECMG 0350 FG=
202312271300 METAR VIDP 271300Z 25005KT 0300 R27/1200 R29L/1000 R29R/1500 FG VV/// 12/12 Q1020 NOSIG=
202312271330 METAR VIDP 271330Z 26004KT 0300 R27/0900 R29L/0500 R29R/0900 FG VV/// 12/12 Q1020 NOSIG=
202312271400 METAR COR VIDP 271400Z 28005KT 0300 R27/0700 R29L/0600 R29R/1100 FG VV/// 12/11 Q1020 NOSIG=
202312271430 METAR VIDP 271430Z 26004KT 0200 R27/0850 R29L/0500 R29R/0900 FG VV/// 12/12 Q1020 BECMG 0150 FG=
202312271500 METAR VIDP 271500Z 25005KT 0100 R27/0750 R29L/0400 R29R/0900 FG VV/// 12/12 Q1020 NOSIG=
202312271530 METAR VIDP 271530Z 26004KT 0100 R27/0450 R29L/0200 R29R/0400 FG VV/// 12/12 Q1020 NOSIG=
202312271600 METAR VIDP 271600Z 26003KT 0100 R27/0550 R29L/0200 R29R/0400 FG VV/// 12/12 Q1020 NOSIG=
202312271630 METAR VIDP 271630Z 27004KT 0050 R27/0600 R29L/0200 R29R/0400 FG VV/// 12/12 Q1020 NOSIG=
202312271700 METAR VIDP 271700Z 27004KT 0050 R27/0700 R29L/0200 R29R/0300 FG VV/// 12/12 Q1020 NOSIG=
202312271730 METAR VIDP 271730Z 28004KT 0050 R27/0800 R29L/0200 R29R/0300 FG VV/// 12/12 Q1020 NOSIG=
202312271800 METAR VIDP 271800Z 28004KT 0050 R27/0800 R29L/0200 R29R/0400 FG VV/// 12/12 Q1020 NOSIG=
202312271830 METAR VIDP 271830Z 26004KT 0050 R27/0500 R29L/0200 R29R/0300 FG VV/// 12/12 Q1020 NOSIG=
202312271900 METAR VIDP 271900Z 26005KT 0050 R27/0300 R29L/0200 R29R/0300 FG VV/// 12/12 Q1020 NOSIG=
202312271930 METAR VIDP 271930Z 27004KT 0050 R27/0400 R29L/0200 R29R/0300 FG VV/// 12/12 Q1019 NOSIG=
202312272000 METAR VIDP 272000Z 27004KT 0050 R27/0600 R29L/0200 R29R/0300 FG VV/// 12/12 Q1019 NOSIG=
202312272030 METAR VIDP 272030Z 26004KT 0050 R27/0200 R29L/0200 R29R/0300 FG VV/// 12/12 Q1019 NOSIG=
202312272100 METAR VIDP 272100Z 25004KT 0050 R27/0200 R29L/0200 R29R/0300 FG VV/// 12/12 Q1019 NOSIG=
202312272130 METAR VIDP 272130Z 28004KT 0050 R27/0200 R29L/0200 R29R/0300 FG VV/// 12/12 Q1019 NOSIG=
202312272200 METAR VIDP 272200Z 28004KT 0050 R27/0800 R29L/0325 R29R/0500 FG VV/// 12/12 Q1019 NOSIG=
202312272230 METAR VIDP 272230Z 28004KT 0050 R27/0600 R29L/0275 R29R/0500 FG VV/// 11/11 Q1018 NOSIG=
202312272300 METAR VIDP 272300Z 28004KT 0050 R27/0700 R29L/0300 R29R/0400 FG VV/// 11/11 Q1018 NOSIG=
202312272330 METAR VIDP 272330Z 28004KT 0050 R27/0450 R29L/0275 R29R/0400 FG VV/// 11/11 Q1018 NOSIG=
202312280000 METAR VIDP 280000Z 25003KT 0050 R27/0400 R29L/0275 R29R/0500 FG VV/// 11/11 Q1018 NOSIG=
202312280030 METAR VIDP 280030Z 25004KT 0050 R27/0450 R29L/0350 R29R/0400 FG VV/// 11/11 Q1019 NOSIG=
202312280100 METAR VIDP 280100Z 27005KT 0050 R27/0500 R29L/0350 R29R/0550 FG VV/// 10/10 Q1019 NOSIG=
202312280130 METAR VIDP 280130Z 27005KT 0050 R27/0400 R29L/0325 R29R/0400 FG VV/// 10/10 Q1019 NOSIG=
202312280200 METAR VIDP 280200Z 27004KT 0050 R27/0400 R29L/0250 R29R/0400 FG VV/// 10/10 Q1019 NOSIG=
202312280230 METAR VIDP 280230Z 26004KT 0050 R27/0300 R29L/0300 R29R/0300 FG VV/// 10/10 Q1020 NOSIG=
202312280300 METAR VIDP 280300Z 26003KT 0100 R27/0400 R29L/0300 R29R/0600 FG VV/// 10/10 Q1020 BECMG 0150 FG=
202312280330 METAR VIDP 280330Z 22004KT 0150 R27/0400 R29L/0350 R29R/0800 FG VV/// 10/10 Q1020 BECMG 0350 FG=
202312280400 METAR VIDP 280400Z 26003KT 0250 R27/0600 R29L/0400 R29R/0650 FG VV/// 10/09 Q1021 BECMG 0350 FG=
202312280430 METAR VIDP 280430Z 24003KT 0350 R27/0900 R29L/0700 R29R/1300 FG VV/// 10/10 Q1021 BECMG 0600 MIFG=
202312280500 METAR VIDP 280500Z 25004KT 0400 R27/0800 R29L/0900 R29R/1400 FG NSC 10/10 Q1021 BECMG 0600 MIFG=
202312280530 METAR VIDP 280530Z 26003KT 0600 R27/1100 R29L/0900 R29R/1500 MIFG NSC 11/10 Q1021 NOSIG=
202312280600 METAR VIDP 280600Z 27003KT 0700 R27/1000 R29L/1100 R29R/1400 MIFG NSC 11/10 Q1021 BECMG 0800 MIFG=
202312280630 METAR VIDP 280630Z 26003KT 1000 R27/1800 R29L/1600 R29R/1900 BR NSC 12/11 Q1020 NOSIG=
202312280700 METAR VIDP 280700Z 27003KT 1400 R27/2000 R29L/2000 R29R/2000 BR NSC 13/10 Q1020 BECMG 1500 BR=
202312280730 METAR VIDP 280730Z 25003KT 1600 R27/2000 R29L/2000 R29R/2000 BR NSC 14/10 Q1019 NOSIG=
202312280800 METAR VIDP 280800Z 24003KT 1800 R27/2000 R29L/2000 R29R/2000 BR NSC 15/11 Q1019 NOSIG=
202312280830 METAR VIDP 280830Z 25003KT 1800 R27/2000 R29L/2000 R29R/2000 BR NSC 16/12 Q1018 NOSIG=
202312280900 METAR VIDP 280900Z 26003KT 1800 R27/2000 R29L/2000 R29R/2000 FU NSC 17/11 Q1018 NOSIG=
202312280930 METAR VIDP 280930Z 26003KT 1700 R27/2000 R29L/1800 R29R/2000 FU NSC 18/11 Q1018 NOSIG=
202312281000 METAR VIDP 281000Z 28003KT 1600 R27/2000 R29L/1900 R29R/2000 FU NSC 18/12 Q1018 NOSIG=
202312281030 METAR VIDP 281030Z 26003KT 1600 R27/2000 R29L/1400 R29R/2000 FU NSC 18/12 Q1018 BECMG 1500 FU=
202312281100 METAR VIDP 281100Z 30003KT 1400 R27/1900 R29L/1500 R29R/2000 FU NSC 17/12 Q1018 NOSIG=
202312281130 METAR VIDP 281130Z 30003KT 1300 R27/2000 R29L/1600 R29R/2000 BR NSC 16/12 Q1018 NOSIG=
202312281200 METAR VIDP 281200Z 28002KT 1100 R27/2000 R29L/1800 R29R/2000 BR NSC 16/12 Q1018 NOSIG=
202312281230 METAR VIDP 281230Z 29002KT 1100 R27/2000 R29L/2000 R29R/2000 BR NSC 15/12 Q1018 NOSIG=
202312281300 METAR VIDP 281300Z 24002KT 1100 R27/2000 R29L/2000 R29R/2000 BR NSC 14/13 Q1019 NOSIG=
202312281330 METAR VIDP 281330Z 00000KT 1100 R27/2000 R29L/2000 R29R/2000 BR NSC 14/12 Q1019 NOSIG=
202312281400 METAR VIDP 281400Z 02003KT 1100 R27/2000 R29L/2000 R29R/2000 BR NSC 13/12 Q1019 NOSIG=
202312281430 METAR VIDP 281430Z VRB02KT 1100 R27/2000 R29L/2000 R29R/2000 BR NSC 13/12 Q1019 NOSIG=
202312281500 METAR VIDP 281500Z 04004KT 1100 R27/2000 R29L/2000 R29R/2000 BR NSC 13/12 Q1019 NOSIG=
202312281530 METAR VIDP 281530Z 08003KT 1100 R27/2000 R29L/1700 R29R/2000 BR NSC 13/12 Q1019 NOSIG=
202312281600 METAR VIDP 281600Z 08003KT 0900 R27/2000 R29L/1100 R29R/0900 MIFG NSC 13/12 Q1020 BECMG 0800 MIFG=
202312281630 METAR VIDP 281630Z 13003KT 0700 R27/2000 R29L/0700 R29R/0700 MIFG NSC 12/12 Q1020 BECMG 0600 MIFG=
202312281700 METAR VIDP 281700Z 13003KT 0400 R27/1200 R29L/0450 R29R/0600 FG VV/// 12/12 Q1020 BECMG 0350 FG=
202312281730 METAR VIDP 281730Z 12004KT 0200 R27/0700 R29L/0200 R29R/0350 FG VV/// 12/12 Q1020 BECMG 0150 FG=
202312281800 METAR VIDP 281800Z VRB02KT 0150 R27/0800 R29L/0400 R29R/0500 FG VV/// 12/12 Q1020 NOSIG=
202312281830 METAR VIDP 281830Z VRB02KT 0150 R27/0900 R29L/0500 R29R/0500 FG VV/// 12/12 Q1020 NOSIG=
202312281900 METAR VIDP 281900Z VRB02KT 0150 R27/1000 R29L/0600 R29R/0800 FG VV/// 12/12 Q1020 NOSIG=
202312281930 METAR VIDP 281930Z VRB02KT 0250 R27/1100 R29L/0900 R29R/1000 FG VV/// 12/12 Q1020 BECMG 0350 FG=
202312282000 METAR VIDP 282000Z 00000KT 0350 R27/1000 R29L/0700 R29R/1300 FG VV/// 12/12 Q1019 NOSIG=
202312282030 METAR VIDP 282030Z VRB02KT 0350 R27/0900 R29L/0600 R29R/1100 FG VV/// 12/11 Q1020 NOSIG=
202312282100 METAR VIDP 282100Z 00000KT 0300 R27/0950 R29L/0550 R29R/0900 FG VV/// 12/11 Q1020 NOSIG=
202312282130 METAR VIDP 282130Z VRB02KT 0300 R27/0950 R29L/0900 R29R/1200 FG VV/// 12/12 Q1019 NOSIG=
202312282200 METAR VIDP 282200Z VRB02KT 0300 R27/1000 R29L/1000 R29R/1300 FG VV/// 12/12 Q1019 NOSIG=
202312282230 METAR VIDP 282230Z 00000KT 0300 R27/0900 R29L/1200 R29R/1100 FG VV/// 12/11 Q1019 NOSIG=
202312282300 METAR VIDP 282300Z VRB02KT 0300 R27/1200 R29L/0950 R29R/1300 FG VV/// 12/11 Q1019 NOSIG=
202312282330 METAR VIDP 282330Z VRB02KT 0300 R27/1200 R29L/0800 R29R/1300 FG VV/// 12/11 Q1019 NOSIG=
202312290000 METAR VIDP 290000Z VRB02KT 0200 R27/1400 R29L/0900 R29R/0800 FG VV/// 12/11 Q1020 TEMPO 0150 FG=
202312290030 METAR VIDP 290030Z 15002KT 0150 R27/1200 R29L/0500 R29R/1000 FG VV/// 12/11 Q1020 NOSIG=
202312290100 METAR VIDP 290100Z VRB02KT 0150 R27/1200 R29L/0575 R29R/0650 FG VV/// 12/11 Q1020 NOSIG=
202312290130 METAR VIDP 290130Z VRB02KT 0150 R27/1200 R29L/0650 R29R/0700 FG VV/// 12/11 Q1020 NOSIG=
202312290200 METAR VIDP 290200Z VRB02KT 0150 R27/0950 R29L/0450 R29R/0550 FG VV/// 12/11 Q1021 NOSIG=
202312290230 METAR VIDP 290230Z 09002KT 0150 R27/0800 R29L/0600 R29R/0600 FG VV/// 12/11 Q1021 NOSIG=
202312290300 METAR VIDP 290300Z 10002KT 0150 R27/0750 R29L/0650 R29R/0800 FG VV/// 12/11 Q1021 NOSIG=
202312290330 METAR VIDP 290330Z 14002KT 0150 R27/0800 R29L/0600 R29R/0800 FG VV/// 12/12 Q1022 NOSIG=
202312290400 METAR VIDP 290400Z 16002KT 0250 R27/0900 R29L/0700 R29R/1000 FG VV/// 12/12 Q1022 BECMG 0350 FG=
202312290430 METAR VIDP 290430Z 09003KT 0350 R27/0900 R29L/0800 R29R/1100 FG VV/// 13/13 Q1022 NOSIG=
202312290500 METAR VIDP 290500Z 14003KT 0400 R27/0900 R29L/0900 R29R/1200 FG VV/// 13/12 Q1022 NOSIG=
202312290530 METAR VIDP 290530Z 12003KT 0400 R27/1000 R29L/0800 R29R/1100 FG VV/// 13/12 Q1022 NOSIG=
202312290600 METAR VIDP 290600Z 14004KT 0450 R27/1000 R29L/0900 R29R/1300 FG VV/// 14/13 Q1022 NOSIG=
202312290630 METAR VIDP 290630Z 12003KT 0500 R27/1000 R29L/1000 R29R/1300 FG VV/// 14/13 Q1021 BECMG 0600 MIFG=
202312290700 METAR VIDP 290700Z 16004KT 0550 R27/1200 R29L/0900 R29R/1600 MIFG NSC 14/14 Q1021 BECMG 0600 MIFG=
202312290730 METAR VIDP 290730Z 17003KT 0700 R27/1400 R29L/1200 R29R/1700 MIFG NSC 16/15 Q1020 BECMG 0800 MIFG=
202312290800 METAR VIDP 290800Z 19003KT 0900 R27/1400 R29L/1500 R29R/1800 MIFG NSC 16/16 Q1020 NOSIG=
202312290830 METAR VIDP 290830Z 19003KT 1000 R27/1600 R29L/1200 R29R/1800 BR NSC 17/16 Q1019 NOSIG=
202312290900 METAR VIDP 290900Z 21003KT 1100 R27/1700 R29L/1200 R29R/1700 BR NSC 18/16 Q1019 NOSIG=
202312290930 METAR VIDP 290930Z 21003KT 1100 R27/1700 R29L/1200 R29R/1700 BR NSC 18/15 Q1019 NOSIG=
202312291000 METAR VIDP 291000Z 22003KT 1100 R27/1500 R29L/1200 R29R/1700 BR NSC 18/15 Q1019 NOSIG=
202312291030 METAR VIDP 291030Z 22004KT 1100 R27/1600 R29L/1200 R29R/1700 BR NSC 17/15 Q1018 NOSIG=
202312291100 METAR VIDP 291100Z 25005KT 1100 R27/1600 R29L/1200 R29R/2000 BR NSC 16/15 Q1018 NOSIG=
202312291130 METAR VIDP 291130Z 23003KT 1100 R27/1800 R29L/1300 R29R/2000 BR NSC 15/14 Q1018 NOSIG=
202312291200 METAR VIDP 291200Z 26004KT 0900 R27/1900 R29L/1400 R29R/2000 MIFG NSC 14/13 Q1019 BECMG 0800 MIFG=
202312291230 METAR VIDP 291230Z 21002KT 0900 R27/2000 R29L/2000 R29R/2000 MIFG NSC 14/13 Q1019 NOSIG=
202312291300 METAR VIDP 291300Z 22002KT 0900 R27/2000 R29L/2000 R29R/2000 MIFG NSC 14/13 Q1019 NOSIG=
202312291330 METAR VIDP 291330Z 23002KT 0900 R27/2000 R29L/2000 R29R/2000 MIFG NSC 14/13 Q1019 NOSIG=
202312291400 METAR VIDP 291400Z 24002KT 0900 R27/2000 R29L/2000 R29R/2000 MIFG NSC 14/13 Q1020 NOSIG=
202312291430 METAR VIDP 291430Z 00000KT 0900 R27/2000 R29L/2000 R29R/2000 MIFG NSC 14/13 Q1019 BECMG 0800 MIFG=
202312291500 METAR VIDP 291500Z 00000KT 0800 R27/2000 R29L/2000 R29R/2000 MIFG NSC 14/13 Q1019 NOSIG=
202312291530 METAR VIDP 291530Z VRB02KT 0800 R27/1800 R29L/1600 R29R/2000 MIFG NSC 14/13 Q1020 NOSIG=
202312291600 METAR VIDP 291600Z VRB02KT 0700 R27/1700 R29L/1800 R29R/2000 MIFG NSC 14/13 Q1020 BECMG 0600 MIFG=
202312291630 METAR VIDP 291630Z VRB02KT 0600 R27/1800 R29L/1800 R29R/2000 MIFG NSC 14/13 Q1020 NOSIG=
202312291700 METAR VIDP 291700Z 00000KT 0600 R27/1700 R29L/1860 R29R/1600 MIFG NSC 14/13 Q1020 NOSIG=
202312291730 METAR VIDP 291730Z VRB02KT 0500 R27/1800 R29L/1800 R29R/2000 MIFG NSC 13/12 Q1020 NOSIG=
202312291800 METAR VIDP 291800Z 05003KT 0500 R27/1700 R29L/1800 R29R/2000 MIFG NSC 13/12 Q1020 NOSIG=
202312291830 METAR VIDP 291830Z VRB02KT 0500 R27/1900 R29L/1800 R29R/2000 MIFG NSC 13/12 Q1019 NOSIG=
202312291900 METAR VIDP 291900Z VRB02KT 0500 R27/1900 R29L/1900 R29R/2000 MIFG NSC 13/12 Q1019 NOSIG=
202312291930 METAR VIDP 291930Z VRB02KT 0500 R27/2000 R29L/1900 R29R/2000 MIFG NSC 13/12 Q1019 NOSIG=
202312292000 METAR VIDP 292000Z 00000KT 0500 R27/2000 R29L/2000 R29R/2000 MIFG NSC 13/12 Q1019 NOSIG=
202312292030 METAR VIDP 292030Z 00000KT 0500 R27/2000 R29L/2000 R29R/2000 MIFG NSC 13/13 Q1019 NOSIG=
202312292100 METAR VIDP 292100Z 00000KT 0500 R27/2000 R29L/2000 R29R/2000 MIFG NSC 13/12 Q1019 TEMPO 0600 MIFG=
202312292130 METAR VIDP 292130Z 00000KT 0600 R27/2000 R29L/2000 R29R/2000 MIFG NSC 13/13 Q1019 NOSIG=
202312292200 METAR VIDP 292200Z 00000KT 0600 R27/2000 R29L/2000 R29R/2000 MIFG NSC 13/12 Q1018 NOSIG=
202312292230 METAR VIDP 292230Z VRB02KT 0600 R27/2000 R29L/2000 R29R/2000 MIFG NSC 13/12 Q1018 NOSIG=
202312292300 METAR VIDP 292300Z VRB02KT 0600 R27/2000 R29L/2000 R29R/2000 MIFG NSC 13/12 Q1018 NOSIG=
202312292330 METAR VIDP 292330Z VRB02KT 0600 R27/2000 R29L/2000 R29R/2000 MIFG NSC 13/12 Q1018 NOSIG=
202312300000 METAR VIDP 300000Z 00000KT 0600 R27/2000 R29L/2000 R29R/2000 MIFG NSC 13/12 Q1018 NOSIG=
202312300030 METAR VIDP 300030Z VRB02KT 0600 R27/2000 R29L/2000 R29R/2000 MIFG NSC 13/12 Q1019 NOSIG=
202312300100 METAR VIDP 300100Z VRB02KT 0600 R27/2000 R29L/2000 R29R/2000 MIFG VV/// 13/12 Q1019 NOSIG=
202312300130 METAR VIDP 300130Z 10003KT 0600 R27/2000 R29L/2000 R29R/2000 MIFG VV/// 13/12 Q1019 NOSIG=
202312300200 METAR VIDP 300200Z 05003KT 0500 R27/1800 R29L/1600 R29R/2000 MIFG VV/// 13/12 Q1019 NOSIG=
202312300230 METAR VIDP 300230Z VRB02KT 0500 R27/1500 R29L/1400 R29R/2000 MIFG VV/// 13/12 Q1020 BECMG 0600 MIFG=
202312300300 METAR VIDP 300300Z VRB02KT 0500 R27/1400 R29L/1300 R29R/1700 MIFG VV/// 13/12 Q1020 NOSIG=
202312300330 METAR VIDP 300330Z 13003KT 0700 R27/1300 R29L/1200 R29R/1700 MIFG VV/// 13/12 Q1020 BECMG 0800 MIFG=
202312300400 METAR VIDP 300400Z 15003KT 0800 R27/1200 R29L/1100 R29R/1600 MIFG VV/// 13/12 Q1021 NOSIG=
202312300430 METAR VIDP 300430Z 15003KT 0900 R27/1700 R29L/1800 R29R/1500 MIFG NSC 14/12 Q1021 NOSIG=
202312300500 METAR VIDP 300500Z 16003KT 0900 R27/1800 R29L/1900 R29R/1400 MIFG NSC 14/13 Q1021 NOSIG=
202312300530 METAR VIDP 300530Z 11003KT 0900 R27/1900 R29L/2000 R29R/1400 MIFG NSC 15/13 Q1021 NOSIG=
202312300600 METAR VIDP 300600Z VRB02KT 0900 R27/1900 R29L/2000 R29R/1400 MIFG NSC 15/12 Q1021 NOSIG=
202312300630 METAR VIDP 300630Z 14003KT 0900 R27/2000 R29L/2000 R29R/1500 MIFG NSC 16/13 Q1020 NOSIG=
202312300700 METAR VIDP 300700Z VRB02KT 1000 R27/2000 R29L/2000 R29R/1500 BR NSC 17/13 Q1020 NOSIG=
202312300730 METAR VIDP 300730Z 16002KT 1000 R27/2000 R29L/2000 R29R/1500 BR NSC 17/14 Q1019 NOSIG=
202312300800 METAR VIDP 300800Z 14003KT 1000 R27/2000 R29L/2000 R29R/1600 BR NSC 17/14 Q1019 NOSIG=
202312300830 METAR VIDP 300830Z VRB02KT 1200 R27/1800 R29L/2000 R29R/1400 BR NSC 18/14 Q1018 NOSIG=
202312300900 METAR VIDP 300900Z 32003KT 1200 R27/1800 R29L/2000 R29R/1600 BR FEW100 19/15 Q1018 NOSIG=
202312300930 METAR VIDP 300930Z 32004KT 1200 R27/1500 R29L/2000 R29R/1600 BR FEW100 19/15 Q1017 NOSIG=
202312301000 METAR VIDP 301000Z 34005KT 1200 R27/1300 R29L/1900 R29R/1700 BR FEW100 18/16 Q1017 NOSIG=
202312301030 METAR VIDP 301030Z 35006KT 1200 R27/1500 R29L/1900 R29R/1800 BR FEW100 17/15 Q1017 NOSIG=
202312301100 METAR VIDP 301100Z 34005KT 1200 R27/1400 R29L/1900 R29R/1600 BR FEW100 17/15 Q1017 NOSIG=
202312301130 METAR VIDP 301130Z 02004KT 1000 R27/1600 R29L/2000 R29R/1900 BR FEW100 16/15 Q1017 NOSIG=
202312301200 METAR VIDP 301200Z 02004KT 1000 R27/1800 R29L/2000 R29R/2000 BR FEW100 16/14 Q1017 NOSIG=
202312301230 METAR VIDP 301230Z 02004KT 1000 R27/2000 R29L/2000 R29R/2000 BR FEW100 16/14 Q1018 NOSIG=
202312301300 METAR VIDP 301300Z 01004KT 1000 R27/2000 R29L/2000 R29R/2000 BR FEW100 15/14 Q1018 NOSIG=
202312301330 METAR VIDP 301330Z 02004KT 1000 R27/2000 R29L/2000 R29R/2000 BR FEW100 15/14 Q1018 NOSIG=
202312301400 METAR VIDP 301400Z 03004KT 1000 R27/2000 R29L/2000 R29R/2000 BR FEW100 15/14 Q1018 NOSIG=
202312301430 METAR VIDP 301430Z 04003KT 1000 R27/2000 R29L/2000 R29R/2000 BR FEW100 14/14 Q1018 NOSIG=
202312301500 METAR VIDP 301500Z 06003KT 1000 R27/2000 R29L/2000 R29R/2000 BR FEW100 14/14 Q1018 NOSIG=
202312301530 METAR VIDP 301530Z 08003KT 1000 R27/2000 R29L/2000 R29R/2000 BR FEW100 14/13 Q1018 NOSIG=
202312301600 METAR VIDP 301600Z 09003KT 1000 R27/2000 R29L/2000 R29R/2000 BR FEW100 14/13 Q1018 NOSIG=
202312301605 METAR VIDP NIL=
202312301630 METAR VIDP 301630Z 09003KT 1000 R27/2000 R29L/2000 R29R/2000 BR FEW100 14/13 Q1018 NOSIG=
202312301700 METAR VIDP 301700Z 09003KT 1000 R27/2000 R29L/2000 R29R/2000 BR FEW100 14/13 Q1018 NOSIG=
202312301730 METAR VIDP 301730Z 09003KT 1000 R27/2000 R29L/2000 R29R/2000 BR FEW100 14/13 Q1018 NOSIG=
202312301800 METAR VIDP 301800Z 08003KT 0900 R27/2000 R29L/2000 R29R/2000 MIFG FEW100 14/13 Q1018 NOSIG=
202312301830 METAR VIDP 301830Z 13003KT 0900 R27/2000 R29L/2000 R29R/2000 MIFG FEW100 14/13 Q1018 NOSIG=
202312301900 METAR VIDP 301900Z 09003KT 0900 R27/2000 R29L/2000 R29R/2000 MIFG FEW100 14/13 Q1018 NOSIG=
202312301930 METAR VIDP 301930Z 16003KT 0900 R27/2000 R29L/2000 R29R/2000 MIFG FEW100 13/13 Q1018 NOSIG=
202312302000 METAR VIDP 302000Z 33003KT 0900 R27/2000 R29L/2000 R29R/2000 MIFG FEW100 13/13 Q1018 NOSIG=
202312302030 METAR VIDP 302030Z 00000KT 0900 R27/2000 R29L/2000 R29R/2000 MIFG FEW100 13/13 Q1018 NOSIG=
202312302100 METAR VIDP 302100Z 30002KT 0900 R27/2000 R29L/2000 R29R/2000 MIFG SCT100 13/13 Q1018 NOSIG=
202312302130 METAR VIDP 302130Z 00000KT 0900 R27/2000 R29L/2000 R29R/2000 MIFG SCT100 13/13 Q1018 TEMPO 0800 MIFG=
202312302200 METAR VIDP 302200Z 05003KT 0800 R27/2000 R29L/2000 R29R/2000 MIFG SCT100 13/13 Q1018 NOSIG=
202312302230 METAR VIDP 302230Z 04003KT 0800 R27/2000 R29L/2000 R29R/2000 MIFG SCT100 13/13 Q1018 NOSIG=
202312302300 METAR VIDP 302300Z 05003KT 0800 R27/2000 R29L/2000 R29R/2000 MIFG SCT100 13/13 Q1018 NOSIG=
202312302330 METAR VIDP 302330Z 06004KT 0800 R27/2000 R29L/2000 R29R/2000 MIFG SCT100 13/12 Q1018 NOSIG=
