##########################################################
# Query made at 12/13/2025 04:18:31 UTC
# Time interval: from 12/10/2024 00:00  to 12/30/2024 23:59  UTC
##########################################################

##########################################################
# VIDP, New Delhi / Palam (India)
# WMO index: 42181. WIGOS ID: 0-20000-0-42181
# Latitude 28-34-00N. Longitude 077-07-00E. Altitude 225 m.
##########################################################

###################################
#  METAR/SPECI from VIDP
###################################
202412100000 METAR VIDP 100000Z 25004KT 2200 BR NSC 10/09 Q1017 NOSIG=
202412100030 METAR VIDP 100030Z 25004KT 2100 BR NSC 09/08 Q1017 NOSIG=
202412100100 METAR VIDP 100100Z 26004KT 1800 R27/2000 R28/2000 R29R/2000 R29L/2000 BR NSC 09/08 Q1017 BECMG 1500 BR=
202412100130 METAR VIDP 100130Z 25004KT 1500 R27/2000 R28/2000 R29R/2000 R29L/2000 BR NSC 09/08 Q1018 NOSIG=
202412100200 METAR VIDP 100200Z 26004KT 1200 R27/2000 R28/2000 R29R/2000 R29L/1200 BR NSC 09/08 Q1018 NOSIG=
202412100230 METAR VIDP 100230Z 25005KT 1200 R27/2000 R28/2000 R29R/2000 R29L/1600 BR NSC 09/08 Q1018 NOSIG=
202412100300 METAR VIDP 100300Z 25006KT 1200 R27/2000 R28/2000 R29R/2000 R29L/1700 BR NSC 10/08 Q1019 NOSIG=
202412100330 METAR VIDP 100330Z 26007KT 1200 R27/2000 R28/2000 R29R/2000 R29L/1700 BR NSC 11/08 Q1019 NOSIG=
202412100400 METAR VIDP 100400Z 27006KT 1400 R27/2000 R28/2000 R29R/2000 R29L/2000 BR NSC 12/09 Q1019 BECMG 1500 BR=
202412100430 METAR VIDP 100430Z 26005KT 1500 R28/2000 R27/2000 R29R/2000 R29L/2000 BR NSC 13/09 Q1020 NOSIG=
202412100500 METAR VIDP 100500Z 27006KT 1800 R27/2000 R28/2000 R29R/2000 R29L/2000 BR NSC 15/08 Q1020 NOSIG=
202412100530 METAR VIDP 100530Z 27005KT 1800 R27/2000 R28/2000 R29R/2000 R29L/2000 HZ NSC 16/08 Q1019 NOSIG=
202412100600 METAR VIDP 100600Z 29006KT 2200 HZ NSC 17/07 Q1019 NOSIG=
202412100630 METAR VIDP 100630Z 27006KT 2200 HZ NSC 18/07 Q1019 NOSIG=
202412100700 METAR VIDP 100700Z 29006KT 2200 HZ NSC 19/06 Q1019 NOSIG=
202412100730 METAR VIDP 100730Z 29008KT 2500 HZ NSC 20/04 Q1018 NOSIG=
202412100800 METAR VIDP 100800Z 29008KT 2800 HZ NSC 20/04 Q1018 BECMG 3000 HZ=
202412100830 METAR VIDP 100830Z 30008KT 3500 HZ NSC 21/02 Q1017 NOSIG=
202412100900 METAR VIDP 100900Z 30010KT 4000 HZ NSC 22/M01 Q1017 NOSIG=
202412100930 METAR VIDP 100930Z 30010KT 4500 HZ NSC 22/M03 Q1017 BECMG 5000 HZ=
202412101000 METAR VIDP 101000Z 30011KT 5000 HZ NSC 21/M04 Q1016 NOSIG=
202412101030 METAR VIDP 101030Z 30010KT 5000 HZ NSC 21/M05 Q1016 NOSIG=
202412101100 METAR VIDP 101100Z 30009KT 5000 HZ NSC 20/M05 Q1016 NOSIG=
202412101130 METAR VIDP 101130Z 30006KT 4500 HZ NSC 20/M04 Q1016 NOSIG=
202412101200 METAR VIDP 101200Z 30005KT 4200 HZ NSC 19/M03 Q1016 NOSIG=
202412101230 METAR VIDP 101230Z 29006KT 4000 HZ NSC 19/M03 Q1016 NOSIG=
202412101300 METAR VIDP 101300Z 29005KT 4000 HZ NSC 17/M03 Q1016 NOSIG=
202412101330 METAR VIDP 101330Z 26004KT 4000 HZ NSC 15/M02 Q1017 NOSIG=
202412101400 METAR VIDP 101400Z 26005KT 4000 HZ NSC 15/M01 Q1017 NOSIG=
202412101430 METAR VIDP 101430Z 25003KT 4000 HZ NSC 15/00 Q1017 NOSIG=
202412101500 METAR VIDP 101500Z 26003KT 4000 HZ NSC 14/00 Q1018 NOSIG=
202412101530 METAR VIDP 101530Z 25003KT 4000 HZ NSC 13/00 Q1018 NOSIG=
202412101600 METAR VIDP 101600Z 24004KT 4000 HZ NSC 12/01 Q1018 NOSIG=
202412101630 METAR VIDP 101630Z 24003KT 4000 HZ NSC 12/01 Q1018 NOSIG=
202412101700 METAR VIDP 101700Z 24003KT 4000 HZ NSC 11/01 Q1018 NOSIG=
202412101703 METAR VIDP 101703Z 24003KT 4000 HZ NSC 11/01 Q1018 NOSIG=
202412101730 METAR VIDP 101730Z 24003KT 4000 HZ NSC 11/01 Q1018 NOSIG=
202412101800 METAR VIDP 101800Z 27004KT 4000 HZ NSC 11/01 Q1018 NOSIG=
202412101830 METAR VIDP 101830Z 27004KT 4000 HZ NSC 10/01 Q1018 NOSIG=
202412101900 METAR VIDP 101900Z 26004KT 4000 HZ NSC 10/01 Q1018 NOSIG=
202412101930 METAR VIDP 101930Z 26004KT 3800 HZ NSC 10/02 Q1017 NOSIG=
202412102000 METAR VIDP 102000Z 27003KT 3800 HZ NSC 10/02 Q1017 NOSIG=
202412102030 METAR VIDP 102030Z 27003KT 3800 HZ NSC 09/02 Q1017 NOSIG=
202412102100 METAR VIDP 102100Z 27004KT 3800 HZ NSC 09/02 Q1017 NOSIG=
202412102130 METAR VIDP 102130Z 27004KT 3800 HZ NSC 09/02 Q1017 NOSIG=
202412102200 METAR VIDP 102200Z 24003KT 3500 HZ NSC 09/02 Q1017 NOSIG=
202412102230 METAR VIDP 102230Z 25003KT 3500 HZ NSC 09/01 Q1017 NOSIG=
202412102300 METAR VIDP 102300Z 26003KT 3500 HZ NSC 08/00 Q1017 NOSIG=
202412102330 METAR VIDP 102330Z 24003KT 3200 HZ NSC 07/01 Q1017 BECMG 3000 HZ=
202412110000 METAR VIDP 110000Z 23003KT 3000 HZ NSC 07/01 Q1017 NOSIG=
202412110030 METAR VIDP 110030Z 24003KT 3000 HZ NSC 07/00 Q1017 NOSIG=
202412110100 METAR VIDP 110100Z 23004KT 2800 HZ NSC 06/00 Q1017 NOSIG=
202412110130 METAR VIDP 110130Z 24004KT 2500 HZ NSC 06/00 Q1018 NOSIG=
202412110200 METAR VIDP 110200Z 25004KT 2500 HZ NSC 06/00 Q1018 NOSIG=
202412110230 METAR VIDP 110230Z 25004KT 2200 HZ NSC 07/01 Q1019 NOSIG=
202412110300 METAR VIDP 110300Z 26006KT 2200 HZ NSC 09/01 Q1019 NOSIG=
202412110330 METAR VIDP 110330Z 26006KT 2200 HZ NSC 11/01 Q1019 NOSIG=
202412110400 METAR VIDP 110400Z 27007KT 2500 HZ NSC 13/00 Q1020 NOSIG=
202412110430 METAR VIDP 110430Z 26008KT 2500 HZ NSC 15/M01 Q1020 NOSIG=
202412110500 METAR VIDP 110500Z 26007KT 2800 HZ NSC 16/M01 Q1020 NOSIG=
202412110530 METAR VIDP 110530Z 28007KT 2800 HZ NSC 17/M02 Q1020 BECMG 3000 HZ=
202412110600 METAR VIDP 110600Z 28007KT 2800 HZ NSC 18/M03 Q1019 BECMG 3000 HZ=
202412110630 METAR VIDP 110630Z 28007KT 3000 HZ NSC 19/M04 Q1019 NOSIG=
202412110700 METAR VIDP 110700Z 29007KT 3000 HZ NSC 20/M04 Q1018 NOSIG=
202412110730 METAR VIDP 110730Z 27007KT 3200 HZ NSC 20/M04 Q1018 NOSIG=
202412110800 METAR VIDP 110800Z 28008KT 3500 HZ NSC 21/M04 Q1017 NOSIG=
202412110830 METAR VIDP 110830Z 29007KT 3500 HZ NSC 21/M03 Q1017 NOSIG=
202412110900 METAR VIDP 110900Z 30008KT 3500 HZ NSC 21/M03 Q1016 NOSIG=
202412110930 METAR VIDP 110930Z 29007KT 3500 HZ NSC 22/M04 Q1016 NOSIG=
202412111000 METAR VIDP 111000Z 30007KT 3500 HZ NSC 21/M03 Q1016 NOSIG=
202412111030 METAR VIDP 111030Z 30007KT 3500 HZ NSC 21/M03 Q1016 NOSIG=
202412111100 METAR VIDP 111100Z 30006KT 3500 HZ NSC 21/M03 Q1016 NOSIG=
202412111130 METAR VIDP 111130Z 28005KT 3500 HZ NSC 19/M03 Q1016 NOSIG=
202412111200 METAR VIDP 111200Z 27005KT 3500 HZ NSC 18/M01 Q1016 NOSIG=
202412111230 METAR VIDP 111230Z 26004KT 3500 HZ NSC 17/M01 Q1016 NOSIG=
202412111300 METAR VIDP 111300Z 25003KT 3500 HZ NSC 17/01 Q1016 NOSIG=
202412111330 METAR VIDP 111330Z VRB02KT 3500 HZ NSC 16/01 Q1016 NOSIG=
202412111400 METAR VIDP 111400Z 25003KT 3500 HZ NSC 15/01 Q1016 NOSIG=
202412111430 METAR VIDP 111430Z 25003KT 3500 HZ NSC 13/02 Q1016 NOSIG=
202412111500 METAR VIDP 111500Z 25003KT 3500 HZ NSC 13/02 Q1016 NOSIG=
202412111530 METAR VIDP 111530Z 24003KT 3500 HZ NSC 13/02 Q1017 NOSIG=
202412111600 METAR VIDP 111600Z 25003KT 3300 HZ NSC 12/02 Q1017 BECMG 3000 HZ=
202412111630 METAR VIDP 111630Z 26003KT 3000 HZ NSC 12/02 Q1017 NOSIG=
202412111700 METAR VIDP 111700Z VRB02KT 3000 HZ NSC 11/02 Q1017 NOSIG=
202412111730 METAR VIDP 111730Z VRB02KT 3000 HZ NSC 10/02 Q1017 NOSIG=
202412111800 METAR VIDP 111800Z VRB02KT 3000 HZ NSC 09/02 Q1017 NOSIG=
202412111830 METAR VIDP 111830Z VRB02KT 3000 HZ NSC 09/02 Q1016 NOSIG=
202412111900 METAR VIDP 111900Z 24003KT 3000 HZ NSC 09/02 Q1016 NOSIG=
202412111930 METAR VIDP 111930Z 26003KT 3000 HZ NSC 09/02 Q1016 NOSIG=
202412112000 METAR VIDP 112000Z VRB02KT 3000 HZ NSC 09/03 Q1016 NOSIG=
202412112030 METAR VIDP 112030Z VRB02KT 3000 HZ NSC 08/03 Q1016 NOSIG=
202412112100 METAR VIDP 112100Z VRB02KT 3000 HZ NSC 09/03 Q1016 NOSIG=
202412112130 METAR VIDP 112130Z VRB02KT 2800 HZ NSC 08/03 Q1016 NOSIG=
202412112200 METAR VIDP 112200Z 00000KT 2800 HZ NSC 08/03 Q1015 NOSIG=
202412112230 METAR VIDP 112230Z 25003KT 2800 HZ NSC 08/03 Q1015 NOSIG=
202412112300 METAR VIDP 112300Z 00000KT 2500 HZ NSC 08/02 Q1015 NOSIG=
202412112330 METAR VIDP 112330Z VRB02KT 2500 HZ NSC 08/02 Q1015 NOSIG=
202412120000 METAR VIDP 120000Z 25003KT 2200 HZ NSC 08/03 Q1015 NOSIG=
202412120030 METAR VIDP 120030Z 25003KT 2200 HZ NSC 07/02 Q1015 NOSIG=
202412120100 METAR VIDP 120100Z 21003KT 2200 HZ NSC 07/02 Q1015 NOSIG=
202412120130 METAR VIDP 120130Z 24003KT 2200 BR NSC 06/02 Q1016 NOSIG=
202412120200 METAR COR VIDP 120200Z 24004KT 1600 R28/2000 R27/2000 R29R/2000 R29L/2000 BR NSC 06/03 Q1016 TEMPO 1500 BR=
202412120230 METAR VIDP 120230Z 24003KT 1400 R28/2000 R27/2000 R29R/1900 R29L/2000 BR NSC 08/04 Q1016 NOSIG=
202412120300 METAR VIDP 120300Z 25003KT 1400 R28/2000 R27/2000 R29R/2000 R29L/1900 BR NSC 09/05 Q1017 NOSIG=
202412120330 METAR VIDP 120330Z 25003KT 1400 R28/2000 R27/2000 R29R/2000 R29L/2000 HZ NSC 11/05 Q1017 NOSIG=
202412120400 METAR VIDP 120400Z 26003KT 1400 R28/2000 R27/2000 R29R/2000 R29L/1500 HZ NSC 13/04 Q1017 BECMG 1500 HZ=
202412120430 METAR VIDP 120430Z 27003KT 1500 R28/2000 R27/2000 R29R/2000 R29L/2000 HZ NSC 15/04 Q1018 NOSIG=
202412120500 METAR VIDP 120500Z 26003KT 1600 R28/2000 R27/2000 R29R/2000 R29L/2000 HZ NSC 17/04 Q1018 NOSIG=
202412120530 METAR VIDP 120530Z 29005KT 2100 HZ NSC 18/03 Q1018 NOSIG=
202412120600 METAR VIDP 120600Z 30006KT 2500 HZ NSC 19/03 Q1018 NOSIG=
202412120630 METAR VIDP 120630Z 29007KT 2500 HZ NSC 19/03 Q1018 NOSIG=
202412120700 METAR VIDP 120700Z 29005KT 2500 HZ NSC 20/03 Q1017 NOSIG=
202412120730 METAR VIDP 120730Z 29007KT 2800 HZ NSC 20/03 Q1017 BECMG 3000 HZ=
202412120800 METAR VIDP 120800Z 30006KT 3500 HZ NSC 21/02 Q1017 NOSIG=
202412120830 METAR VIDP 120830Z 29006KT 3500 HZ NSC 21/02 Q1017 NOSIG=
202412120900 METAR VIDP 120900Z 29007KT 4000 HZ NSC 21/01 Q1016 NOSIG=
202412120930 METAR VIDP 120930Z 29008KT 4000 HZ NSC 21/01 Q1016 NOSIG=
202412121000 METAR VIDP 121000Z 28006KT 3500 HZ NSC 21/01 Q1016 NOSIG=
202412121030 METAR VIDP 121030Z 29007KT 3500 HZ NSC 20/01 Q1016 NOSIG=
202412121100 METAR VIDP 121100Z 29006KT 3200 HZ NSC 20/01 Q1016 BECMG 3000 HZ=
202412121130 METAR VIDP 121130Z 29005KT 3000 HZ NSC 19/02 Q1016 NOSIG=
202412121200 METAR VIDP 121200Z 28004KT 3000 HZ NSC 18/02 Q1016 NOSIG=
202412121230 METAR VIDP 121230Z 27004KT 3000 HZ NSC 16/04 Q1017 NOSIG=
202412121300 METAR VIDP 121300Z 26004KT 3000 HZ NSC 16/04 Q1017 NOSIG=
202412121330 METAR VIDP 121330Z 25004KT 3000 HZ NSC 15/04 Q1017 NOSIG=
202412121400 METAR VIDP 121400Z 25003KT 3000 HZ NSC 15/04 Q1017 NOSIG=
202412121430 METAR VIDP 121430Z 24003KT 3000 HZ NSC 14/04 Q1018 NOSIG=
202412121500 METAR VIDP 121500Z 26003KT 3000 HZ NSC 14/04 Q1018 NOSIG=
202412121530 METAR VIDP 121530Z 25003KT 3000 HZ NSC 14/04 Q1018 NOSIG=
202412121600 METAR VIDP 121600Z 23003KT 3000 HZ NSC 14/04 Q1019 NOSIG=
202412121630 METAR VIDP 121630Z VRB02KT 3000 HZ NSC 13/05 Q1019 NOSIG=
202412121700 METAR VIDP 121700Z 24003KT 2800 HZ NSC 13/05 Q1019 NOSIG=
202412121730 METAR VIDP 121730Z VRB02KT 2800 HZ NSC 12/05 Q1019 NOSIG=
202412121800 METAR VIDP 121800Z 00000KT 2800 HZ NSC 12/05 Q1019 NOSIG=
202412121830 METAR VIDP 121830Z 00000KT 2800 HZ NSC 12/05 Q1018 NOSIG=
202412121900 METAR VIDP 121900Z 27003KT 2800 HZ NSC 10/05 Q1018 NOSIG=
202412121930 METAR VIDP 121930Z 00000KT 2500 HZ NSC 10/05 Q1018 NOSIG=
202412122000 METAR VIDP 122000Z 00000KT 2500 BR NSC 09/05 Q1018 NOSIG=
202412122030 METAR VIDP 122030Z 00000KT 2500 BR NSC 09/05 Q1018 NOSIG=
202412122100 METAR VIDP 122100Z 24004KT 2500 BR NSC 09/05 Q1018 NOSIG=
202412122130 METAR VIDP 122130Z 26003KT 2200 BR NSC 09/06 Q1018 NOSIG=
202412122200 METAR VIDP 122200Z 25003KT 2200 BR NSC 09/05 Q1018 NOSIG=
202412122230 METAR VIDP 122230Z 25004KT 2100 BR NSC 08/05 Q1018 NOSIG=
202412122300 METAR VIDP 122300Z 24004KT 2100 BR NSC 08/05 Q1017 NOSIG=
202412122330 METAR VIDP 122330Z 24004KT 2100 BR NSC 08/05 Q1017 NOSIG=
202412130000 METAR VIDP 130000Z 24004KT 1800 R28/2000 R27/2000 R29R/2000 R29L/2000 BR NSC 08/05 Q1017 TEMPO 1500 BR=
202412130030 METAR VIDP 130030Z 25004KT 1500 R28/2000 R27/2000 R29R/2000 R29L/2000 BR NSC 07/05 Q1018 NOSIG=
202412130100 METAR VIDP 130100Z 24003KT 1500 R28/2000 R27/2000 R29R/2000 R29L/2000 BR NSC 07/05 Q1018 NOSIG=
202412130130 METAR VIDP 130130Z 25003KT 1300 R28/2000 R27/2000 R29R/2000 R29L/2000 BR NSC 07/05 Q1018 NOSIG=
202412130200 METAR VIDP 130200Z 24004KT 1200 R28/2000 R27/2000 R29R/2000 R29L/1500 BR NSC 07/05 Q1018 NOSIG=
202412130230 METAR VIDP 130230Z 24005KT 1100 R28/2000 R27/2000 R29R/2000 R29L/1500 BR NSC 08/06 Q1019 NOSIG=
202412130300 METAR VIDP 130300Z 24005KT 1100 R28/2000 R27/2000 R29R/2000 R29L/1700 BR NSC 09/06 Q1019 NOSIG=
202412130330 METAR VIDP 130330Z 24006KT 1200 R28/2000 R27/2000 R29R/2000 R29L/1900 FU NSC 10/05 Q1020 NOSIG=
202412130400 METAR VIDP 130400Z 25006KT 1200 R28/2000 R27/2000 R29R/2000 R29L/2000 HZ NSC 12/04 Q1020 BECMG 1500 HZ=
202412130430 METAR VIDP 130430Z 25007KT 1500 R28/2000 R27/2000 R29R/2000 R29L/2000 HZ NSC 13/04 Q1020 NOSIG=
202412130500 METAR VIDP 130500Z 26008KT 1700 R28/2000 R27/2000 R29R/2000 R29L/2000 HZ NSC 15/04 Q1020 NOSIG=
202412130530 METAR VIDP 130530Z 28009KT 2200 HZ NSC 16/03 Q1020 NOSIG=
202412130600 METAR VIDP 130600Z 28011KT 2500 HZ NSC 18/03 Q1020 NOSIG=
202412130630 METAR VIDP 130630Z 29012KT 2800 HZ NSC 19/03 Q1019 BECMG 3000 HZ=
202412130700 METAR VIDP 130700Z 29011KT 3000 HZ NSC 20/02 Q1018 NOSIG=
202412130730 METAR VIDP 130730Z 30006G16KT 3500 HZ NSC 21/01 Q1017 NOSIG=
202412130800 METAR VIDP 130800Z 31006G16KT 3500 HZ NSC 21/00 Q1017 NOSIG=
202412130830 METAR VIDP 130830Z 30008G18KT 3500 HZ NSC 22/M01 Q1016 NOSIG=
202412130900 METAR VIDP 130900Z 30008G18KT 4400 HZ NSC 22/M02 Q1016 BECMG 5000 HZ=
202412130930 METAR VIDP 130930Z 30006G16KT 5000 HZ NSC 22/M02 Q1016 NOSIG=
202412131000 METAR VIDP 131000Z 29008G18KT 5000 HZ NSC 22/M02 Q1016 NOSIG=
202412131030 METAR VIDP 131030Z 29007G17KT 5000 HZ NSC 21/M01 Q1016 NOSIG=
202412131100 METAR VIDP 131100Z 29006G16KT 4400 HZ NSC 21/M01 Q1016 NOSIG=
202412131130 METAR VIDP 131130Z 28007KT 4000 HZ NSC 19/01 Q1016 NOSIG=
202412131200 METAR VIDP 131200Z 27007KT 4000 HZ NSC 17/02 Q1016 NOSIG=
202412131230 METAR VIDP 131230Z 28007KT 4000 HZ NSC 17/02 Q1016 NOSIG=
202412131300 METAR VIDP 131300Z 27006KT 4000 HZ FEW100 17/02 Q1017 NOSIG=
202412131330 METAR VIDP 131330Z 26006KT 4000 HZ FEW100 16/02 Q1017 NOSIG=
202412131400 METAR VIDP 131400Z 26005KT 4000 HZ FEW100 15/02 Q1017 NOSIG=
202412131430 METAR VIDP 131430Z 26006KT 4000 HZ FEW100 15/02 Q1017 NOSIG=
202412131505 METAR VIDP NIL=
202412131530 METAR VIDP NIL=
202412131600 METAR VIDP 131600Z 26006KT 3500 HZ FEW100 14/02 Q1018 NOSIG=
202412131630 METAR VIDP 131630Z 26004KT 3500 HZ NSC 14/03 Q1018 NOSIG=
202412131700 METAR VIDP 131700Z 25004KT 3500 HZ NSC 13/03 Q1018 NOSIG=
202412131730 METAR VIDP 131730Z 25004KT 3500 HZ NSC 13/03 Q1018 NOSIG=
202412131800 METAR VIDP 131800Z 26006KT 3500 HZ NSC 12/03 Q1018 NOSIG=
202412131830 METAR VIDP 131830Z 26005KT 3500 HZ NSC 11/03 Q1018 NOSIG=
202412131900 METAR VIDP 131900Z 25005KT 3500 HZ NSC 11/03 Q1018 NOSIG=
202412131930 METAR VIDP 131930Z 25004KT 3500 HZ NSC 10/02 Q1017 NOSIG=
202412132000 METAR VIDP 132000Z 25004KT 3500 HZ NSC 09/02 Q1017 NOSIG=
202412132030 METAR VIDP 132030Z 25004KT 3500 HZ NSC 09/02 Q1017 NOSIG=
202412132100 METAR VIDP 132100Z 25005KT 3500 HZ NSC 09/02 Q1017 NOSIG=
202412132130 METAR VIDP 132130Z 26004KT 3500 HZ NSC 09/02 Q1017 NOSIG=
202412132200 METAR VIDP 132200Z 25004KT 3500 HZ NSC 09/02 Q1017 NOSIG=
202412132230 METAR VIDP 132230Z 26004KT 3500 HZ NSC 09/02 Q1017 NOSIG=
202412132300 METAR VIDP 132300Z 25004KT 3500 HZ NSC 09/02 Q1017 NOSIG=
202412132330 METAR VIDP 132330Z 26004KT 3500 HZ NSC 08/02 Q1017 BECMG 3000 HZ=
202412140000 METAR VIDP 140000Z 26004KT 3000 HZ NSC 08/02 Q1017 NOSIG=
202412140030 METAR VIDP 140030Z 26004KT 3000 HZ NSC 08/02 Q1017 NOSIG=
202412140100 METAR VIDP 140100Z 26004KT 3000 HZ NSC 07/02 Q1017 NOSIG=
202412140130 METAR VIDP 140130Z 25004KT 2800 HZ NSC 07/02 Q1017 NOSIG=
202412140200 METAR VIDP 140200Z 25005KT 2500 HZ NSC 08/02 Q1018 NOSIG=
202412140230 METAR VIDP 140230Z 24004KT 2200 HZ NSC 09/02 Q1018 NOSIG=
202412140300 METAR VIDP 140300Z 24007KT 2500 HZ NSC 10/02 Q1019 NOSIG=
202412140330 METAR VIDP 140330Z 26007KT 2500 HZ NSC 11/02 Q1020 NOSIG=
202412140400 METAR VIDP 140400Z 26006KT 2500 HZ NSC 12/02 Q1020 NOSIG=
202412140430 METAR VIDP 140430Z 28005KT 2500 HZ NSC 14/02 Q1020 BECMG 3000 HZ=
202412140500 METAR VIDP 140500Z 28004KT 3000 HZ NSC 16/02 Q1020 NOSIG=
202412140530 METAR VIDP 140530Z 28008KT 3500 HZ NSC 17/01 Q1020 NOSIG=
202412140600 METAR VIDP 140600Z 29008KT 3500 HZ NSC 18/01 Q1020 NOSIG=
202412140630 METAR VIDP 140630Z 28009KT 4000 HZ NSC 19/00 Q1019 NOSIG=
202412140700 METAR VIDP 140700Z 29010KT 4000 HZ NSC 20/00 Q1019 NOSIG=
202412140730 METAR VIDP 140730Z 28010KT 4000 HZ NSC 21/00 Q1019 NOSIG=
202412140800 METAR VIDP 140800Z 28009KT 4400 HZ NSC 21/00 Q1018 NOSIG=
202412140830 METAR VIDP 140830Z 28009KT 4400 HZ NSC 21/00 Q1018 NOSIG=
202412140900 METAR VIDP 140900Z 28009KT 4400 HZ NSC 22/M01 Q1017 NOSIG=
202412140930 METAR VIDP 140930Z 28009KT 4400 HZ NSC 22/M01 Q1017 NOSIG=
202412141000 METAR VIDP 141000Z 28008KT 4400 HZ NSC 22/M01 Q1017 NOSIG=
202412141030 METAR VIDP 141030Z 28008KT 4400 HZ NSC 22/M01 Q1017 NOSIG=
202412141100 METAR VIDP 141100Z 28007KT 4400 HZ NSC 21/00 Q1017 NOSIG=
202412141130 METAR VIDP 141130Z 28010KT 4000 HZ NSC 20/01 Q1017 NOSIG=
202412141200 METAR VIDP 141200Z 28006KT 3500 HZ NSC 18/01 Q1017 NOSIG=
202412141230 METAR VIDP 141230Z 25006KT 3500 HZ NSC 17/02 Q1018 NOSIG=
202412141300 METAR VIDP 141300Z 25004KT 3500 HZ NSC 16/02 Q1018 NOSIG=
202412141330 METAR VIDP 141330Z 24004KT 3500 HZ NSC 15/02 Q1018 NOSIG=
202412141400 METAR VIDP 141400Z 25003KT 3500 HZ NSC 15/03 Q1018 NOSIG=
202412141430 METAR VIDP 141430Z 26003KT 3500 HZ NSC 14/03 Q1018 NOSIG=
202412141500 METAR VIDP 141500Z 25003KT 3500 HZ NSC 13/03 Q1018 NOSIG=
202412141530 METAR VIDP 141530Z 00000KT 3500 HZ NSC 13/03 Q1018 NOSIG=
202412141600 METAR VIDP 141600Z 00000KT 3500 HZ NSC 13/03 Q1018 NOSIG=
202412141630 METAR VIDP 141630Z 23002KT 3500 HZ NSC 13/03 Q1019 NOSIG=
202412141700 METAR VIDP 141700Z 24002KT 3500 HZ NSC 12/03 Q1019 NOSIG=
202412141730 METAR VIDP 141730Z 25002KT 3500 HZ NSC 12/03 Q1019 NOSIG=
202412141800 METAR VIDP 141800Z 24002KT 3500 HZ NSC 12/03 Q1018 BECMG 3000 HZ=
202412141830 METAR VIDP 141830Z 24003KT 3000 HZ NSC 11/03 Q1018 NOSIG=
202412141900 METAR VIDP 141900Z 24003KT 2800 HZ NSC 10/03 Q1018 NOSIG=
202412141930 METAR VIDP 141930Z 24002KT 2800 HZ NSC 10/03 Q1018 NOSIG=
202412142000 METAR VIDP 142000Z 24002KT 2800 HZ NSC 10/03 Q1018 NOSIG=
202412142030 METAR VIDP 142030Z 24003KT 2800 HZ NSC 10/03 Q1018 NOSIG=
202412142100 METAR VIDP 142100Z 24003KT 2800 HZ NSC 09/03 Q1018 NOSIG=
202412142130 METAR VIDP 142130Z 24003KT 2800 HZ NSC 09/03 Q1018 NOSIG=
202412142200 METAR VIDP 142200Z 23003KT 2800 HZ NSC 09/03 Q1018 NOSIG=
202412142230 METAR VIDP 142230Z 00000KT 2800 HZ NSC 08/03 Q1018 NOSIG=
202412142300 METAR VIDP 142300Z 00000KT 2800 HZ NSC 08/03 Q1018 NOSIG=
202412142330 METAR VIDP 142330Z 00000KT 2500 HZ NSC 08/03 Q1018 NOSIG=
202412150000 METAR VIDP 150000Z 00000KT 2500 HZ NSC 08/03 Q1018 NOSIG=
202412150030 METAR VIDP 150030Z 00000KT 2500 HZ NSC 08/03 Q1019 NOSIG=
202412150100 METAR VIDP 150100Z 00000KT 2500 HZ NSC 07/02 Q1019 NOSIG=
202412150130 METAR VIDP 150130Z 00000KT 2500 BR NSC 07/03 Q1019 NOSIG=
202412150200 METAR VIDP 150200Z 25003KT 2200 BR NSC 07/03 Q1020 NOSIG=
202412150230 METAR VIDP 150230Z 24002KT 1800 R28/2000 R27/2000 R29R/P2000 R29L/2000 HZ NSC 08/03 Q1021 TEMPO 1500 HZ=
202412150300 METAR VIDP 150300Z 24003KT 1500 R28/2000 R27/2000 R29R/P2000 R29L/2000 HZ NSC 10/04 Q1021 NOSIG=
202412150330 METAR VIDP 150330Z 24003KT 1500 R28/2000 R27/2000 R29R/P2000 R29L/2000 HZ NSC 11/03 Q1022 NOSIG=
202412150400 METAR VIDP 150400Z 25003KT 2000 R28/2000 R27/2000 R29R/P2000 R29L/2000 HZ NSC 12/03 Q1022 NOSIG=
202412150430 METAR VIDP 150430Z 26004KT 2200 HZ NSC 14/03 Q1023 NOSIG=
202412150500 METAR VIDP 150500Z 27003KT 2200 HZ NSC 15/03 Q1023 NOSIG=
202412150530 METAR VIDP 150530Z 26003KT 2200 HZ NSC 16/03 Q1023 NOSIG=
202412150600 METAR VIDP 150600Z 25002KT 2200 HZ NSC 17/03 Q1022 NOSIG=
202412150630 METAR VIDP 150630Z 24003KT 2500 HZ NSC 19/03 Q1022 NOSIG=
202412150700 METAR VIDP 150700Z 30003KT 2500 HZ NSC 20/01 Q1021 NOSIG=
202412150730 METAR VIDP 150730Z 29004KT 2500 HZ NSC 20/01 Q1021 NOSIG=
202412150800 METAR VIDP 150800Z 27004KT 2800 HZ NSC 20/01 Q1020 NOSIG=
202412150830 METAR VIDP 150830Z 27004KT 2800 HZ NSC 21/00 Q1020 NOSIG=
202412150900 METAR VIDP 150900Z 28005KT 2800 HZ NSC 21/00 Q1020 BECMG 3000 HZ=
202412150930 METAR VIDP 150930Z 27005KT 3500 HZ NSC 22/01 Q1019 NOSIG=
202412151000 METAR VIDP 151000Z 30004KT 3500 HZ NSC 22/01 Q1019 NOSIG=
202412151030 METAR VIDP 151030Z 28003KT 3500 HZ NSC 21/01 Q1019 NOSIG=
202412151100 METAR VIDP 151100Z 28005KT 3500 HZ NSC 21/01 Q1018 NOSIG=
202412151130 METAR VIDP 151130Z 26003KT 3500 HZ NSC 20/02 Q1018 NOSIG=
202412151200 METAR VIDP 151200Z 26003KT 3500 HZ NSC 19/03 Q1018 NOSIG=
202412151230 METAR VIDP 151230Z VRB02KT 3500 HZ NSC 17/03 Q1018 NOSIG=
202412151300 METAR VIDP 151300Z VRB02KT 3500 HZ NSC 16/04 Q1019 BECMG 3000 HZ=
202412151330 METAR VIDP 151330Z VRB02KT 3000 HZ NSC 15/04 Q1019 NOSIG=
202412151400 METAR VIDP 151400Z VRB02KT 3000 HZ NSC 15/04 Q1019 NOSIG=
202412151430 METAR VIDP 151430Z 00000KT 3000 HZ NSC 14/04 Q1019 NOSIG=
202412151500 METAR VIDP 151500Z 00000KT 2800 HZ NSC 13/04 Q1019 NOSIG=
202412151530 METAR VIDP 151530Z 00000KT 2500 HZ NSC 12/04 Q1019 NOSIG=
202412151600 METAR VIDP 151600Z 00000KT 2500 HZ NSC 12/04 Q1019 NOSIG=
202412151630 METAR VIDP 151630Z 00000KT 2500 HZ NSC 12/04 Q1019 NOSIG=
202412151700 METAR VIDP 151700Z 00000KT 2500 HZ NSC 12/04 Q1019 NOSIG=
202412151730 METAR VIDP 151730Z 00000KT 2500 HZ NSC 11/04 Q1019 NOSIG=
202412151800 METAR VIDP 151800Z 00000KT 2500 HZ NSC 11/04 Q1019 NOSIG=
202412151830 METAR VIDP 151830Z 00000KT 2500 HZ NSC 11/04 Q1019 NOSIG=
202412151900 METAR VIDP 151900Z 00000KT 2200 HZ NSC 10/05 Q1018 NOSIG=
202412151930 METAR VIDP 151930Z 00000KT 2200 HZ NSC 10/05 Q1018 NOSIG=
202412152000 METAR VIDP 152000Z 00000KT 2200 HZ NSC 09/05 Q1018 NOSIG=
202412152030 METAR VIDP 152030Z 00000KT 2200 BR NSC 08/05 Q1018 NOSIG=
202412152100 METAR VIDP 152100Z 00000KT 2200 BR NSC 08/05 Q1018 NOSIG=
202412152130 METAR VIDP 152130Z VRB02KT 2100 BR NSC 08/05 Q1018 NOSIG=
202412152200 METAR VIDP 152200Z VRB02KT 1600 R28/2000 R27/2000 R29R/2000 R29L/2000 BR NSC 08/05 Q1018 BECMG 1500 BR=
202412152230 METAR VIDP 152230Z VRB02KT 1500 R28/2000 R27/2000 R29R/2000 R29L/1500 BR NSC 08/05 Q1018 NOSIG=
202412152300 METAR VIDP 152300Z 00000KT 1500 R28/2000 R27/2000 R29R/2000 R29L/2000 BR NSC 08/06 Q1018 NOSIG=
202412152330 METAR VIDP 152330Z 00000KT 1500 R28/2000 R27/2000 R29R/2000 R29L/1900 BR NSC 07/05 Q1018 NOSIG=
202412160000 METAR VIDP 160000Z 00000KT 1500 R28/2000 R27/2000 R29R/2000 R29L/1600 BR NSC 07/05 Q1018 NOSIG=
202412160030 METAR VIDP 160030Z 00000KT 1500 R28/2000 R27/2000 R29R/2000 R29L/1800 BR NSC 07/05 Q1018 NOSIG=
202412160100 METAR VIDP 160100Z VRB02KT 1500 R28/2000 R27/2000 R29R/2000 R29L/2000 BR NSC 07/05 Q1018 NOSIG=
202412160130 METAR VIDP 160130Z VRB02KT 1500 R28/2000 R27/2000 R29R/2000 R29L/1600 BR NSC 07/06 Q1019 NOSIG=
202412160200 METAR VIDP 160200Z 25003KT 0900 R28/2000 R27/2000 R29R/2000 R29L/1300 MIFG NSC 07/06 Q1019 TEMPO 0800 MIFG=
202412160230 METAR VIDP 160230Z VRB02KT 0800 R28/2000 R27/2000 R29R/2000 R29L/1100 MIFG NSC 07/06 Q1019=
202412160300 METAR VIDP 160300Z 25003KT 0900 R28/2000 R27/2000 R29R/2000 R29L/1300 MIFG NSC 08/05 Q1020=
202412160330 METAR VIDP 160330Z 26004KT 1000 R28/2000 R27/2000 R29R/2000 R29L/1500 MIFG NSC 09/05 Q1020=
202412160400 METAR VIDP 160400Z 26004KT 1300 R28/2000 R27/2000 R29R/2000 R29L/1700 HZ NSC 11/04 Q1021 BECMG 1500 HZ=
202412160405 METAR VIDP NIL=
202412160430 METAR VIDP 160430Z 25004KT 1500 R28/2000 R27/2000 R29R/2000 R29L/1700 HZ NSC 13/04 Q1021 NOSIG=
202412160500 METAR VIDP 160500Z 25003KT 1500 R28/2000 R27/2000 R29R/2000 R29L/1700 HZ NSC 15/05 Q1021 NOSIG=
202412160530 METAR VIDP 160530Z 26004KT 1500 R28/2000 R27/2000 R29R/2000 R29L/1800 HZ NSC 16/06 Q1021 NOSIG=
202412160600 METAR VIDP 160600Z 27004KT 1500 R28/2000 R27/2000 R29R/2000 R29L/1600 HZ NSC 17/07 Q1020 NOSIG=
202412160630 METAR VIDP 160630Z 28002KT 1500 R28/2000 R27/2000 R29R/2000 R29L/1600 HZ NSC 18/07 Q1020 NOSIG=
202412160700 METAR VIDP 160700Z 29003KT 1500 R28/2000 R27/2000 R29R/2000 R29L/1600 HZ NSC 19/07 Q1019 NOSIG=
202412160730 METAR VIDP 160730Z VRB02KT 1800 R28/2000 R27/2000 R29R/2000 R29L/1900 HZ NSC 20/06 Q1019 NOSIG=
202412160800 METAR VIDP 160800Z VRB02KT 2000 R28/2000 R27/2000 R29R/2000 R29L/2000 HZ NSC 20/06 Q1018 NOSIG=
202412160830 METAR VIDP 160830Z VRB02KT 2000 R28/2000 R27/2000 R29R/2000 R29L/2000 HZ NSC 21/06 Q1017 NOSIG=
202412160900 METAR VIDP 160900Z VRB02KT 2100 HZ NSC 21/06 Q1017 NOSIG=
202412160930 METAR VIDP 160930Z 27002KT 2100 HZ NSC 21/06 Q1016 NOSIG=
202412161000 METAR VIDP 161000Z 27002KT 2500 HZ NSC 21/05 Q1016 NOSIG=
202412161030 METAR VIDP 161030Z 27002KT 2500 HZ NSC 21/05 Q1016 NOSIG=
202412161100 METAR VIDP 161100Z 27003KT 2500 HZ NSC 20/06 Q1016 NOSIG=
202412161130 METAR VIDP 161130Z 26003KT 2500 HZ NSC 19/06 Q1015 NOSIG=
202412161200 METAR VIDP 161200Z 26003KT 2500 HZ NSC 18/07 Q1015 NOSIG=
202412161230 METAR VIDP 161230Z 27002KT 2500 HZ NSC 16/07 Q1016 NOSIG=
202412161300 METAR VIDP 161300Z 21002KT 2200 HZ NSC 15/07 Q1016 NOSIG=
202412161330 METAR VIDP 161330Z 00000KT 2200 HZ NSC 13/07 Q1016 NOSIG=
202412161400 METAR VIDP 161400Z 00000KT 2100 HZ NSC 13/07 Q1016 NOSIG=
202412161430 METAR VIDP 161430Z 00000KT 1800 R28/2000 R27/2000 R29R/2000 R29L/1800 HZ NSC 13/07 Q1016 NOSIG=
202412161500 METAR VIDP 161500Z VRB02KT 1800 R28/2000 R27/2000 R29R/2000 R29L/2000 HZ NSC 13/07 Q1016 NOSIG=
202412161530 METAR VIDP 161530Z 00000KT 1700 R28/2000 R27/2000 R29R/2000 R29L/1700 HZ NSC 12/07 Q1016 BECMG 1500 HZ=
202412161600 METAR VIDP 161600Z 00000KT 1500 R28/2000 R27/2000 R29R/2000 R29L/1600 HZ NSC 12/07 Q1016 NOSIG=
202412161630 METAR VIDP 161630Z 00000KT 1400 R28/2000 R27/2000 R29R/2000 R29L/1400 HZ NSC 12/07 Q1016 NOSIG=
202412161700 METAR VIDP 161700Z 00000KT 1400 R28/2000 R27/2000 R29R/2000 R29L/1500 HZ NSC 12/07 Q1016 NOSIG=
202412161730 METAR VIDP 161730Z 00000KT 1300 R28/2000 R27/2000 R29R/2000 R29L/1500 BR NSC 12/08 Q1016 NOSIG=
202412161800 METAR VIDP 161800Z 00000KT 1100 R28/2000 R27/2000 R29R/2000 R29L/1400 BR NSC 11/08 Q1016 NOSIG=
202412161830 METAR VIDP 161830Z 00000KT 1100 R28/2000 R27/2000 R29R/2000 R29L/1600 BR NSC 11/08 Q1016 NOSIG=
202412161900 METAR VIDP 161900Z 00000KT 1100 R28/2000 R27/2000 R29R/2000 R29L/1600 BR NSC 10/08 Q1016 NOSIG=
202412161930 METAR VIDP 161930Z 00000KT 1100 R28/2000 R27/2000 R29R/2000 R29L/1300 BR NSC 10/08 Q1016 NOSIG=
202412162000 METAR VIDP 162000Z 00000KT 1100 R28/2000 R27/2000 R29R/2000 R29L/1500 BR NSC 09/07 Q1016 NOSIG=
202412162030 METAR VIDP 162030Z 00000KT 1100 R28/2000 R27/2000 R29R/2000 R29L/1700 BR NSC 09/07 Q1015 NOSIG=
202412162100 METAR VIDP 162100Z 00000KT 1000 R28/2000 R27/2000 R29R/2000 R29L/1600 BR NSC 09/07 Q1015 NOSIG=
202412162130 METAR VIDP 162130Z 00000KT 1000 R28/2000 R27/2000 R29R/2000 R29L/1200 BR NSC 09/07 Q1015 NOSIG=
202412162200 METAR VIDP 162200Z 00000KT 1000 R28/2000 R27/2000 R29R/2000 R29L/1400 BR NSC 09/07 Q1015 NOSIG=
202412162230 METAR VIDP 162230Z 00000KT 0900 R28/2000 R27/2000 R29R/2000 R29L/0900 MIFG NSC 08/07 Q1015 TEMPO 0800 MIFG=
202412162300 METAR VIDP 162300Z 00000KT 0900 R28/2000 R27/2000 R29R/2000 R29L/1400 MIFG NSC 08/07 Q1015 TEMPO 0800 MIFG=
202412162330 METAR VIDP 162330Z 00000KT 0800 R28/2000 R27/2000 R29R/2000 R29L/1200 MIFG NSC 07/07 Q1015 NOSIG=
202412170000 METAR VIDP 170000Z 00000KT 0800 R28/2000 R27/2000 R29R/2000 R29L/1600 MIFG FEW100 07/07 Q1015 NOSIG=
202412170030 METAR VIDP 170030Z 16003KT 0800 R28/2000 R27/2000 R29R/2000 R29L/1600 MIFG FEW100 07/07 Q1015 NOSIG=
202412170100 METAR VIDP 170100Z 00000KT 0800 R28/2000 R27/2000 R29R/2000 R29L/1200 MIFG FEW100 07/07 Q1016 NOSIG=
202412170130 METAR VIDP 170130Z 00000KT 0800 R28/2000 R27/2000 R29R/2000 R29L/0900 MIFG FEW100 07/07 Q1016 NOSIG=
202412170200 METAR VIDP 170200Z 00000KT 0700 R28/1100 R27/1900 R29R/1500 R29L/1000 MIFG FEW100 08/06 Q1016 TEMPO 0600 MIFG=
202412170230 METAR VIDP 170230Z 00000KT 0600 R28/1100 R27/1900 R29R/1400 R29L/0800 MIFG FEW100 09/07 Q1017 NOSIG=
202412170300 METAR VIDP 170300Z 24002KT 0600 R28/1000 R27/1900 R29R/1300 R29L/0800 MIFG NSC 10/08 Q1017 NOSIG=
202412170330 METAR VIDP 170330Z 00000KT 0600 R28/1000 R27/2000 R29R/1400 R29L/0800 MIFG NSC 12/10 Q1018 NOSIG=
202412170400 METAR VIDP 170400Z 00000KT 0700 R28/1300 R27/1900 R29R/1500 R29L/1000 MIFG NSC 14/10 Q1018 BECMG 0800 FU=
202412170430 METAR VIDP 170430Z 13003KT 0900 R28/1500 R27/2000 R29R/1700 R29L/1200 FU NSC 16/09 Q1018 NOSIG=
202412170500 METAR VIDP 170500Z 12005KT 1000 R28/1600 R27/2000 R29R/1600 R29L/1300 HZ NSC 18/08 Q1018 NOSIG=
202412170530 METAR VIDP 170530Z 12006KT 1000 R28/2000 R27/2000 R29R/1800 R29L/1400 HZ NSC 19/08 Q1018 NOSIG=
202412170600 METAR VIDP 170600Z 12004KT 1200 R28/2000 R27/2000 R29R/1900 R29L/1500 HZ NSC 21/07 Q1018 NOSIG=
202412170630 METAR VIDP 170630Z 09004KT 1200 R28/2000 R27/2000 R29R/2000 R29L/1600 HZ NSC 21/07 Q1017 NOSIG=
202412170700 METAR VIDP 170700Z 10003KT 1400 R28/2000 R27/2000 R29R/2000 R29L/1800 HZ NSC 22/06 Q1017 BECMG 1500 HZ=
202412170730 METAR VIDP 170730Z 13003KT 1500 R28/2000 R27/2000 R29R/2000 R29L/1800 HZ NSC 22/05 Q1016 NOSIG=
202412170800 METAR VIDP 170800Z 12002KT 1500 R28/2000 R27/2000 R29R/2000 R29L/1800 HZ NSC 22/05 Q1016 NOSIG=
202412170830 METAR VIDP 170830Z 11005KT 1300 R28/1300 R27/2000 R29R/2000 R29L/1900 HZ NSC 22/05 Q1015 NOSIG=
202412170900 METAR VIDP 170900Z 09007KT 1300 R28/1300 R27/2000 R29R/2000 R29L/1900 HZ NSC 22/05 Q1015 NOSIG=
202412170930 METAR VIDP 170930Z 08005KT 1300 R28/1300 R27/2000 R29R/2000 R29L/1900 HZ NSC 22/06 Q1015 NOSIG=
202412171000 METAR VIDP 171000Z 07006KT 1300 R28/1600 R27/2000 R29R/2000 R29L/1500 HZ NSC 22/06 Q1015 BECMG 1500 HZ=
202412171030 METAR VIDP 171030Z 08005KT 1300 R28/1800 R27/2000 R29R/2000 R29L/1500 HZ NSC 21/06 Q1015 BECMG 1500 HZ=
202412171100 METAR VIDP 171100Z 08005KT 1500 R28/2000 R27/2000 R29R/2000 R29L/1700 HZ NSC 20/05 Q1015 NOSIG=
202412171130 METAR VIDP 171130Z 12003KT 1500 R28/2000 R27/2000 R29R/2000 R29L/1800 HZ NSC 19/05 Q1015 NOSIG=
202412171200 METAR VIDP 171200Z 00000KT 1500 R28/2000 R27/2000 R29R/2000 R29L/2000 HZ NSC 18/06 Q1015 NOSIG=
202412171230 METAR VIDP 171230Z VRB02KT 1500 R28/2000 R27/2000 R29R/P2000 R29L/2000 HZ NSC 16/07 Q1015 NOSIG=
202412171300 METAR VIDP 171300Z VRB02KT 1500 R28/2000 R27/2000 R29R/P2000 R29L/2000 HZ NSC 14/07 Q1016 NOSIG=
202412171330 METAR VIDP 171330Z 24003KT 1500 R28/2000 R27/2000 R29R/P2000 R29L/2000 HZ NSC 14/07 Q1016 NOSIG=
202412171400 METAR VIDP 171400Z 00000KT 1500 R28/2000 R27/2000 R29R/2000 R29L/2000 HZ NSC 14/07 Q1016 NOSIG=
202412171405 METAR VIDP NIL=
202412171430 METAR COR VIDP 171430Z 00000KT 1500 R28/2000 R27/2000 R29R/2000 R29L/1500 HZ NSC 14/08 Q1016 NOSIG=
202412171500 METAR VIDP 171500Z 00000KT 1500 R28/2000 R27/2000 R29R/2000 R29L/1500 HZ NSC 13/08 Q1016 NOSIG=
202412171530 METAR VIDP 171530Z 00000KT 1500 R28/2000 R27/2000 R29R/2000 R29L/1600 HZ NSC 13/08 Q1017 NOSIG=
202412171600 METAR VIDP 171600Z 00000KT 1500 R28/2000 R27/2000 R29R/2000 R29L/1500 HZ NSC 13/08 Q1017 NOSIG=
202412171630 METAR VIDP 171630Z 00000KT 1400 R28/2000 R27/2000 R29R/2000 R29L/1400 HZ NSC 12/08 Q1017 NOSIG=
202412171700 METAR VIDP 171700Z 00000KT 1200 R28/2000 R27/2000 R29R/2000 R29L/1200 HZ NSC 12/08 Q1017 NOSIG=
202412171730 METAR VIDP 171730Z 00000KT 1200 R28/2000 R27/2000 R29R/2000 R29L/1300 BR NSC 12/08 Q1017 NOSIG=
202412171800 METAR VIDP 171800Z 00000KT 1200 R28/2000 R27/2000 R29R/2000 R29L/1300 BR NSC 12/08 Q1017 NOSIG=
202412171830 METAR VIDP 171830Z 00000KT 1100 R28/2000 R27/2000 R29R/2000 R29L/1300 BR NSC 12/08 Q1017 NOSIG=
202412171900 METAR VIDP 171900Z 00000KT 1100 R28/2000 R27/2000 R29R/2000 R29L/1300 BR NSC 11/09 Q1017 NOSIG=
202412171930 METAR VIDP 171930Z 00000KT 0900 R28/2000 R27/2000 R29R/2000 R29L/1000 MIFG NSC 11/09 Q1016 TEMPO 0800 MIFG=
202412172000 METAR VIDP 172000Z 00000KT 0900 R28/2000 R27/2000 R29R/1800 R29L/1000 BR NSC 11/09 Q1016 TEMPO 0800 MIFG=
202412172030 METAR VIDP 172030Z 00000KT 0800 R28/1800 R27/2000 R29R/1800 R29L/1000 MIFG NSC 10/08 Q1016 NOSIG=
202412172100 METAR VIDP 172100Z 00000KT 0800 R28/2000 R27/1900 R29R/1800 R29L/0900 MIFG NSC 10/08 Q1016 NOSIG=
202412172130 METAR VIDP 172130Z 00000KT 0700 R28/1800 R27/1900 R29R/1600 R29L/1100 MIFG NSC 09/08 Q1016 TEMPO 0600 MIFG=
202412172200 METAR VIDP 172200Z 00000KT 0500 R28/1800 R27/1800 R29R/1600 R29L/0500 MIFG NSC 09/08 Q1016 NOSIG=
202412172230 METAR VIDP 172230Z 26004KT 0500 R28/1300 R27/1300 R29R/1300 R29L/2000 MIFG NSC 08/08 Q1016 NOSIG=
202412172300 METAR VIDP 172300Z 25003KT 0500 R28/1700 R27/1500 R29R/1400 R29L/0500 MIFG NSC 08/08 Q1016 TEMPO 0350 FG=
202412172330 METAR VIDP 172330Z 26003KT 0400 R28/1700 R27/1600 R29R/1400 R29L/0400 FG VV/// 08/08 Q1016 TEMPO 0350 FG=
202412180000 METAR VIDP 180000Z VRB02KT 0400 R28/1700 R27/1200 R29R/1200 R29L/0400 FG VV/// 08/08 Q1016 TEMPO 0350 FG=
202412180030 METAR VIDP 180030Z 24003KT 0300 R28/1700 R27/1500 R29R/1300 R29L/0300 FG VV/// 08/07 Q1016 NOSIG=
202412180100 METAR VIDP 180100Z 24002KT 0300 R28/1700 R27/1500 R29R/1300 R29L/0400 FG VV/// 08/07 Q1017 NOSIG=
202412180130 METAR VIDP 180130Z VRB02KT 0300 R28/1700 R27/0800 R29R/1200 R29L/0300 FG NSC 07/07 Q1017 NOSIG=
202412180200 METAR VIDP 180200Z VRB02KT 0300 R28/0600 R27/0700 R29R/0900 R29L/0300 FG NSC 08/07 Q1017 NOSIG=
202412180230 METAR VIDP 180230Z 24004KT 0300 R28/0600 R27/0500 R29R/0800 R29L/0500 FG NSC 08/07 Q1017 NOSIG=
202412180300 METAR VIDP 180300Z 26004KT 0300 R28/0700 R27/0800 R29R/0800 R29L/0500 FG NSC 09/08 Q1018 NOSIG=
202412180330 METAR VIDP 180330Z 25005KT 0300 R28/0700 R27/0600 R29R/0700 R29L/0500 FG NSC 09/08 Q1018 BECMG 0350 FG=
202412180400 METAR VIDP 180400Z 25004KT 0300 R28/0700 R27/0500 R29R/0700 R29L/0500 FG NSC 09/08 Q1019 BECMG 0350 FG=
202412180430 METAR VIDP 180430Z 26003KT 0400 R28/0900 R27/1000 R29R/1000 R29L/0800 FG NSC 10/09 Q1019 NOSIG=
202412180500 METAR VIDP 180500Z 25003KT 0450 R28/1200 R27/1300 R29R/1100 R29L/0900 FG NSC 11/11 Q1018 NOSIG=
202412180530 METAR VIDP 180530Z 28003KT 0500 R28/1400 R27/2000 R29R/1300 R29L/0900 FG NSC 13/10 Q1018 BECMG 0600 MIFG=
202412180600 METAR VIDP 180600Z 29003KT 0700 R28/1400 R27/2000 R29R/1300 R29L/1000 MIFG NSC 14/10 Q1017 BECMG 0800 MIFG=
202412180630 METAR VIDP 180630Z VRB02KT 1000 R28/1400 R27/2000 R29R/1400 R29L/1100 MIFG NSC 16/10 Q1016 NOSIG=
202412180700 METAR VIDP 180700Z VRB02KT 1200 R28/1400 R27/2000 R29R/1500 R29L/1200 HZ NSC 18/09 Q1016 NOSIG=
202412180730 METAR VIDP 180730Z 28003KT 1200 R28/1500 R27/2000 R29R/1500 R29L/1200 HZ NSC 19/09 Q1015 NOSIG=
202412180800 METAR VIDP 180800Z 30004KT 1200 R28/1400 R27/2000 R29R/1700 R29L/1200 HZ NSC 20/09 Q1015 NOSIG=
202412180830 METAR VIDP 180830Z 27005KT 1100 R28/1400 R27/2000 R29R/1600 R29L/1200 HZ NSC 20/08 Q1015 NOSIG=
202412180900 METAR VIDP 180900Z 27004KT 1100 R28/1700 R27/2000 R29R/1700 R29L/1300 HZ NSC 20/08 Q1014 NOSIG=
202412180930 METAR VIDP 180930Z 26004KT 1200 R28/1700 R27/2000 R29R/1900 R29L/1400 HZ NSC 20/08 Q1014 NOSIG=
202412181000 METAR VIDP 181000Z 26005KT 1300 R28/1900 R27/2000 R29R/2000 R29L/1500 HZ NSC 20/08 Q1014 NOSIG=
202412181030 METAR VIDP 181030Z 27004KT 1300 R28/2000 R27/2000 R29R/2000 R29L/1600 HZ NSC 20/08 Q1014 NOSIG=
202412181100 METAR VIDP 181100Z 28004KT 1400 R28/2000 R27/2000 R29R/2000 R29L/1600 HZ NSC 19/08 Q1014 NOSIG=
202412181130 METAR VIDP 181130Z 29004KT 1400 R28/2000 R27/2000 R29R/2000 R29L/1600 HZ NSC 19/08 Q1014 NOSIG=
202412181200 METAR VIDP 181200Z 29003KT 1300 R28/2000 R27/2000 R29R/2000 R29L/2000 HZ NSC 18/09 Q1014 NOSIG=
202412181230 METAR VIDP 181230Z 00000KT 1300 R28/2000 R27/2000 R29R/2000 R29L/2000 HZ NSC 17/09 Q1014 NOSIG=
202412181300 METAR VIDP 181300Z 00000KT 1200 R28/2000 R27/2000 R29R/2000 R29L/2000 HZ NSC 15/09 Q1014 NOSIG=
202412181330 METAR VIDP 181330Z 00000KT 1100 R28/2000 R27/2000 R29R/2000 R29L/2000 HZ NSC 15/09 Q1014 NOSIG=
202412181400 METAR VIDP 181400Z 00000KT 1000 R28/2000 R27/2000 R29R/2000 R29L/2000 HZ NSC 14/09 Q1014 NOSIG=
202412181430 METAR VIDP 181430Z 00000KT 1000 R28/2000 R27/2000 R29R/2000 R29L/1300 HZ NSC 13/09 Q1015 NOSIG=
202412181500 METAR VIDP 181500Z 00000KT 1000 R28/2000 R27/2000 R29R/2000 R29L/1500 BR NSC 13/09 Q1015 NOSIG=
202412181530 METAR VIDP 181530Z 00000KT 1000 R28/2000 R27/2000 R29R/2000 R29L/1500 BR NSC 12/08 Q1015 NOSIG=
202412181600 METAR VIDP 181600Z 00000KT 1000 R28/2000 R27/2000 R29R/2000 R29L/1200 BR NSC 12/08 Q1015 NOSIG=
202412181605 METAR VIDP NIL=
202412181630 METAR VIDP 181630Z 00000KT 1000 R28/2000 R27/2000 R29R/2000 R29L/1600 BR NSC 12/08 Q1015 NOSIG=
202412181700 METAR VIDP 181700Z 00000KT 1000 R28/2000 R27/2000 R29R/2000 R29L/1300 BR NSC 11/08 Q1015 NOSIG=
202412181730 METAR VIDP 181730Z 00000KT 1000 R28/2000 R27/2000 R29R/2000 R29L/1500 BR NSC 10/08 Q1015 NOSIG=
202412181800 METAR VIDP 181800Z 00000KT 1000 R28/2000 R27/2000 R29R/2000 R29L/1400 BR NSC 10/08 Q1015 NOSIG=
202412181805 METAR VIDP NIL=
202412181830 METAR VIDP 181830Z 00000KT 0900 R28/2000 R27/2000 R29R/2000 R29L/1300 MIFG NSC 10/09 Q1015 TEMPO 0800 MIFG=
202412181900 METAR VIDP 181900Z 00000KT 0800 R28/2000 R27/2000 R29R/2000 R29L/1300 MIFG NSC 09/08 Q1015 NOSIG=
202412181930 METAR VIDP 181930Z 00000KT 0800 R28/2000 R27/2000 R29R/2000 R29L/1200 MIFG NSC 09/08 Q1015 NOSIG=
202412182000 METAR VIDP 182000Z 00000KT 0800 R28/2000 R27/2000 R29R/2000 R29L/1400 MIFG NSC 08/08 Q1015 NOSIG=
202412182030 METAR VIDP 182030Z 00000KT 0800 R28/2000 R27/2000 R29R/2000 R29L/1500 MIFG NSC 08/08 Q1014 NOSIG=
202412182100 METAR VIDP 182100Z 00000KT 0800 R28/2000 R27/2000 R29R/2000 R29L/1600 MIFG NSC 08/08 Q1014 NOSIG=
202412182130 METAR VIDP 182130Z 00000KT 0800 R28/2000 R27/2000 R29R/2000 R29L/1400 MIFG NSC 08/08 Q1014 NOSIG=
202412182200 METAR VIDP 182200Z 00000KT 0800 R28/2000 R27/2000 R29R/2000 R29L/1300 MIFG NSC 08/07 Q1014 NOSIG=
202412182230 METAR VIDP 182230Z 00000KT 0800 R28/2000 R27/2000 R29R/2000 R29L/1200 MIFG NSC 08/07 Q1014 NOSIG=
202412182300 METAR VIDP 182300Z 00000KT 0800 R28/2000 R27/2000 R29R/1900 R29L/1300 MIFG NSC 08/07 Q1014 NOSIG=
202412182330 METAR VIDP 182330Z 00000KT 0800 R28/2000 R27/2000 R29R/1900 R29L/1300 MIFG NSC 08/07 Q1015 NOSIG=
202412190000 METAR VIDP 190000Z 00000KT 0800 R28/2000 R27/2000 R29R/1900 R29L/1600 MIFG NSC 07/06 Q1015 NOSIG=
202412190030 METAR VIDP 190030Z 00000KT 0800 R28/2000 R27/2000 R29R/1900 R29L/1500 MIFG NSC 07/06 Q1015 NOSIG=
202412190100 METAR VIDP 190100Z 00000KT 0800 R28/2000 R27/2000 R29R/2000 R29L/1700 MIFG NSC 07/06 Q1015 NOSIG=
202412190130 METAR VIDP 190130Z 00000KT 0700 R28/2000 R27/2000 R29R/1800 R29L/1900 MIFG NSC 07/06 Q1016 BECMG 0600 MIFG=
202412190200 METAR VIDP 190200Z VRB02KT 0600 R28/1100 R27/1800 R29R/1600 R29L/1200 MIFG NSC 07/06 Q1016 NOSIG=
202412190230 METAR VIDP 190230Z 11003KT 0600 R28/1100 R27/1200 R29R/1200 R29L/1100 MIFG NSC 09/07 Q1017 NOSIG=
202412190300 METAR VIDP 190300Z 00000KT 0600 R28/1000 R27/1200 R29R/1400 R29L/1200 MIFG NSC 10/08 Q1017 NOSIG=
202412190330 METAR VIDP 190330Z 00000KT 0600 R28/0900 R27/1100 R29R/1200 R29L/1100 MIFG NSC 12/09 Q1018 NOSIG=
202412190400 METAR VIDP 190400Z 06005KT 0700 R28/0800 R27/1100 R29R/1100 R29L/1100 MIFG NSC 13/09 Q1018 BECMG 0800 MIFG=
202412190430 METAR VIDP 190430Z 07005KT 0800 R28/0900 R27/1200 R29R/1100 R29L/1100 FU NSC 15/09 Q1019 NOSIG=
202412190500 METAR VIDP 190500Z 09006KT 0900 R28/0900 R27/1400 R29R/1300 R29L/1300 FU NSC 17/09 Q1019 NOSIG=
202412190530 METAR VIDP 190530Z 09007KT 0900 R28/1000 R27/2000 R29R/1400 R29L/1000 HZ NSC 18/09 Q1018 NOSIG=
202412190600 METAR VIDP 190600Z 08007KT 0900 R28/1700 R27/2000 R29R/1500 R29L/1100 HZ NSC 19/09 Q1018 NOSIG=
202412190630 METAR VIDP 190630Z 08007KT 1000 R28/2000 R27/2000 R29R/1700 R29L/1100 HZ NSC 20/08 Q1018 NOSIG=
202412190700 METAR VIDP 190700Z 10006KT 1100 R28/2000 R27/2000 R29R/1900 R29L/1200 HZ NSC 20/07 Q1017 NOSIG=
202412190730 METAR VIDP 190730Z 11007KT 1200 R28/2000 R27/2000 R29R/2000 R29L/1300 HZ NSC 20/06 Q1017 NOSIG=
202412190800 METAR VIDP 190800Z 11007KT 1300 R28/2000 R27/2000 R29R/2000 R29L/1300 HZ NSC 20/06 Q1016 NOSIG=
202412190830 METAR VIDP 190830Z 11007KT 1400 R28/2000 R27/2000 R29R/1800 R29L/1500 HZ NSC 21/05 Q1016 BECMG 1500 HZ=
202412190900 METAR VIDP 190900Z 10009KT 1500 R28/2000 R27/2000 R29R/2000 R29L/1500 HZ NSC 22/05 Q1015 NOSIG=
202412190930 METAR VIDP 190930Z 11009KT 1800 R28/2000 R27/2000 R29R/2000 R29L/1800 HZ NSC 22/04 Q1015 NOSIG=
202412191000 METAR VIDP 191000Z 10007KT 1800 R28/2000 R27/2000 R29R/2000 R29L/1800 HZ NSC 21/04 Q1015 NOSIG=
202412191030 METAR VIDP 191030Z 11007KT 1800 R28/2000 R27/2000 R29R/2000 R29L/1800 HZ NSC 21/04 Q1015 NOSIG=
202412191100 METAR VIDP 191100Z 11006KT 1800 R28/2000 R27/2000 R29R/2000 R29L/1800 HZ NSC 21/04 Q1014 NOSIG=
202412191130 METAR VIDP 191130Z 11004KT 1800 R28/2000 R27/2000 R29R/2000 R29L/1800 HZ NSC 20/05 Q1014 NOSIG=
202412191200 METAR VIDP 191200Z 13003KT 1800 R28/2000 R27/2000 R29R/2000 R29L/1900 HZ NSC 19/05 Q1014 NOSIG=
202412191230 METAR VIDP 191230Z 13002KT 2100 HZ NSC 18/06 Q1014 NOSIG=
202412191300 METAR VIDP 191300Z 14002KT 2200 HZ NSC 18/07 Q1014 NOSIG=
202412191330 METAR VIDP 191330Z 15002KT 2500 HZ NSC 17/08 Q1015 NOSIG=
202412191400 METAR VIDP 191400Z VRB02KT 2200 HZ NSC 15/08 Q1015 NOSIG=
202412191430 METAR VIDP 191430Z VRB02KT 2200 HZ NSC 14/08 Q1015 NOSIG=
202412191500 METAR VIDP 191500Z VRB02KT 2000 R28/2000 R27/2000 R29R/2000 R29L/2000 HZ NSC 13/08 Q1015 NOSIG=
202412191530 METAR VIDP 191530Z 00000KT 1700 R28/2000 R27/2000 R29R/2000 R29L/2000 BR NSC 13/09 Q1015 BECMG 1500 BR=
202412191600 METAR VIDP 191600Z VRB02KT 1600 R28/2000 R27/2000 R29R/2000 R29L/2000 BR NSC 13/09 Q1015 NOSIG=
202412191630 METAR VIDP 191630Z 00000KT 1500 R28/2000 R27/2000 R29R/2000 R29L/2000 BR NSC 12/09 Q1015 NOSIG=
202412191700 METAR VIDP 191700Z VRB02KT 1500 R28/2000 R27/2000 R29R/P2000 R29L/2000 BR NSC 12/09 Q1016 NOSIG=
202412191730 METAR VIDP 191730Z VRB02KT 1500 R28/2000 R27/2000 R29R/P2000 R29L/1700 BR NSC 11/09 Q1016 NOSIG=
202412191800 METAR VIDP 191800Z VRB02KT 1200 R28/2000 R27/2000 R29R/P2000 R29L/2000 BR NSC 11/09 Q1016 NOSIG=
202412191830 METAR VIDP 191830Z VRB02KT 1200 R28/2000 R27/2000 R29R/P2000 R29L/2000 BR NSC 11/09 Q1015 NOSIG=
202412191900 METAR VIDP 191900Z VRB02KT 1100 R28/2000 R27/2000 R29R/P2000 R29L/2000 BR NSC 11/09 Q1015 NOSIG=
202412191930 METAR VIDP 191930Z 00000KT 1100 R28/2000 R27/2000 R29R/P2000 R29L/1900 BR NSC 11/09 Q1015 NOSIG=
202412192000 METAR VIDP 192000Z VRB02KT 1100 R28/2000 R27/2000 R29R/P2000 R29L/1800 BR NSC 11/09 Q1015 NOSIG=
202412192030 METAR VIDP 192030Z 00000KT 1000 R28/2000 R27/2000 R29R/P2000 R29L/1700 BR NSC 10/09 Q1015 NOSIG=
202412192100 METAR VIDP 192100Z VRB02KT 0800 R28/2000 R27/2000 R29R/2000 R29L/1700 MIFG NSC 10/09 Q1015 NOSIG=
202412192130 METAR VIDP 192130Z 03003KT 0800 R28/2000 R27/2000 R29R/P2000 R29L/2000 MIFG NSC 10/09 Q1015 NOSIG=
202412192200 METAR VIDP 192200Z 00000KT 0800 R28/2000 R27/2000 R29R/P2000 R29L/1800 MIFG NSC 10/09 Q1015 NOSIG=
202412192230 METAR VIDP 192230Z 00000KT 0800 R28/2000 R27/2000 R29R/P2000 R29L/1700 MIFG NSC 10/09 Q1015 NOSIG=
202412192300 METAR VIDP 192300Z 00000KT 0800 R28/2000 R27/2000 R29R/P2000 R29L/1800 MIFG NSC 10/09 Q1015 NOSIG=
202412192330 METAR VIDP 192330Z 00000KT 0800 R28/2000 R27/2000 R29R/P2000 R29L/1800 MIFG NSC 10/09 Q1015 NOSIG=
202412200000 METAR VIDP 200000Z 00000KT 0800 R28/2000 R27/2000 R29R/2000 R29L/1600 MIFG NSC 10/09 Q1015 NOSIG=
202412200030 METAR VIDP 200030Z VRB02KT 0800 R28/2000 R27/2000 R29R/P2000 R29L/1800 MIFG NSC 10/09 Q1015 NOSIG=
202412200100 METAR COR VIDP 200100Z 09003KT 0800 R28/2000 R27/2000 R29R/P2000 R29L/1800 MIFG NSC 10/09 Q1016 BECMG 0600 MIFG=
202412200105 METAR VIDP NIL=
202412200130 METAR VIDP 200130Z 00000KT 0800 R28/2000 R27/2000 R29R/P2000 R29L/1800 MIFG FEW100 10/09 Q1016 BECMG 0600 MIFG=
202412200200 METAR VIDP 200200Z 00000KT 0700 R28/1100 R27/1700 R29R/P1800 R29L/1200 MIFG SCT100 11/09 Q1016 TEMPO 0600 MIFG=
202412200230 METAR COR VIDP 200230Z VRB02KT 0700 R28/1100 R27/1400 R29R/1400 R29L/1100 MIFG SCT100 12/11 Q1017 BECMG 0800 MIFG=
202412200300 METAR VIDP 200300Z 00000KT 0700 R28/0900 R27/1300 R29R/1400 R29L/1000 MIFG SCT100 13/12 Q1017 BECMG 0800 MIFG=
202412200330 METAR VIDP 200330Z 00000KT 0800 R28/1100 R27/1400 R29R/1500 R29L/1200 MIFG FEW100 15/13 Q1018 NOSIG=
202412200400 METAR VIDP 200400Z 00000KT 0800 R28/1400 R27/1600 R29R/1600 R29L/1100 MIFG NSC 16/13 Q1018 NOSIG=
202412200430 METAR VIDP 200430Z 00000KT 0900 R28/1700 R27/1600 R29R/1800 R29L/1100 FU NSC 17/12 Q1018 NOSIG=
202412200500 METAR VIDP 200500Z VRB02KT 0900 R28/2000 R27/2000 R29R/1800 R29L/1300 FU NSC 19/11 Q1018 NOSIG=
202412200530 METAR VIDP 200530Z 00000KT 1100 R28/2000 R27/2000 R29R/1800 R29L/1300 FU NSC 20/11 Q1018 NOSIG=
202412200600 METAR VIDP 200600Z VRB02KT 1100 R28/2000 R27/2000 R29R/2000 R29L/1900 FU NSC 21/10 Q1017 NOSIG=
202412200630 METAR VIDP 200630Z 00000KT 1200 R28/2000 R27/2000 R29R/2000 R29L/1700 FU NSC 21/10 Q1017 NOSIG=
202412200700 METAR VIDP 200700Z 00000KT 1300 R28/2000 R27/2000 R29R/2000 R29L/1500 FU NSC 21/10 Q1016 NOSIG=
202412200730 METAR VIDP 200730Z 00000KT 1300 R28/2000 R27/2000 R29R/1900 R29L/1300 FU NSC 22/09 Q1016 NOSIG=
202412200800 METAR VIDP 200800Z 01003KT 1300 R28/1700 R27/1800 R29R/2000 R29L/1400 FU NSC 22/09 Q1015 BECMG 1500 FU=
202412200830 METAR VIDP 200830Z 34004KT 1300 R28/1300 R27/2000 R29R/1800 R29L/1300 FU NSC 22/09 Q1015 BECMG 1500 FU=
202412200900 METAR VIDP 200900Z 34004KT 1300 R28/1400 R27/2000 R29R/1700 R29L/1300 FU NSC 22/09 Q1015 BECMG 1500 FU=
202412200930 METAR VIDP 200930Z 34004KT 1200 R28/1500 R27/2000 R29R/1900 R29L/1200 FU NSC 22/09 Q1014 NOSIG=
202412201000 METAR VIDP 201000Z 34004KT 1200 R28/1900 R27/2000 R29R/2000 R29L/1300 FU NSC 21/09 Q1014 NOSIG=
202412201030 METAR VIDP 201030Z 34004KT 1200 R28/2000 R27/2000 R29R/2000 R29L/1400 FU NSC 21/09 Q1014 NOSIG=
202412201100 METAR VIDP 201100Z 34004KT 1300 R28/1800 R27/2000 R29R/2000 R29L/1400 FU NSC 20/09 Q1014 NOSIG=
202412201130 METAR VIDP 201130Z 31005KT 1400 R28/1900 R27/2000 R29R/2000 R29L/1500 FU NSC 20/10 Q1014 NOSIG=
202412201200 METAR VIDP 201200Z 32004KT 1400 R28/2000 R27/2000 R29R/2000 R29L/1900 FU NSC 20/10 Q1014 BECMG 1500 FU=
202412201230 METAR VIDP 201230Z 32003KT 1600 R28/2000 R27/2000 R29R/2000 R29L/2000 FU NSC 19/10 Q1014 NOSIG=
202412201300 METAR VIDP 201300Z 31003KT 1800 R28/2000 R27/2000 R29R/2000 R29L/2000 FU NSC 18/11 Q1014 NOSIG=
202412201330 METAR VIDP 201330Z 31003KT 2200 FU NSC 18/11 Q1014 NOSIG=
202412201400 METAR VIDP 201400Z 29003KT 2200 HZ NSC 17/11 Q1014 NOSIG=
202412201430 METAR VIDP 201430Z 28002KT 1900 R28/2000 R27/2000 R29R/2000 R29L/2000 HZ NSC 16/11 Q1015 NOSIG=
202412201500 METAR VIDP 201500Z 30003KT 1800 R28/2000 R27/2000 R29R/2000 R29L/2000 HZ NSC 16/10 Q1015 NOSIG=
202412201530 METAR VIDP 201530Z 30003KT 1800 R28/2000 R27/2000 R29R/2000 R29L/2000 HZ NSC 16/10 Q1015 NOSIG=
202412201600 METAR VIDP 201600Z 27002KT 1700 R28/2000 R27/2000 R29R/2000 R29L/2000 HZ NSC 15/10 Q1015 TEMPO 1500 HZ=
202412201630 METAR VIDP 201630Z 27002KT 1500 R28/2000 R27/2000 R29R/2000 R29L/2000 HZ NSC 15/10 Q1015 NOSIG=
202412201700 METAR VIDP 201700Z 27002KT 1500 R28/2000 R27/2000 R29R/2000 R29L/2000 BR NSC 14/10 Q1015 NOSIG=
202412201730 METAR VIDP 201730Z VRB02KT 1400 R28/2000 R27/2000 R29R/2000 R29L/2000 BR NSC 14/11 Q1015 NOSIG=
202412201800 METAR VIDP 201800Z 29003KT 1400 R28/2000 R27/2000 R29R/2000 R29L/2000 BR NSC 14/11 Q1015 NOSIG=
202412201830 METAR VIDP 201830Z VRB02KT 1400 R28/2000 R27/2000 R29R/2000 R29L/2000 BR NSC 13/11 Q1015 NOSIG=
202412201900 METAR VIDP 201900Z VRB02KT 1400 R28/2000 R27/2000 R29R/2000 R29L/2000 BR NSC 13/11 Q1015 NOSIG=
202412201930 METAR VIDP 201930Z 25002KT 1400 R28/2000 R27/2000 R29R/2000 R29L/2000 BR NSC 12/11 Q1015 NOSIG=
202412202000 METAR VIDP 202000Z 00000KT 1400 R28/2000 R27/2000 R29R/2000 R29L/1900 BR NSC 12/11 Q1014 NOSIG=
202412202030 METAR VIDP 202030Z 00000KT 1400 R28/2000 R27/2000 R29R/2000 R29L/2000 BR NSC 12/11 Q1014 NOSIG=
202412202100 METAR VIDP 202100Z 00000KT 1200 R28/2000 R27/2000 R29R/2000 R29L/1700 BR NSC 11/10 Q1014 NOSIG=
202412202130 METAR VIDP 202130Z 00000KT 0900 R28/2000 R27/2000 R29R/2000 R29L/1900 MIFG NSC 10/10 Q1014 NOSIG=
202412202200 METAR VIDP 202200Z 00000KT 0900 R28/2000 R27/1900 R29R/2000 R29L/2000 MIFG NSC 10/10 Q1014 TEMPO 0800 MIFG=
202412202230 METAR COR VIDP 202230Z 23002KT 0800 R28/2000 R27/2000 R29R/2000 R29L/1700 MIFG NSC 10/10 Q1014 NOSIG=
202412202300 METAR VIDP 202300Z 24003KT 0800 R28/2000 R27/2000 R29R/2000 R29L/1800 MIFG NSC 10/10 Q1014 NOSIG=
202412202330 METAR VIDP 202330Z 24003KT 0800 R28/2000 R27/1700 R29R/2000 R29L/1500 MIFG NSC 10/09 Q1014 NOSIG=
202412210000 METAR VIDP 210000Z 25003KT 0800 R28/2000 R27/1900 R29R/2000 R29L/1700 MIFG NSC 09/09 Q1015 NOSIG=
202412210030 METAR VIDP 210030Z 25003KT 0750 R28/2000 R27/2000 R29R/2000 R29L/1700 MIFG NSC 09/09 Q1015 TEMPO 0600 MIFG=
202412210100 METAR VIDP 210100Z 25003KT 0700 R28/2000 R27/2000 R29R/2000 R29L/2000 MIFG NSC 09/08 Q1015 TEMPO 0600 MIFG=
202412210130 METAR VIDP 210130Z 24002KT 0600 R28/2000 R27/1900 R29R/2000 R29L/1500 MIFG NSC 09/08 Q1016 NOSIG=
202412210200 METAR VIDP 210200Z 25003KT 0600 R28/1600 R27/1600 R29R/1800 R29L/1000 MIFG NSC 09/08 Q1016 NOSIG=
202412210230 METAR VIDP 210230Z VRB02KT 0600 R28/1600 R27/1400 R29R/1500 R29L/0900 MIFG NSC 09/08 Q1016 NOSIG=
202412210300 METAR VIDP 210300Z VRB02KT 0700 R28/1600 R27/1600 R29R/1400 R29L/1000 MIFG NSC 10/09 Q1017 BECMG 0800 MIFG=
202412210330 METAR VIDP 210330Z 25003KT 0800 R28/1400 R27/1600 R29R/1400 R29L/1000 MIFG NSC 12/10 Q1017 NOSIG=
202412210400 METAR VIDP 210400Z 25003KT 0900 R28/1500 R27/1600 R29R/1400 R29L/1200 MIFG NSC 13/10 Q1018 NOSIG=
202412210405 METAR VIDP NIL=
202412210430 METAR VIDP 210430Z 27004KT 1000 R28/1500 R27/1800 R29R/1500 R29L/1200 MIFG NSC 14/10 Q1018 NOSIG=
202412210500 METAR VIDP 210500Z 26004KT 1100 R28/2000 R27/2000 R29R/1600 R29L/1300 FU NSC 15/10 Q1018 NOSIG=
202412210505 METAR VIDP NIL=
202412210530 METAR VIDP 210530Z 26003KT 1100 R28/2000 R27/2000 R29R/1900 R29L/1300 FU NSC 16/09 Q1018 NOSIG=
202412210600 METAR VIDP 210600Z 27003KT 1200 R28/1900 R27/2000 R29R/2000 R29L/1400 FU NSC 18/09 Q1017 NOSIG=
202412210630 METAR VIDP 210630Z 27003KT 1200 R28/1800 R27/2000 R29R/1900 R29L/1400 FU NSC 20/08 Q1017 NOSIG=
202412210700 METAR VIDP 210700Z 30003KT 1200 R28/1900 R27/2000 R29R/1900 R29L/1300 FU NSC 21/07 Q1017 NOSIG=
202412210730 METAR VIDP 210730Z 30004KT 1200 R28/1900 R27/2000 R29R/2000 R29L/1400 FU NSC 21/06 Q1016 NOSIG=
202412210800 METAR VIDP 210800Z 30004KT 1200 R28/1800 R27/2000 R29R/2000 R29L/1400 FU NSC 22/07 Q1016 NOSIG=
202412210830 METAR VIDP 210830Z 30006KT 1200 R28/1800 R27/2000 R29R/P2000 R29L/1400 HZ NSC 22/06 Q1016 NOSIG=
202412210900 METAR VIDP 210900Z 32006KT 1200 R28/1800 R27/2000 R29R/P2000 R29L/1400 HZ NSC 22/06 Q1015 NOSIG=
202412210930 METAR VIDP 210930Z 31006KT 1300 R28/2000 R27/2000 R29R/P2000 R29L/1500 HZ NSC 22/06 Q1015 BECMG 1500 HZ=
202412211000 METAR VIDP 211000Z 32006KT 1300 R28/2000 R27/2000 R29R/P2000 R29L/1300 HZ NSC 22/06 Q1015 BECMG 1500 HZ=
202412211030 METAR VIDP 211030Z 31006KT 1500 R28/2000 R27/2000 R29R/P2000 R29L/1500 HZ NSC 21/06 Q1015 NOSIG=
202412211100 METAR VIDP 211100Z 30005KT 1500 R28/2000 R27/2000 R29R/P2000 R29L/1500 HZ NSC 21/06 Q1015 NOSIG=
202412211130 METAR VIDP 211130Z 28003KT 1500 R28/2000 R27/2000 R29R/P2000 R29L/1800 HZ NSC 20/07 Q1015 NOSIG=
202412211200 METAR VIDP 211200Z 30004KT 2200 HZ NSC 20/07 Q1015 NOSIG=
202412211230 METAR VIDP 211230Z 31003KT 2200 HZ NSC 18/08 Q1015 NOSIG=
202412211300 METAR VIDP 211300Z VRB02KT 2200 HZ NSC 17/08 Q1016 NOSIG=
202412211330 METAR VIDP 211330Z 00000KT 2200 HZ NSC 16/08 Q1016 NOSIG=
202412211400 METAR VIDP 211400Z 00000KT 2200 HZ NSC 16/08 Q1016 NOSIG=
202412211430 METAR VIDP 211430Z 00000KT 2200 HZ NSC 15/08 Q1016 NOSIG=
202412211500 METAR VIDP 211500Z 00000KT 2200 HZ NSC 15/09 Q1017 NOSIG=
202412211530 METAR VIDP 211530Z 00000KT 2100 HZ NSC 15/10 Q1017 NOSIG=
202412211600 METAR VIDP 211600Z 00000KT 2100 BR NSC 14/10 Q1017 NOSIG=
202412211630 METAR VIDP 211630Z 00000KT 2100 BR NSC 14/10 Q1017 NOSIG=
202412211700 METAR VIDP 211700Z 00000KT 2100 BR NSC 13/10 Q1017 NOSIG=
202412211730 METAR VIDP 211730Z 00000KT 1900 R28/2000 R27/2000 R29R/P2000 R29L/1900 BR NSC 13/10 Q1017 NOSIG=
202412211800 METAR VIDP 211800Z 00000KT 1800 R28/2000 R27/2000 R29R/P2000 R29L/1900 BR NSC 13/10 Q1017 NOSIG=
202412211830 METAR VIDP 211830Z 00000KT 1700 R28/2000 R27/2000 R29R/P2000 R29L/1900 BR NSC 12/10 Q1016 NOSIG=
202412211900 METAR VIDP 211900Z 00000KT 1700 R28/2000 R27/2000 R29R/P2000 R29L/1800 BR NSC 12/09 Q1016 NOSIG=
202412211930 METAR VIDP 211930Z 00000KT 1700 R28/2000 R27/2000 R29R/P2000 R29L/1800 BR NSC 11/09 Q1016 NOSIG=
202412212000 METAR VIDP 212000Z 00000KT 1600 R28/2000 R27/2000 R29R/P2000 R29L/2000 BR NSC 11/09 Q1016 TEMPO 1500 BR=
202412212030 METAR VIDP 212030Z 00000KT 1500 R28/2000 R27/2000 R29R/P2000 R29L/1700 BR NSC 11/09 Q1016 NOSIG=
202412212105 METAR VIDP NIL=
202412212130 METAR VIDP 212130Z 00000KT 1200 R28/2000 R27/2000 R29R/P2000 R29L/1800 BR NSC 10/09 Q1015 NOSIG=
202412212200 METAR VIDP 212200Z 00000KT 1200 R28/2000 R27/2000 R29R/1900 R29L/2000 BR NSC 10/09 Q1015 NOSIG=
202412212230 METAR VIDP 212230Z 00000KT 1200 R28/2000 R27/2000 R29R/2000 R29L/2000 BR NSC 10/09 Q1015 NOSIG=
202412212300 METAR VIDP 212300Z 00000KT 1200 R28/2000 R27/2000 R29R/2000 R29L/2000 BR NSC 10/09 Q1015 NOSIG=
202412212330 METAR VIDP 212330Z 00000KT 0900 R28/2000 R27/2000 R29R/2000 R29L/2000 MIFG NSC 09/09 Q1015 BECMG 0800 MIFG=
202412220000 METAR VIDP 220000Z 00000KT 0800 R28/2000 R27/2000 R29R/2000 R29L/2000 MIFG NSC 09/09 Q1015 NOSIG=
202412220030 METAR VIDP 220030Z 00000KT 0800 R28/2000 R27/2000 R29R/2000 R29L/1700 MIFG NSC 09/09 Q1015 NOSIG=
202412220100 METAR VIDP 220100Z 00000KT 0800 R28/2000 R27/2000 R29R/1800 R29L/1300 MIFG NSC 09/09 Q1015 NOSIG=
202412220130 METAR VIDP 220130Z 00000KT 0800 R28/2000 R27/1900 R29R/1800 R29L/1300 MIFG SCT100 09/09 Q1016 NOSIG=
202412220200 METAR VIDP 220200Z 00000KT 0700 R28/1000 R27/1200 R29R/1500 R29L/1000 MIFG SCT100 10/09 Q1016 BECMG 0600 MIFG=
202412220230 METAR VIDP 220230Z 00000KT 0600 R28/1000 R27/1100 R29R/1300 R29L/0800 MIFG SCT100 10/09 Q1016 NOSIG=
202412220300 METAR VIDP 220300Z 00000KT 0600 R28/0800 R27/1300 R29R/1300 R29L/0900 MIFG FEW100 11/09 Q1017 NOSIG=
202412220330 METAR VIDP 220330Z 00000KT 0700 R28/0900 R27/1500 R29R/1400 R29L/0900 MIFG FEW100 13/09 Q1017 BECMG 0800 MIFG=
202412220400 METAR VIDP 220400Z 00000KT 0800 R28/1300 R27/1500 R29R/1600 R29L/1200 MIFG FEW100 15/11 Q1018 NOSIG=
202412220430 METAR VIDP 220430Z VRB02KT 0800 R28/1600 R27/2000 R29R/1600 R29L/1100 FU FEW100 18/10 Q1018 NOSIG=
202412220500 METAR VIDP 220500Z VRB02KT 0800 R28/1900 R27/2000 R29R/1800 R29L/1200 FU NSC 19/09 Q1018 NOSIG=
202412220530 METAR VIDP 220530Z 13003KT 1200 R28/2000 R27/2000 R29R/2000 R29L/1600 FU NSC 20/07 Q1018 BECMG 1500 FU=
202412220600 METAR VIDP 220600Z VRB02KT 1500 R28/2000 R27/2000 R29R/2000 R29L/1800 FU NSC 21/06 Q1018 NOSIG=
202412220630 METAR VIDP 220630Z 25003KT 1500 R28/2000 R27/2000 R29R/2000 R29L/1800 FU NSC 21/06 Q1017 NOSIG=
202412220700 METAR VIDP 220700Z 16004KT 1500 R28/2000 R27/2000 R29R/2000 R29L/1500 FU NSC 22/06 Q1017 NOSIG=
202412220730 METAR VIDP 220730Z 16004KT 1500 R28/1800 R27/2000 R29R/2000 R29L/1500 FU NSC 23/06 Q1016 NOSIG=
202412220800 METAR VIDP 220800Z 17005KT 1500 R28/1900 R27/2000 R29R/2000 R29L/1500 FU NSC 23/06 Q1016 NOSIG=
202412220830 METAR VIDP 220830Z 17005KT 1500 R28/1900 R27/2000 R29R/2000 R29L/1500 HZ NSC 23/06 Q1015 NOSIG=
202412220900 METAR VIDP 220900Z 17005KT 1500 R28/1900 R27/2000 R29R/2000 R29L/1500 HZ NSC 23/06 Q1015 NOSIG=
202412220930 METAR VIDP 220930Z 16004KT 1500 R28/2000 R27/2000 R29R/2000 R29L/1500 HZ NSC 23/06 Q1014 NOSIG=
202412221000 METAR VIDP 221000Z 14005KT 1500 R28/2000 R27/2000 R29R/2000 R29L/1500 HZ NSC 23/07 Q1014 NOSIG=
202412221030 METAR VIDP 221030Z 14005KT 1500 R28/1700 R27/2000 R29R/2000 R29L/2000 HZ NSC 22/07 Q1014 NOSIG=
202412221100 METAR VIDP 221100Z 14005KT 1500 R28/1800 R27/2000 R29R/2000 R29L/2000 HZ NSC 21/08 Q1014 NOSIG=
202412221130 METAR VIDP 221130Z 12004KT 1500 R28/1900 R27/2000 R29R/2000 R29L/2000 HZ NSC 20/09 Q1014 NOSIG=
202412221200 METAR VIDP 221200Z 11003KT 1500 R28/2000 R27/2000 R29R/2000 R29L/2000 HZ NSC 19/09 Q1014 NOSIG=
202412221230 METAR VIDP 221230Z 10003KT 1500 R28/2000 R27/2000 R29R/2000 R29L/2000 HZ NSC 18/08 Q1014 NOSIG=
202412221300 METAR VIDP 221300Z 11003KT 1500 R28/2000 R27/2000 R29R/2000 R29L/2000 HZ NSC 17/08 Q1015 NOSIG=
202412221330 METAR VIDP 221330Z 11004KT 1500 R28/2000 R27/2000 R29R/2000 R29L/2000 FU NSC 16/09 Q1015 NOSIG=
202412221400 METAR VIDP 221400Z 10004KT 1500 R28/2000 R27/2000 R29R/2000 R29L/2000 FU NSC 16/09 Q1015 NOSIG=
202412221430 METAR VIDP 221430Z 08002KT 1500 R28/2000 R27/2000 R29R/2000 R29L/2000 FU NSC 16/09 Q1015 NOSIG=
202412221500 METAR VIDP 221500Z 08003KT 1500 R28/2000 R27/2000 R29R/2000 R29L/2000 FU NSC 15/09 Q1015 NOSIG=
202412221530 METAR VIDP 221530Z 09003KT 1500 R28/2000 R27/2000 R29R/2000 R29L/2000 FU NSC 15/09 Q1015 NOSIG=
202412221600 METAR VIDP 221600Z 09004KT 1500 R28/2000 R27/2000 R29R/2000 R29L/2000 FU NSC 15/09 Q1015 NOSIG=
202412221630 METAR VIDP 221630Z 09004KT 1500 R28/2000 R27/2000 R29R/2000 R29L/2000 FU NSC 14/09 Q1016 NOSIG=
202412221700 METAR VIDP 221700Z 09004KT 1500 R28/2000 R27/2000 R29R/2000 R29L/2000 FU NSC 14/09 Q1015 NOSIG=
202412221730 METAR VIDP 221730Z 08005KT 1800 R28/2000 R27/2000 R29R/2000 R29L/2000 FU NSC 14/09 Q1015 NOSIG=
202412221800 METAR VIDP 221800Z 09004KT 2100 FU NSC 14/09 Q1015 NOSIG=
202412221830 METAR VIDP 221830Z 09004KT 2100 FU NSC 14/09 Q1014 NOSIG=
202412221900 METAR VIDP 221900Z 09006KT 2100 BR NSC 13/09 Q1014 NOSIG=
202412221930 METAR VIDP 221930Z 11003KT 2100 BR NSC 13/09 Q1015 NOSIG=
202412222000 METAR VIDP 222000Z 11004KT 2100 BR NSC 13/09 Q1014 NOSIG=
202412222030 METAR VIDP 222030Z 11004KT 2100 BR FEW035 FEW40CB SCT100 12/08 Q1014 NOSIG=
202412222100 METAR VIDP 222100Z 13003KT 2100 BR FEW035 FEW40CB SCT100 12/08 Q1015 NOSIG=
202412222130 METAR VIDP 222130Z 11003KT 2100 BR FEW035 FEW40CB SCT100 12/09 Q1014 NOSIG=
202412222200 METAR VIDP 222200Z 09006KT 2100 BR FEW035 FEW40CB SCT100 12/09 Q1013 NOSIG=
202412222230 METAR VIDP 222230Z 13004KT 2100 BR FEW035 FEW40CB SCT100 12/09 Q1014 NOSIG=
202412222300 METAR VIDP 222300Z 14003KT 2100 BR FEW035 FEW040CB SCT100 12/09 Q1014 NOSIG=
202412222305 METAR VIDP NIL=
202412222330 METAR VIDP 222330Z 10006KT 2100 BR FEW035 SCT100 12/09 Q1013 NOSIG=
202412230000 METAR VIDP 230000Z 13004KT 2100 BR FEW035 SCT100 13/09 Q1013 NOSIG=
202412230030 METAR VIDP 230030Z 11003KT 2100 BR FEW035 FEW040CB SCT100 13/09 Q1014 NOSIG=
202412230100 METAR VIDP 230100Z VRB02KT 2100 BR SCT035 FEW040CB SCT100 14/09 Q1015 NOSIG=
202412230130 METAR VIDP 230130Z 10002KT 1800 R28/2000 R27/2000 R29R/2000 R29L/2000 -TSRA SCT035 FEW040CB SCT100 13/09 Q1016 TEMPO 25010G20KT 1500 TSRA=
202412230200 METAR VIDP 230200Z 04003KT 1200 R28/1600 R27/2000 R29R/2000 R29L/1900 -DZ SCT035 FEW040CB BKN090 13/10 Q1016 TEMPO 25010G20KT 0800 TSRA=
202412230230 METAR VIDP 230230Z 05003KT 1100 R28/1600 R27/2000 R29R/2000 R29L/1800 BR SCT035 FEW040CB BKN090 13/11 Q1016 TEMPO 25010G20KT 0800 TSRA=
202412230300 METAR VIDP 230300Z 04002KT 1100 R28/1700 R27/2000 R29R/2000 R29L/1600 DZ SCT035 FEW040CB BKN090 14/11 Q1017 TEMPO 25010G20KT 0800 TSRA=
202412230330 METAR VIDP 230330Z 06002KT 1100 R28/1900 R27/2000 R29R/2000 R29L/1600 DZ SCT035 FEW040CB BKN090 14/12 Q1018 TEMPO 25010G20KT 0800 TSRA=
202412230400 METAR VIDP 230400Z 04004KT 1000 R28/1400 R27/1700 R29R/1800 R29L/1300 BR SCT035 FEW040CB BKN090 15/12 Q1018 TEMPO 25010G20KT 0800 -TSRA=
202412230430 METAR VIDP 230430Z 05005KT 1000 R28/1200 R27/1700 R29R/1800 R29L/1200 BR SCT035 FEW040CB BKN090 15/12 Q1018 TEMPO 25010G20KT 0800 -TSRA=
202412230500 METAR VIDP 230500Z 05004KT 1000 R28/1100 R27/1500 R29R/1900 R29L/1000 BR SCT035 FEW040CB BKN090 16/12 Q1019 TEMPO 25010G20KT 0800 -TSRA=
202412230530 METAR VIDP 230530Z 04005KT 0800 R28/1100 R27/1400 R29R/1600 R29L/1000 DZ SCT035 BKN090 16/13 Q1018 NOSIG=
202412230600 METAR VIDP 230600Z 05004KT 0800 R28/1100 R27/1500 R29R/1400 R29L/0900 DZ SCT035 BKN090 17/13 Q1018 NOSIG=
202412230630 METAR VIDP 230630Z 06005KT 0900 R28/1100 R27/1700 R29R/1600 R29L/1100 DZ SCT035 BKN090 18/11 Q1018 NOSIG=
202412230700 METAR VIDP 230700Z 06003KT 1000 R28/1200 R27/1700 R29R/1800 R29L/1200 FU SCT035 BKN090 18/10 Q1017 NOSIG=
202412230730 METAR VIDP 230730Z 04005KT 0800 R28/1100 R27/1700 R29R/1400 R29L/1000 FU SCT035 BKN090 18/11 Q1017 NOSIG=
202412230800 METAR COR VIDP 230800Z 04005KT 0800 R28/1100 R27/1600 R29R/1400 R29L/0900 FU SCT035 BKN090 18/11 Q1016 NOSIG=
202412230830 METAR VIDP 230830Z 04005KT 0700 R28/1200 R27/1700 R29R/1500 R29L/1000 FU SCT035 BKN090 18/10 Q1016 NOSIG=
202412230900 METAR VIDP 230900Z 05005KT 0700 R28/1500 R27/2000 R29R/1100 R29L/1800 FU SCT035 BKN090 18/10 Q1016 TEMPO 0800 FU=
202412230930 METAR VIDP 230930Z 06005KT 0800 R28/1900 R27/2000 R29R/2000 R29L/1400 FU SCT035 BKN090 18/10 Q1016 NOSIG=
202412231000 METAR VIDP 231000Z 05005KT 0900 R28/2000 R27/2000 R29R/2000 R29L/1300 FU SCT035 BKN090 18/09 Q1015 NOSIG=
202412231030 METAR VIDP 231030Z 06005KT 1000 R28/2000 R27/2000 R29R/2000 R29L/1400 FU SCT035 BKN090 18/09 Q1015 NOSIG=
202412231100 METAR VIDP 231100Z 05005KT 1200 R28/2000 R27/2000 R29R/2000 R29L/1400 FU SCT035 BKN090 17/09 Q1015 NOSIG=
202412231130 METAR VIDP 231130Z 05005KT 1200 R28/2000 R27/2000 R29R/2000 R29L/1600 FU SCT035 BKN090 17/09 Q1015 NOSIG=
202412231200 METAR VIDP 231200Z 06005KT 1200 R28/2000 R27/2000 R29R/2000 R29L/2000 FU SCT035 BKN090 17/09 Q1015 NOSIG=
202412231230 METAR VIDP 231230Z 04005KT 1200 R28/2000 R27/2000 R29R/2000 R29L/2000 FU SCT035 BKN090 16/10 Q1015 NOSIG=
202412231300 METAR VIDP 231300Z 03005KT 1200 R28/2000 R27/2000 R29R/2000 R29L/2000 FU SCT035 BKN090 16/10 Q1015 NOSIG=
202412231330 METAR VIDP 231330Z VRB02KT 1200 R28/2000 R27/2000 R29R/2000 R29L/2000 DZ SCT030 BKN090 16/11 Q1016 NOSIG=
202412231400 METAR VIDP 231400Z 11004KT 1200 R28/2000 R27/2000 R29R/2000 R29L/2000 DZ SCT030 BKN090 15/11 Q1016 NOSIG=
202412231430 METAR VIDP 231430Z 08004KT 1400 R28/2000 R27/2000 R29R/P2000 R29L/2000 BR SCT030 BKN090 15/11 Q1016 NOSIG=
202412231500 METAR VIDP 231500Z VRB02KT 1400 R28/2000 R27/2000 R29R/P2000 R29L/2000 BR SCT030 SCT090 15/12 Q1016 NOSIG=
202412231530 METAR VIDP 231530Z VRB02KT 1400 R28/2000 R27/2000 R29R/P2000 R29L/2000 BR SCT030 SCT090 15/12 Q1016 NOSIG=
202412231600 METAR VIDP 231600Z 36003KT 1400 R28/2000 R27/2000 R29R/P2000 R29L/2000 BR SCT030 SCT090 14/12 Q1016 NOSIG=
202412231630 METAR VIDP 231630Z 07003KT 1400 R28/2000 R27/2000 R29R/P2000 R29L/2000 BR FEW035 SCT100 14/12 Q1016 NOSIG=
202412231700 METAR VIDP 231700Z 03005KT 1400 R28/2000 R27/2000 R29R/P2000 R29L/2000 BR FEW100 14/12 Q1016 NOSIG=
202412231730 METAR VIDP 231730Z 10004KT 1400 R28/2000 R27/2000 R29R/P2000 R29L/2000 BR FEW100 13/12 Q1016 NOSIG=
202412231800 METAR VIDP 231800Z VRB02KT 1400 R28/2000 R27/2000 R29R/P2000 R29L/2000 BR NSC 13/12 Q1016 NOSIG=
202412231830 METAR VIDP 231830Z VRB02KT 1200 R28/2000 R27/2000 R29R/P2000 R29L/1800 BR NSC 12/11 Q1016 NOSIG=
202412231900 METAR VIDP 231900Z VRB02KT 1000 R28/2000 R27/2000 R29R/P2000 R29L/2000 MIFG NSC 11/10 Q1015 BECMG 0800 MIFG=
202412231930 METAR VIDP 231930Z 29003KT 1000 R28/2000 R27/2000 R29R/P2000 R29L/1700 MIFG NSC 12/11 Q1016 NOSIG=
202412232000 METAR VIDP 232000Z VRB02KT 1000 R28/2000 R27/2000 R29R/P2000 R29L/1900 BR NSC 12/11 Q1016 NOSIG=
202412232030 METAR VIDP 232030Z 00000KT 1000 R28/2000 R27/2000 R29R/P2000 R29L/2000 BR NSC 12/11 Q1016 NOSIG=
202412232100 METAR VIDP 232100Z 34003KT 1000 R28/2000 R27/2000 R29R/P2000 R29L/2000 BR NSC 12/11 Q1016 NOSIG=
202412232130 METAR VIDP 232130Z 36004KT 1000 R28/2000 R27/2000 R29R/P2000 R29L/2000 BR NSC 12/11 Q1016 NOSIG=
202412232200 METAR VIDP 232200Z VRB02KT 1000 R28/2000 R27/2000 R29R/P2000 R29L/2000 BR NSC 12/11 Q1016 NOSIG=
202412232230 METAR VIDP 232230Z 02003KT 0900 R28/2000 R27/2000 R29R/P2000 R29L/1900 MIFG FEW100 12/11 Q1016 BECMG 0800 MIFG=
202412232300 METAR VIDP 232300Z 01003KT 0800 R28/2000 R27/2000 R29R/P2000 R29L/1900 MIFG SCT100 12/11 Q1016 NOSIG=
202412232330 METAR VIDP 232330Z 03003KT 0800 R28/2000 R27/2000 R29R/P2000 R29L/2000 MIFG SCT100 12/11 Q1016 NOSIG=
202412240000 METAR VIDP 240000Z 02003KT 0800 R28/2000 R27/2000 R29R/P2000 R29L/2000 MIFG SCT100 12/11 Q1016 NOSIG=
202412240030 METAR VIDP 240030Z VRB02KT 0800 R28/2000 R27/2000 R29R/P2000 R29L/2000 MIFG FEW100 12/11 Q1016 NOSIG=
202412240100 METAR VIDP 240100Z 05003KT 0800 R28/2000 R27/2000 R29R/P2000 R29L/2000 MIFG FEW100 12/11 Q1016 NOSIG=
202412240130 METAR VIDP 240130Z 07003KT 1100 R28/2000 R27/2000 R29R/P2000 R29L/2000 BR FEW035 SCT100 13/11 Q1017 NOSIG=
202412240200 METAR VIDP 240200Z 05003KT 1100 R28/2000 R27/2000 R29R/P2000 R29L/2000 BR FEW100 13/12 Q1017 NOSIG=
202412240230 METAR VIDP 240230Z 06003KT 1100 R28/1200 R27/2000 R29R/P2000 R29L/1400 BR FEW035 BKN100 13/12 Q1017 NOSIG=
202412240300 METAR VIDP 240300Z 05004KT 1100 R28/1500 R27/2000 R29R/P2000 R29L/1300 BR FEW035 SCT100 14/12 Q1018 NOSIG=
202412240330 METAR VIDP 240330Z 06003KT 1100 R28/1600 R27/2000 R29R/P2000 R29L/1300 BR FEW035 SCT100 14/12 Q1018 NOSIG=
202412240400 METAR VIDP 240400Z 06004KT 1100 R28/2000 R27/2000 R29R/P2000 R29L/1300 BR FEW035 SCT100 15/12 Q1018 NOSIG=
202412240430 METAR VIDP 240430Z 04004KT 1100 R28/2000 R27/2000 R29R/P2000 R29L/1300 BR FEW035 BKN100 15/12 Q1019 NOSIG=
202412240500 METAR VIDP 240500Z 05005KT 1300 R28/2000 R27/2000 R29R/P2000 R29L/1300 BR FEW035 BKN100 16/12 Q1019 NOSIG=
202412240530 METAR VIDP 240530Z 05005KT 1300 R28/2000 R27/2000 R29R/P2000 R29L/1300 BR FEW035 BKN100 16/12 Q1019 NOSIG=
202412240600 METAR VIDP 240600Z 07005KT 1300 R28/2000 R27/P000 R29R/P2000 R29L/1300 BR FEW035 BKN100 17/10 Q1018 NOSIG=
202412240630 METAR VIDP 240630Z 07005KT 1300 R28/2000 R27/2000 R29R/P2000 R29L/1300 HZ FEW035 BKN100 17/09 Q1018 NOSIG=
202412240700 METAR VIDP 240700Z 08005KT 1300 R28/2000 R27/2000 R29R/2000 R29L/1300 HZ FEW035 BKN100 18/09 Q1018 NOSIG=
202412240730 METAR VIDP 240730Z 07005KT 1300 R28/2000 R27/2000 R29R/2000 R29L/1400 HZ FEW035 BKN100 19/08 Q1017 NOSIG=
202412240800 METAR VIDP 240800Z 07006KT 1300 R28/2000 R27/2000 R29R/2000 R29L/1400 HZ FEW035 BKN100 19/07 Q1016 NOSIG=
202412240830 METAR VIDP 240830Z 06005KT 1300 R28/2000 R27/2000 R29R/2000 R29L/1300 HZ FEW035 BKN100 20/07 Q1016 NOSIG=
202412240900 METAR VIDP 240900Z 07005KT 1300 R28/2000 R27/2000 R29R/2000 R29L/1400 HZ FEW035 BKN100 20/07 Q1016 NOSIG=
202412240930 METAR VIDP 240930Z 07005KT 1300 R28/2000 R27/2000 R29R/2000 R29L/1400 HZ FEW035 BKN100 20/07 Q1016 NOSIG=
202412241000 METAR VIDP 241000Z 06004KT 1300 R28/2000 R27/2000 R29R/2000 R29L/1500 HZ FEW035 BKN100 20/07 Q1016 NOSIG=
202412241030 METAR VIDP 241030Z 06004KT 1400 R28/2000 R27/2000 R29R/2000 R29L/1600 HZ FEW035 BKN100 20/07 Q1016 NOSIG=
202412241100 METAR VIDP 241100Z 06002KT 1400 R28/2000 R27/2000 R29R/2000 R29L/1800 HZ FEW035 BKN100 19/07 Q1016 NOSIG=
202412241130 METAR VIDP 241130Z 00000KT 1400 R28/2000 R27/2000 R29R/2000 R29L/2000 HZ FEW035 BKN100 19/08 Q1016 BECMG 1500 HZ=
202412241200 METAR VIDP 241200Z 00000KT 1600 R28/2000 R27/2000 R29R/2000 R29L/2000 HZ FEW035 FEW040CB BKN100 18/09 Q1016 NOSIG=
202412241230 METAR VIDP 241230Z 24002KT 1800 R28/2000 R27/2000 R29R/2000 R29L/2000 -RA FEW035 FEW040CB BKN090 16/10 Q1016 NOSIG=
202412241300 METAR VIDP 241300Z 00000KT 1800 R28/2000 R27/2000 R29R/2000 R29L/2000 -TSRA SCT035 FEW040CB BKN090 16/13 Q1017 TEMPO 25010G20KT 1000 TSRA=
202412241330 METAR VIDP 241330Z 18006KT 1800 R28/2000 R27/2000 R29R/2000 R29L/2000 -TSRA SCT035 FEW040CB BKN090 15/13 Q1018 TEMPO 25010G20KT 1000 TSRA=
202412241400 METAR VIDP 241400Z 07006KT 1800 R28/2000 R27/2000 R29R/2000 R29L/2000 -TSRA SCT035 FEW040CB BKN090 15/13 Q1017 TEMPO 25010G20KT 1000 TSRA=
202412241430 METAR VIDP 241430Z 09004KT 1800 R28/2000 R27/2000 R29R/2000 R29L/2000 DZ SCT035 FEW040CB BKN090 15/14 Q1018 TEMPO 25010G20KT 1000 TSRA=
202412241500 METAR VIDP 241500Z 03005KT 1800 R28/2000 R27/2000 R29R/2000 R29L/2000 DZ SCT035 FEW040CB BKN090 15/14 Q1018 TEMPO 23010G20KT 1500 TSRA=
202412241530 METAR VIDP 241530Z 01002KT 1800 R28/2000 R27/2000 R29R/2000 R29L/2000 BR SCT035 FEW040CB BKN090 15/14 Q1018 TEMPO 23010G20KT 1500 TSRA=
202412241600 METAR VIDP 241600Z 31003KT 2100 BR SCT035 FEW040CB BKN090 14/13 Q1018 NOSIG=
202412241630 METAR VIDP 241630Z 00000KT 1800 R28/2000 R27/1900 R29R/2000 R29L/2000 BR SCT035 FEW040CB BKN090 14/13 Q1018 NOSIG=
202412241700 METAR VIDP 241700Z 27002KT 1600 R28/2000 R27/1900 R29R/2000 R29L/1700 BR SCT035 BKN090 14/13 Q1018 BECMG 1500 BR=
202412241730 METAR VIDP 241730Z 26002KT 1500 R28/2000 R27/1600 R29R/2000 R29L/2000 BR SCT035 BKN090 13/12 Q1018 NOSIG=
202412241800 METAR VIDP 241800Z 23002KT 1300 R28/2000 R27/1500 R29R/2000 R29L/1900 BR FEW035 SCT090 13/12 Q1018 NOSIG=
202412241830 METAR VIDP 241830Z 00000KT 1200 R28/2000 R27/1300 R29R/2000 R29L/1800 BR FEW035 SCT090 13/12 Q1018 NOSIG=
202412241900 METAR VIDP 241900Z 00000KT 1000 R28/2000 R27/1100 R29R/2000 R29L/1300 BR FEW035 SCT100 13/12 Q1018 NOSIG=
202412241930 METAR VIDP 241930Z 00000KT 0900 R28/1600 R27/1200 R29R/2000 R29L/1400 MIFG FEW035 SCT100 12/12 Q1018 BECMG 0800 MIFG=
202412242000 METAR VIDP 242000Z 00000KT 0600 R28/0900 R27/0700 R29R/1900 R29L/0700 MIFG FEW035 SCT100 12/12 Q1018 NOSIG=
202412242030 METAR VIDP 242030Z 00000KT 0500 R28/1800 R27/0500 R29R/2000 R29L/0700 MIFG FEW035 SCT100 12/12 Q1018 TEMPO 0350 FG=
202412242100 METAR VIDP 242100Z 00000KT 0500 R28/1800 R27/0500 R29R/2000 R29L/1600 MIFG FEW035 SCT100 12/12 Q1018 TEMPO 0350 FG=
202412242130 METAR VIDP 242130Z 28002KT 0500 R28/1300 R27/0900 R29R/2000 R29L/1300 MIFG FEW035 SCT100 12/11 Q1018 TEMPO 0350 FG=
202412242200 METAR VIDP 242200Z 18003KT 0350 R28/2000 R27/0400 R29R/1700 R29L/1300 FG SCT100 11/10 Q1018 TEMPO 0150 FG=
202412242205 METAR VIDP NIL=
202412242230 METAR VIDP 242230Z 00000KT 0350 R28/1900 R27/0800 R29R/1600 R29L/0800 FG SCT100 11/10 Q1018 TEMPO 0150 FG=
202412242300 METAR VIDP 242300Z 00000KT 0350 R28/2000 R27/0500 R29R/1500 R29L/1100 FG SCT100 10/09 Q1018 TEMPO 0150 FG=
202412242330 METAR VIDP 242330Z 00000KT 0150 R28/2000 R27/0275 R29R/1200 R29L/0150 FG SCT100 10/09 Q1018 NOSIG=
202412250000 METAR VIDP 250000Z 00000KT 0100 R28/1600 R27/0750 R29R/0800 R29L/0750 FG SCT100 10/09 Q1018 NOSIG=
202412250030 METAR VIDP 250030Z 00000KT 0100 R28/1800 R27/0650 R29R/1400 R29L/0300 FG SCT100 10/09 Q1018 NOSIG=
202412250100 METAR VIDP 250100Z 00000KT 0100 R28/2000 R27/0550 R29R/0200 R29L/0400 FG VV/// 10/09 Q1018 NOSIG=
202412250130 METAR VIDP 250130Z 00000KT 0100 R28/2000 R27/0800 R29R/1600 R29L/0225 FG VV/// 10/09 Q1019 NOSIG=
202412250200 METAR VIDP 250200Z 26002KT 0100 R28/0800 R27/0700 R29R/0750 R29L/0450 FG VV/// 10/09 Q1019 NOSIG=
202412250230 METAR VIDP 250230Z 24002KT 0100 R28/0750 R27/0350 R29R/0700 R29L/0450 FG VV/// 10/09 Q1019 BECMG 0150 FG=
202412250300 METAR VIDP 250300Z 00000KT 0100 R28/0750 R27/0450 R29R/1000 R29L/0500 FG VV/// 11/10 Q1019 BECMG 0150 FG=
202412250330 METAR VIDP 250330Z 25002KT 0200 R28/0700 R27/0500 R29R/0900 R29L/0500 FG NSC 12/11 Q1020 BECMG 0350 FG=
202412250400 METAR VIDP 250400Z 27003KT 0300 R28/0800 R27/0600 R29R/0800 R29L/0500 FG NSC 13/12 Q1020 BECMG 0350 FG=
202412250430 METAR VIDP 250430Z 28005KT 0350 R28/0800 R27/0650 R29R/0800 R29L/0600 FG NSC 14/12 Q1020 NOSIG=
202412250500 METAR VIDP 250500Z 23003KT 0500 R28/0800 R27/0750 R29R/1100 R29L/0800 MIFG NSC 15/12 Q1020 BECMG 0600 MIFG=
202412250530 METAR VIDP 250530Z 24004KT 0600 R28/0900 R27/1300 R29R/1300 R29L/1000 MIFG NSC 15/12 Q1020 BECMG 0800 MIFG=
202412250600 METAR VIDP 250600Z 27004KT 0800 R28/1100 R27/2000 R29R/1500 R29L/1000 MIFG NSC 16/12 Q1020 NOSIG=
202412250630 METAR VIDP 250630Z 27004KT 0900 R28/1700 R27/1400 R29R/1800 R29L/1100 FU NSC 17/12 Q1020 NOSIG=
202412250700 METAR VIDP 250700Z 29005KT 1000 R28/1800 R27/2000 R29R/1900 R29L/1100 HZ NSC 18/12 Q1019 NOSIG=
202412250730 METAR VIDP 250730Z 29006KT 1100 R28/2000 R27/1600 R29R/2000 R29L/1100 HZ NSC 19/11 Q1019 NOSIG=
202412250800 METAR VIDP 250800Z 30005KT 1200 R28/2000 R27/2000 R29R/2000 R29L/1200 HZ NSC 20/11 Q1019 NOSIG=
202412250830 METAR VIDP 250830Z 29006KT 1200 R28/2000 R27/1300 R29R/P2000 R29L/1200 HZ NSC 21/11 Q1018 NOSIG=
202412250900 METAR VIDP 250900Z 31005KT 1200 R28/2000 R27/1200 R29R/P2000 R29L/1200 HZ NSC 21/09 Q1018 NOSIG=
202412250930 METAR VIDP 250930Z 29005KT 1300 R28/2000 R27/2000 R29R/P2000 R29L/1300 HZ NSC 21/09 Q1018 NOSIG=
202412251000 METAR VIDP 251000Z 29005KT 1300 R28/2000 R27/2000 R29R/P2000 R29L/1300 HZ NSC 21/09 Q1018 NOSIG=
202412251030 METAR VIDP 251030Z 29006KT 1400 R28/2000 R27/2000 R29R/2000 R29L/1400 HZ NSC 20/10 Q1018 BECMG 1500 HZ=
202412251100 METAR VIDP 251100Z 29006KT 1500 R28/2000 R27/2000 R29R/P2000 R29L/1500 HZ NSC 20/10 Q1018 NOSIG=
202412251130 METAR VIDP 251130Z 28005KT 1700 R28/2000 R27/2000 R29R/P2000 R29L/1900 HZ NSC 19/10 Q1018 NOSIG=
202412251200 METAR VIDP 251200Z 29004KT 1900 R28/2000 R27/2000 R29R/P2000 R29L/2000 HZ NSC 18/11 Q1018 NOSIG=
202412251230 METAR VIDP 251230Z 29004KT 2100 HZ NSC 18/11 Q1018 NOSIG=
202412251300 METAR VIDP 251300Z 30004KT 2100 HZ NSC 17/11 Q1019 NOSIG=
202412251330 METAR VIDP 251330Z 26003KT 2100 HZ NSC 17/11 Q1019 NOSIG=
202412251400 METAR VIDP 251400Z 26003KT 2100 BR NSC 16/12 Q1019 NOSIG=
202412251430 METAR VIDP 251430Z 23002KT 2100 BR NSC 15/12 Q1019 NOSIG=
202412251500 METAR VIDP 251500Z 23002KT 2100 BR NSC 15/12 Q1020 NOSIG=
202412251530 METAR VIDP 251530Z 24002KT 2100 BR NSC 15/12 Q1020 NOSIG=
202412251600 METAR VIDP 251600Z 25002KT 2100 BR NSC 14/12 Q1020 NOSIG=
202412251630 METAR VIDP 251630Z 26003KT 2100 BR NSC 13/12 Q1021 NOSIG=
202412251700 METAR VIDP 251700Z VRB02KT 2100 BR NSC 13/12 Q1021 NOSIG=
202412251730 METAR VIDP 251730Z VRB02KT 2100 BR NSC 13/12 Q1021 NOSIG=
202412251800 METAR VIDP 251800Z 23003KT 1700 R28/2000 R27/2000 R29R/2000 R29L/1900 BR NSC 13/12 Q1021 BECMG 1500 BR=
202412251830 METAR VIDP 251830Z VRB02KT 1500 R28/2000 R27/2000 R29R/2000 R29L/1600 BR NSC 12/12 Q1021 NOSIG=
202412251900 METAR VIDP 251900Z VRB02KT 1300 R28/2000 R27/2000 R29R/2000 R29L/1700 BR NSC 12/12 Q1020 NOSIG=
202412251930 METAR VIDP 251930Z 00000KT 0900 R28/2000 R27/2000 R29R/2000 R29L/1600 MIFG NSC 12/12 Q1020 BECMG 0800 MIFG=
202412252000 METAR VIDP 252000Z 00000KT 0800 R28/2000 R27/1800 R29R/2000 R29L/1400 MIFG NSC 12/12 Q1020 NOSIG=
202412252030 METAR VIDP 252030Z 25002KT 0800 R28/2000 R27/1800 R29R/2000 R29L/1400 MIFG NSC 12/11 Q1020 NOSIG=
202412252100 METAR VIDP 252100Z 25002KT 0800 R28/2000 R27/1400 R29R/2000 R29L/1500 MIFG NSC 11/11 Q1020 NOSIG=
202412252130 METAR VIDP 252130Z 26003KT 0800 R28/2000 R27/1500 R29R/2000 R29L/1100 MIFG NSC 11/10 Q1020 NOSIG=
202412252200 METAR VIDP 252200Z 26003KT 0700 R28/2000 R27/1800 R29R/2000 R29L/0700 MIFG NSC 10/10 Q1020 BECMG 0600 MIFG=
202412252230 METAR VIDP 252230Z 00000KT 0600 R28/2000 R27/1400 R29R/1800 R29L/0600 MIFG NSC 10/10 Q1020 NOSIG=
202412252300 METAR VIDP 252300Z 00000KT 0600 R28/2000 R27/1000 R29R/1700 R29L/0700 MIFG NSC 10/10 Q1019 NOSIG=
202412252330 METAR VIDP 252330Z 22003KT 0600 R28/2000 R27/2000 R29R/2000 R29L/1200 MIFG NSC 10/10 Q1020 NOSIG=
202412260000 METAR VIDP 260000Z 00000KT 0600 R28/2000 R27/1500 R29R/2000 R29L/0600 MIFG NSC 10/10 Q1020 NOSIG=
202412260030 METAR VIDP 260030Z 00000KT 0500 R28/2000 R27/0600 R29R/1500 R29L/0500 MIFG NSC 10/10 Q1020 NOSIG=
202412260100 METAR VIDP 260100Z 00000KT 0500 R28/2000 R27/1200 R29R/1800 R29L/0900 MIFG NSC 09/09 Q1021 NOSIG=
202412260130 METAR VIDP 260130Z 00000KT 0500 R28/0500 R27/0500 R29R/1600 R29L/0500 MIFG NSC 09/09 Q1021 BECMG 350 FG=
202412260200 METAR VIDP 260200Z 00000KT 0300 R28/0900 R27/1000 R29R/1200 R29L/0500 FG NSC 09/09 Q1021 NOSIG=
202412260230 METAR VIDP 260230Z 00000KT 0300 R28/1000 R27/0800 R29R/1200 R29L/1100 FG NSC 09/09 Q1022 BECMG 0350 FG=
202412260300 METAR VIDP 260300Z 24003KT 0400 R28/1000 R27/1300 R29R/1300 R29L/0800 FG NSC 10/10 Q1022 BECMG 0600 MIFG=
202412260330 METAR VIDP 260330Z 00000KT 0400 R28/1200 R27/1600 R29R/1500 R29L/0900 FG NSC 12/11 Q1023 BECMG 0600 MIFG=
202412260400 METAR VIDP 260400Z 00000KT 0500 R28/1200 R27/1600 R29R/1500 R29L/1100 MIFG NSC 13/11 Q1023 BECMG 0600 MIFG=
202412260430 METAR VIDP 260430Z 34002KT 0600 R28/1100 R27/1600 R29R/1700 R29L/1100 MIFG NSC 15/11 Q1023 NOSIG=
202412260500 METAR VIDP 260500Z 00000KT 0700 R28/1300 R27/1600 R29R/1700 R29L/1200 FU NSC 17/12 Q1023 BECMG 0800 FU=
202412260530 METAR VIDP 260530Z VRB02KT 0800 R28/1400 R27/1600 R29R/2000 R29L/1300 FU NSC 19/12 Q1023 NOSIG=
202412260600 METAR VIDP 260600Z 00000KT 1000 R28/1500 R27/1600 R29R/2000 R29L/1300 FU NSC 20/11 Q1023 NOSIG=
202412260630 METAR VIDP 260630Z VRB02KT 1100 R28/1400 R27/1600 R29R/2000 R29L/1300 FU NSC 21/10 Q1023 NOSIG=
202412260700 METAR VIDP 260700Z VRB02KT 1200 R28/1500 R27/1600 R29R/2000 R29L/1300 FU NSC 21/10 Q1022 NOSIG=
202412260730 METAR VIDP 260730Z VRB02KT 1200 R28/1400 R27/1600 R29R/2000 R29L/1300 FU NSC 21/10 Q1022 NOSIG=
202412260800 METAR VIDP 260800Z VRB02KT 1200 R28/1500 R27/1600 R29R/2000 R29L/1300 FU NSC 22/09 Q1021 NOSIG=
202412260830 METAR VIDP 260830Z 05003KT 1200 R28/1700 R27/1600 R29R/2000 R29L/1300 FU NSC 22/09 Q1021 NOSIG=
202412260900 METAR COR VIDP 260900Z 08003KT 1200 R28/1900 R27/1600 R29R/2000 R29L/1300 FU NSC 22/08 Q1020 NOSIG=
202412260930 METAR VIDP 260930Z 05003KT 1400 R28/1600 R27/1600 R29R/2000 R29L/1400 FU NSC 23/07 Q1020 BECMG 1500 FU=
202412261000 METAR VIDP 261000Z 05003KT 1400 R28/1500 R27/2000 R29R/2000 R29L/1400 FU NSC 23/07 Q1020 BECMG 1500 FU=
202412261030 METAR VIDP 261030Z 04004KT 1400 R28/1600 R27/2000 R29R/2000 R29L/1400 FU NSC 22/07 Q1020 BECMG 1500 FU=
202412261100 METAR VIDP 261100Z 03003KT 1500 R28/1700 R27/2000 R29R/2000 R29L/1500 FU NSC 22/08 Q1020 NOSIG=
202412261130 METAR VIDP 261130Z 01003KT 1500 R28/1700 R27/2000 R29R/2000 R29L/1700 FU NSC 21/08 Q1020 NOSIG=
202412261200 METAR VIDP 261200Z 03003KT 1500 R28/1700 R27/2000 R29R/2000 R29L/2000 FU NSC 20/09 Q1020 NOSIG=
202412261230 METAR VIDP 261230Z 02002KT 1800 R28/2000 R27/2000 R29R/2000 R29L/2000 FU NSC 19/09 Q1020 NOSIG=
202412261300 METAR VIDP 261300Z 04002KT 1800 R28/2000 R27/2000 R29R/2000 R29L/2000 FU NSC 18/10 Q1020 NOSIG=
202412261330 METAR VIDP 261330Z 00000KT 2100 HZ NSC 17/10 Q1020 NOSIG=
202412261400 METAR VIDP 261400Z 00000KT 2100 HZ NSC 16/10 Q1020 NOSIG=
202412261430 METAR VIDP 261430Z 00000KT 2100 HZ FEW100 16/10 Q1020 NOSIG=
202412261500 METAR VIDP 261500Z 00000KT 2100 HZ FEW100 16/10 Q1020 NOSIG=
202412261530 METAR VIDP 261530Z 00000KT 2100 HZ FEW100 16/10 Q1021 NOSIG=
202412261600 METAR VIDP 261600Z 00000KT 2100 HZ FEW100 16/11 Q1021 NOSIG=
202412261630 METAR VIDP 261630Z 06004KT 2100 HZ FEW100 16/11 Q1020 NOSIG=
202412261700 METAR VIDP 261700Z 23004KT 2100 HZ FEW100 16/11 Q1021 NOSIG=
202412261730 METAR VIDP 261730Z 07003KT 1800 R28/2000 R27/2000 R29R/2000 R29L/2000 HZ FEW100 16/10 Q1020 NOSIG=
202412261800 METAR VIDP 261800Z 08003KT 1600 R28/2000 R27/2000 R29R/2000 R29L/2000 HZ SCT100 16/10 Q1020 TEMPO 1500 HZ=
202412261830 METAR VIDP 261830Z 00000KT 1300 R28/2000 R27/2000 R29R/2000 R29L/2000 HZ SCT100 16/10 Q1020 NOSIG=
202412261900 METAR VIDP 261900Z 00000KT 1300 R28/2000 R27/2000 R29R/2000 R29L/2000 BR SCT100 15/11 Q1020 NOSIG=
202412261930 METAR VIDP 261930Z 00000KT 1300 R28/2000 R27/2000 R29R/2000 R29L/2000 BR SCT100 15/11 Q1020 NOSIG=
202412262000 METAR VIDP 262000Z 00000KT 1300 R28/2000 R27/2000 R29R/2000 R29L/2000 BR SCT100 15/11 Q1020 NOSIG=
202412262030 METAR VIDP 262030Z 00000KT 1300 R28/2000 R27/2000 R29R/2000 R29L/2000 BR SCT100 15/11 Q1020 NOSIG=
202412262100 METAR VIDP 262100Z 00000KT 1300 R28/2000 R27/2000 R29R/2000 R29L/2000 BR FEW035 SCT100 15/11 Q1019 NOSIG=
202412262130 METAR VIDP 262130Z 06003KT 1200 R28/2000 R27/2000 R29R/2000 R29L/2000 BR FEW035 FEW040CB SCT100 16/12 Q1019 NOSIG=
202412262200 METAR VIDP 262200Z 10003KT 1100 R28/2000 R27/2000 R29R/2000 R29L/2000 BR FEW035 FEW040CB SCT100 16/12 Q1019 NOSIG=
202412262230 METAR VIDP 262230Z 00000KT 1100 R28/2000 R27/2000 R29R/2000 R29L/2000 BR FEW035 FEW040CB SCT100 16/12 Q1019 NOSIG=
202412262300 METAR VIDP 262300Z VRB02KT 1200 R28/2000 R27/1800 R29R/1900 R29L/1600 -RA FEW035 SCT100 15/11 Q1019 TEMPO 25010G20KT 0800 TSRA=
202412262330 METAR VIDP 262330Z 02004KT 1200 R28/2000 R27///// R29R/1900 R29L/2000 BR BKN035 FEW040CB SCT100 15/13 Q1018 NOSIG=
202412270000 METAR VIDP 270000Z 02003KT 1200 R28/2000 R27/2000 R29R/2000 R29L/2000 DZ BKN035 FEW040CB SCT100 14/12 Q1018=
202412270030 METAR VIDP 270030Z 02003KT 1200 R28/2000 R27/2000 R29R/2000 R29L/2000 DZ BKN035 FEW040CB SCT100 14/13 Q1018=
202412270100 METAR COR VIDP 270100Z 06005KT 1200 R28/2000 R27/2000 R29R/2000 R29L/2000 -TSRA BKN035 FEW040CB SCT100 14/13 Q1018 TEMPO 27010G20KT 0800 TSRA=
202412270130 METAR VIDP 270130Z 30003KT 1000 R28/2000 R27/2000 R29R/2000 R29L/2000 -TSRA BKN035 FEW040CB SCT100 14/12 Q1018 TEMPO 27010G20KT 0800 TSRA=
202412270200 METAR VIDP 270200Z VRB02KT 0800 R28/2000 R27/2000 R29R/2000 R29L/2000 DZ BKN035 FEW040CB SCT100 14/13 Q1019 TEMPO 27010G20KT 0600 TSRA=
202412270230 METAR VIDP 270230Z 29005KT 0800 R28/2000 R27/2000 R29R/2000 R29L/2000 -TSRA BKN030 FEW035CB OVC080 15/14 Q1020 TEMPO 27010G20KT 0600 TSRA=
202412270300 METAR VIDP 270300Z 30004KT 0700 R28/2000 R27/2000 R29R/1500 R29L/2000 -TSRA BKN030 FEW035CB OVC080 14/14 Q1021 TEMPO 23010G20KT 0600 TSRA=
202412270330 METAR VIDP 270330Z 01006KT 0500 R28/0900 R27/2000 R29R/1300 R29L/1400 -TSRA BKN030 FEW035CB OVC080 14/14 Q1021 TEMPO 23010G20KT 0600 TSRA=
202412270400 METAR VIDP 270400Z 02006KT 0500 R28/1300 R27/2000 R29R/1900 R29L/1700 -TSRA BKN030 FEW035CB OVC080 14/14 Q1021 TEMPO 23010G20KT 0350 TSRA=
202412270430 METAR VIDP 270430Z 02005KT 0450 R28/1100 R27/2000 R29R/1400 R29L/1300 -TSRA BKN030 FEW035CB OVC080 14/14 Q1021 TEMPO 23010G20KT 0350 TSRA=
202412270500 METAR VIDP 270500Z 34005KT 0600 R28/1100 R27/2000 R29R/1700 R29L/1200 -RA BKN030 FEW035CB OVC080 15/14 Q1021 TEMPO 23010G20KT 0350 TSRA=
202412270530 METAR VIDP 270530Z 35004KT 0700 R28/1400 R27/2000 R29R/1800 R29L/1200 -RA BKN030 FEW035CB OVC080 15/14 Q1022 TEMPO 23010G20KT 0600 TSRA=
202412270600 METAR VIDP 270600Z 35005KT 0800 R28/1800 R27/2000 R29R/2000 R29L/2000 -RA BKN030 FEW035CB OVC080 15/14 Q1022 TEMPO 23010G20KT 0600 TSRA=
202412270630 METAR VIDP 270630Z 34007KT 0600 R28/2000 R27/2000 R29R/1700 R29L/1400 -TSRA BKN030 FEW035CB OVC080 14/14 Q1022 TEMPO 23010G20KT 0350 TSRA=
202412270700 METAR VIDP 270700Z 35005KT 0500 R28/1900 R27/2000 R29R/1900 R29L/1200 -TSRA BKN030 FEW035CB OVC080 14/14 Q1021 TEMPO 23010G20KT 0350 TSRA=
202412270730 METAR VIDP 270730Z 04010KT 0400 R28/1500 R27/2000 R29R/0800 R29L/0800 TSRA BKN030 FEW035CB OVC080 14/14 Q1020 TEMPO 21010G20KT 0350 TSRA=
202412270800 METAR VIDP 270800Z 04008KT 0500 R28/2000 R27/2000 R29R/1600 R29L/1000 -TSRA BKN030 FEW035CB OVC080 14/14 Q1020 TEMPO 21010G20KT 0350 TSRA=
202412270830 METAR VIDP 270830Z 04007KT 0500 R28/2000 R27/2000 R29R/1700 R29L/1200 -TSRA BKN030 FEW035CB OVC080 14/14 Q1019 TEMPO 21010G20KT 0350 TSRA=
202412270900 METAR VIDP 270900Z 06010KT 0500 R28/2000 R27/2000 R29R/1900 R29L/1200 -TSRA BKN030 FEW035CB OVC080 14/14 Q1019 TEMPO 21010G20KT 0350 TSRA=
202412270930 METAR VIDP 270930Z 07007KT 0500 R28/2000 R27/2000 R29R/1600 R29L/2000 TSRA BKN030 FEW035CB OVC080 14/14 Q1019 TEMPO 24010G20KT 0350 TSRA=
202412271000 METAR VIDP 271000Z 09009KT 0500 R28/2000 R27/2000 R29R/1800 R29L/1500 TSRA BKN030 FEW035CB OVC080 14/14 Q1019 TEMPO 24010G20KT 0350 TSRA=
202412271030 METAR VIDP 271030Z 07007KT 0900 R28/2000 R27/2000 R29R/2000 R29L/2000 -TSRA BKN030 FEW035CB OVC080 14/14 Q1018 TEMPO 24010G20KT 0350 TSRA=
202412271100 METAR VIDP 271100Z 06010KT 0900 R28/2000 R27/2000 R29R/2000 R29L/2000 TSRA BKN030 FEW035CB OVC080 14/14 Q1018 TEMPO 24010G20KT 0600 TSRA=
202412271130 METAR VIDP 271130Z 06008KT 0900 R28/2000 R27/2000 R29R/2000 R29L/1900 TSRA BKN030 FEW035CB OVC080 15/15 Q1018 TEMPO 24010G20KT 0600 TSRA=
202412271200 METAR VIDP 271200Z 05007KT 0900 R28/2000 R27/2000 R29R/2000 R29L/2000 TSRA BKN030 FEW035CB OVC080 15/15 Q1018 TEMPO 24010G20KT 0600 TSRA=
202412271230 METAR VIDP 271230Z 08008KT 0900 R28/2000 R27/2000 R29R/2000 R29L/2000 TSRA BKN030 FEW035CB OVC080 15/15 Q1018 TEMPO 21010G20KT 0600 TSRA=
202412271300 METAR VIDP 271300Z 05008KT 1500 R28/2000 R27/2000 R29R/2000 R29L/2000 -TSRA BKN030 FEW035CB OVC080 15/15 Q1018 TEMPO 21010G20KT 0800 TSRA=
202412271330 METAR VIDP 271330Z 06008KT 2100 BR BKN030 FEW035CB OVC080 15/15 Q1018 TEMPO 21010G20KT 1500 TSRA=
202412271400 METAR VIDP 271400Z 06009KT 2100 BR BKN030 FEW035CB OVC080 15/15 Q1018 TEMPO 21010G20KT 1500 TSRA=
202412271430 METAR VIDP 271430Z 07010KT 1300 R28/2000 R27/2000 R29R/P2000 R29L/2000 -TSRA BKN030 FEW035CB OVC080 15/15 Q1018 TEMPO 23010G20KT 0800 TSRA=
202412271500 METAR VIDP 271500Z 08010KT 1300 R28/2000 R27/2000 R29R/P2000 R29L/2000 -TSRA BKN030 FEW035CB OVC080 15/15 Q1018 TEMPO 23010G20KT 0800 TSRA=
202412271530 METAR VIDP 271530Z 07006G16KT 1600 R28/2000 R27/2000 R29R/P2000 R29L/2000 TS BKN030 FEW035CB OVC080 15/14 Q1018 TEMPO 23010G20KT 0800 TSRA=
202412271600 METAR VIDP 271600Z 08009KT 1800 R28/2000 R27/2000 R29R/P2000 R29L/2000 BR SCT030 FEW035CB BKN080 15/14 Q1018 NOSIG=
202412271630 METAR VIDP 271630Z 08006KT 1800 R28/2000 R27/2000 R29R/P2000 R29L/2000 BR SCT030 BKN080 15/14 Q1018 NOSIG=
202412271700 METAR VIDP 271700Z 11007KT 1800 R28/2000 R27/2000 R29R/P2000 R29L/2000 BR SCT030 BKN080 15/14 Q1018 NOSIG=
202412271730 METAR VIDP 271730Z 13005KT 1800 R28/2000 R27/2000 R29R/P2000 R29L/2000 BR SCT035 BKN090 15/14 Q1019 NOSIG=
202412271800 METAR VIDP 271800Z 22003KT 1800 R28/2000 R27/2000 R29R/P2000 R29L/2000 BR BKN030 FEW035CB OVC080 15/14 Q1019 TEMPO 23010G20KT 1500 TSRA=
202412271830 METAR VIDP 271830Z 22006G16KT 1800 R28/2000 R27/2000 R29R/P2000 R29L/2000 -TSRA BKN030 FEW035CB OVC080 15/14 Q1019 TEMPO 23010G20KT 1500 TSRA=
202412271900 METAR VIDP 271900Z 05004KT 1800 R28/2000 R27/2000 R29R/P2000 R29L/2000 -TSRA BKN030 FEW035CB OVC080 15/14 Q1018 TEMPO 23010G20KT 1500 TSRA=
202412271930 METAR VIDP 271930Z VRB02KT 1800 R28/2000 R27/2000 R29R/P2000 R29L/2000 BR BKN030 FEW035CB OVC080 15/14 Q1019 TEMPO 23010G20KT 1500 TSRA=
202412272000 METAR VIDP 272000Z VRB02KT 1800 R28/2000 R27/2000 R29R/P2000 R29L/2000 BR SCT030 FEW035CB BKN080 15/14 Q1019 TEMPO 23010G20KT 1500 TSRA=
202412272030 METAR VIDP 272030Z VRB02KT 1800 R28/2000 R27/2000 R29R/P2000 R29L/2000 -TSRA BKN030 FEW035CB OVC080 15/14 Q1018 TEMPO 23010G20KT 1500 TSRA=
202412272100 METAR VIDP 272100Z 11006KT 1800 R28/2000 R27/2000 R29R/P2000 R29L/2000 -TSRA BKN030 FEW035CB OVC080 15/14 Q1018 TEMPO 23010G20KT 1500 TSRA=
202412272130 METAR VIDP 272130Z 08003KT 1800 R28/2000 R27/2000 R29R/P2000 R29L/2000 BR SCT030 FEW035CB BKN080 14/13 Q1017 TEMPO 23010G20KT 1500 TSRA=
202412272200 METAR VIDP 272200Z 16003KT 1800 R28/2000 R27/2000 R29R/P2000 R29L/2000 BR SCT030 FEW035CB BKN080 14/13 Q1017 TEMPO 23010G20KT 1500 TSRA=
202412272230 METAR VIDP 272230Z VRB02KT 1800 R28/2000 R27/2000 R29R/P2000 R29L/2000 BR SCT030 FEW035CB BKN080 14/13 Q1017 NOSIG=
202412272300 METAR VIDP 272300Z VRB02KT 1800 R28/2000 R27/2000 R29R/P2000 R29L/2000 BR SCT030 FEW035CB BKN080 14/13 Q1017 NOSIG=
202412272330 METAR VIDP 272330Z VRB02KT 1800 R28/2000 R27/2000 R29R/P2000 R29L/2000 BR SCT030 BKN080 14/13 Q1017 NOSIG=
202412280000 METAR VIDP 280000Z 00000KT 1600 R28/2000 R27/2000 R29R/P2000 R29L/2000 BR SCT030 BKN090 14/13 Q1017 BECMG 1500 BR=
202412280030 METAR VIDP 280030Z 11003KT 1100 R28/2000 R27/2000 R29R/P2000 R29L/2000 BR SCT030 BKN090 13/13 Q1017 NOSIG=
202412280100 METAR VIDP 280100Z 00000KT 1100 R28/1800 R27/2000 R29R/P2000 R29L/2000 BR SCT030 BKN090 13/13 Q1017 NOSIG=
202412280130 METAR VIDP 280130Z VRB02KT 1100 R28/1700 R27/2000 R29R/P2000 R29L/2000 BR SCT030 BKN090 14/13 Q1018 NOSIG=
202412280200 METAR VIDP 280200Z 27003KT 1100 R28/1900 R27/2000 R29R/P2000 R29L/2000 BR SCT030 FEW035CB BKN080 14/13 Q1018 NOSIG=
202412280230 METAR VIDP 280230Z 28002KT 1100 R28/1200 R27/2000 R29R/P2000 R29L/2000 BR SCT030 FEW035CB BKN080 14/13 Q1018 NOSIG=
202412280300 METAR VIDP 280300Z 26003KT 1100 R28/1100 R27/2000 R29R/2000 R29L/1700 BR SCT030 FEW035CB BKN080 14/13 Q1019 NOSIG=
202412280330 METAR VIDP 280330Z VRB02KT 1100 R28/1100 R27/2000 R29R/2000 R29L/1700 BR SCT030 FEW035CB BKN080 15/14 Q1020 TEMPO 21010G25KT TS=
202412280400 METAR VIDP 280400Z VRB02KT 1100 R28/1200 R27/2000 R29R/2000 R29L/2000 BR SCT030 FEW035CB BKN080 15/14 Q1020 TEMPO 21010G25KT TS=
202412280430 METAR VIDP 280430Z 07003KT 1100 R28/1100 R27/2000 R29R/2000 R29L/2000 BR SCT030 FEW035CB BKN080 15/14 Q1020 TEMPO 21010G25KT TS=
202412280500 METAR VIDP 280500Z VRB02KT 1100 R28/1100 R27/2000 R29R/2000 R29L/2000 BR SCT030 FEW035CB BKN080 15/14 Q1020 TEMPO 21010G25KT TS=
202412280530 METAR VIDP 280530Z 00000KT 1100 R28/1100 R27/2000 R29R/2000 R29L/2000 BR SCT030 FEW035CB BKN080 15/14 Q1020 TEMPO 21010G25KT TS=
202412280600 METAR VIDP 280600Z 00000KT 1300 R28/1300 R27/2000 R29R/2000 R29L/2000 BR SCT030 FEW035CB BKN080 15/15 Q1020 NOSIG=
202412280630 METAR VIDP 280630Z 00000KT 1300 R28/1300 R27/2000 R29R/2000 R29L/1900 BR SCT030 FEW035CB BKN080 16/15 Q1020 NOSIG=
202412280700 METAR VIDP 280700Z 00000KT 1300 R28/1300 R27/2000 R29R/2000 R29L/2000 BR SCT030 FEW035CB OVC080 16/15 Q1020 NOSIG=
202412280730 METAR VIDP 280730Z 30005KT 1100 R28/1100 R27/2000 R29R/2000 R29L/1500 -DZ SCT030 OVC080 16/15 Q1019 NOSIG=
202412280800 METAR VIDP 280800Z 31004KT 1100 R28/1100 R27/2000 R29R/1800 R29L/1500 BR SCT030 OVC080 16/15 Q1019 NOSIG=
202412280830 METAR VIDP 280830Z 31004KT 1100 R28/1100 R27/1600 R29R/1700 R29L/1300 BR SCT030 OVC080 16/15 Q1018 NOSIG=
202412280900 METAR VIDP 280900Z 31005KT 0900 R28/0900 R27/2000 R29R/2000 R29L/1500 MIFG SCT030 OVC080 16/14 Q1018 BECMG 0800 MIFG=
202412280930 METAR VIDP 280930Z 31005KT 0800 R28/0800 R27/2000 R29R/2000 R29L/1600 MIFG SCT030 OVC080 16/14 Q1018=
202412281000 METAR VIDP 281000Z 31004KT 0800 R28/1100 R27/2000 R29R/2000 R29L/2000 MIFG SCT030 OVC080 16/14 Q1018=
202412281030 METAR VIDP 281030Z 31005KT 0800 R28/1000 R27/2000 R29R/2000 R29L/1900 MIFG SCT030 OVC080 16/14 Q1018=
202412281100 METAR VIDP 281100Z 33004KT 0900 R28/1000 R27/2000 R29R/2000 R29L/1800 MIFG SCT030 OVC080 16/14 Q1018=
202412281130 METAR VIDP 281130Z 31006KT 1100 R28/1100 R27/2000 R29R/2000 R29L/2000 BR SCT030 OVC080 16/14 Q1018=
202412281200 METAR VIDP 281200Z 31004KT 1100 R28/1500 R27/2000 R29R/2000 R29L/2000 BR SCT030 OVC080 16/15 Q1018=
202412281230 METAR VIDP 281230Z 33003KT 1400 R28/1600 R27/2000 R29R/2000 R29L/2000 BR SCT030 OVC080 16/15 Q1019=
202412281300 METAR VIDP 281300Z 32003KT 1400 R28/1600 R27/2000 R29R/2000 R29L/2000 BR SCT030 OVC080 16/15 Q1019 BECMG 1500 BR=
202412281330 METAR VIDP 281330Z 33002KT 1500 R28/1600 R27/2000 R29R/2000 R29L/2000 BR SCT030 OVC080 16/15 Q1019 NOSIG=
202412281400 METAR VIDP 281400Z 30003KT 1500 R28/1500 R27/2000 R29R/2000 R29L/2000 BR SCT030 OVC080 15/15 Q1020 NOSIG=
202412281430 METAR VIDP 281430Z 29003KT 1300 R28/1500 R27/2000 R29R/2000 R29L/2000 BR SCT030 OVC080 15/15 Q1020 NOSIG=
202412281500 METAR VIDP 281500Z 30003KT 1200 R28/1500 R27/2000 R29R/2000 R29L/2000 BR SCT030 OVC080 15/15 Q1020 NOSIG=
202412281530 METAR VIDP 281530Z 26005KT 1200 R28/1500 R27/2000 R29R/2000 R29L/2000 BR SCT030 OVC080 15/15 Q1020 NOSIG=
202412281600 METAR VIDP 281600Z 26003KT 1100 R28/1400 R27/2000 R29R/2000 R29L/1800 BR SCT030 BKN090 15/15 Q1021 NOSIG=
202412281630 METAR VIDP 281630Z 25002KT 1000 R28/1400 R27/2000 R29R/2000 R29L/1900 BR SCT035 BKN090 14/14 Q1021 BECMG 0800 MIFG=
202412281700 METAR VIDP 281700Z 27005KT 0800 R28/1300 R27/2000 R29R/2000 R29L/1700 MIFG SCT035 BKN090 14/14 Q1021 NOSIG=
202412281730 METAR VIDP 281730Z 26003KT 0700 R28/1400 R27/2000 R29R/2000 R29L/1800 MIFG SCT035 BKN090 14/14 Q1021 BECMG 0600 MIFG=
202412281800 METAR VIDP 281800Z 27003KT 0600 R28/1200 R27/2000 R29R/2000 R29L/1200 MIFG SCT035 BKN090 14/14 Q1021 NOSIG=
202412281830 METAR VIDP 281830Z 27006KT 0600 R28/1300 R27/2000 R29R/2000 R29L/1700 MIFG SCT035 BKN090 14/14 Q1020 NOSIG=
202412281900 METAR VIDP 281900Z 28005KT 0600 R28/1300 R27/2000 R29R/2000 R29L/2000 MIFG SCT035 BKN090 14/14 Q1020 NOSIG=
202412281930 METAR VIDP 281930Z 29005KT 0600 R28/1400 R27/2000 R29R/2000 R29L/1800 MIFG SCT035 BKN090 14/14 Q1020 NOSIG=
202412282000 METAR VIDP 282000Z 30005KT 0700 R28/1400 R27/2000 R29R/2000 R29L/2000 MIFG SCT035 BKN090 14/14 Q1020 BECMG 0800 MIFG=
202412282030 METAR VIDP 282030Z 30005KT 0800 R28/1500 R27/2000 R29R/2000 R29L/2000 MIFG SCT035 BKN090 14/14 Q1020 NOSIG=
202412282100 METAR VIDP 282100Z 28007KT 0800 R28/1500 R27/2000 R29R/2000 R29L/2000 MIFG SCT035 BKN100 14/14 Q1019 NOSIG=
202412282130 METAR VIDP 282130Z 32004KT 0800 R28/1500 R27/2000 R29R/2000 R29L/2000 MIFG SCT035 BKN100 14/14 Q1020 NOSIG=
202412282200 METAR VIDP 282200Z 31005KT 0800 R28/1400 R27/2000 R29R/2000 R29L/2000 MIFG SCT035 BKN100 14/14 Q1020 NOSIG=
202412282230 METAR VIDP 282230Z 32004KT 0800 R28/1500 R27/2000 R29R/2000 R29L/2000 MIFG SCT035 BKN100 14/14 Q1020 NOSIG=
202412282300 METAR VIDP 282300Z 29007KT 0800 R28/1600 R27/2000 R29R/2000 R29L/2000 MIFG SCT035 BKN100 14/13 Q1019 NOSIG=
202412282330 METAR VIDP 282330Z 29006KT 0800 R28/1500 R27/2000 R29R/2000 R29L/2000 MIFG SCT035 BKN100 14/13 Q1019 NOSIG=
202412290000 METAR VIDP 290000Z 29005KT 0800 R28/1500 R27/2000 R29R/2000 R29L/2000 MIFG SCT035 BKN100 14/13 Q1020 NOSIG=
202412290030 METAR VIDP 290030Z 29004KT 0800 R28/1500 R27/2000 R29R/2000 R29L/2000 MIFG SCT035 BKN100 14/13 Q1020 NOSIG=
202412290100 METAR VIDP 290100Z 30005KT 0800 R28/1500 R27/2000 R29R/2000 R29L/2000 MIFG SCT035 BKN100 14/13 Q1020 NOSIG=
202412290130 METAR VIDP 290130Z 30005KT 0800 R28/1500 R27/2000 R29R/2000 R29L/2000 MIFG SCT035 BKN100 14/13 Q1020 NOSIG=
202412290200 METAR VIDP 290200Z 26005KT 0800 R28/1200 R27/2000 R29R/2000 R29L/1600 MIFG SCT035 BKN100 14/13 Q1021 NOSIG=
202412290230 METAR VIDP 290230Z 25007KT 0800 R28/1000 R27/2000 R29R/2000 R29L/1300 MIFG SCT035 BKN100 13/13 Q1022 BECMG 0600 MIFG=
202412290300 METAR VIDP 290300Z 27007KT 0500 R28/0900 R27/2000 R29R/1600 R29L/1100 MIFG FEW035 SCT100 13/12 Q1022 BECMG 0350 FG=
202412290330 METAR VIDP 290330Z 27006KT 0350 R28/0800 R27/2000 R29R/1600 R29L/1100 FG FEW100 13/12 Q1022 NOSIG=
202412290400 METAR VIDP 290400Z 26006KT 0500 R28/0800 R27/2000 R29R/1600 R29L/1100 MIFG NSC 13/12 Q1022 BECMG 0600 MIFG=
202412290430 METAR VIDP 290430Z 30005KT 0700 R28/0800 R27/2000 R29R/1700 R29L/1200 MIFG NSC 13/12 Q1022 BECMG 0800 MIFG=
202412290500 METAR VIDP 290500Z 29004KT 0800 R28/0800 R27/2000 R29R/1700 R29L/1200 MIFG FEW035 SCT100 14/12 Q1022 NOSIG=
202412290530 METAR VIDP 290530Z 29004KT 0800 R28/0800 R27/2000 R29R/1700 R29L/1200 MIFG FEW035 SCT100 14/12 Q1022 NOSIG=
202412290600 METAR VIDP 290600Z 26006KT 0800 R28/0800 R27/2000 R29R/2000 R29L/1600 MIFG FEW035 SCT100 15/12 Q1022 NOSIG=
202412290630 METAR VIDP 290630Z 27006KT 0800 R28/0800 R27/2000 R29R/1700 R29L/1500 MIFG FEW035 SCT100 15/12 Q1021 NOSIG=
202412290700 METAR VIDP 290700Z 27007KT 0900 R28/0900 R27/2000 R29R/2000 R29L/1600 MIFG FEW035 SCT100 15/12 Q1021 NOSIG=
202412290730 METAR VIDP 290730Z 27007KT 0900 R28/0900 R27/2000 R29R/2000 R29L/1500 MIFG FEW035 SCT100 14/11 Q1021 NOSIG=
202412290800 METAR VIDP 290800Z 27008KT 0900 R28/0900 R27/2000 R29R/2000 R29L/1600 MIFG FEW035 SCT100 13/11 Q1021 NOSIG=
202412290830 METAR VIDP 290830Z 28010KT 0800 R28/0800 R27/2000 R29R/2000 R29L/1900 MIFG FEW035 SCT100 13/11 Q1020 NOSIG=
202412290900 METAR VIDP 290900Z 27009KT 0800 R28/0800 R27/2000 R29R/2000 R29L/1600 MIFG FEW035 SCT100 13/11 Q1020 NOSIG=
202412290930 METAR VIDP 290930Z 27011KT 0800 R28/0800 R27/2000 R29R/2000 R29L/1800 MIFG FEW035 SCT100 13/11 Q1020 NOSIG=
202412291000 METAR VIDP 291000Z 28010KT 0800 R28/0800 R27/2000 R29R/2000 R29L/1800 MIFG FEW035 SCT100 13/11 Q1020 NOSIG=
202412291030 METAR VIDP 291030Z 28010KT 0800 R28/0900 R27/2000 R29R/2000 R29L/1800 MIFG FEW035 SCT100 13/11 Q1020 NOSIG=
202412291100 METAR VIDP 291100Z 29009KT 0800 R28/0900 R27/2000 R29R/2000 R29L/2000 MIFG FEW035 SCT100 13/11 Q1020 NOSIG=
202412291130 METAR VIDP 291130Z 28007KT 0900 R28/1000 R27/2000 R29R/P2000 R29L/2000 MIFG FEW035 SCT100 13/11 Q1020 NOSIG=
202412291200 METAR VIDP 291200Z 27009KT 1100 R28/1200 R27/2000 R29R/P2000 R29L/2000 BR SCT100 12/11 Q1020 NOSIG=
202412291230 METAR VIDP 291230Z 27008KT 1400 R28/1600 R27/2000 R29R/P2000 R29L/2000 BR SCT100 12/11 Q1020 BECMG 1500 BR=
202412291300 METAR VIDP 291300Z 27009KT 1500 R28/1600 R27/2000 R29R/P2000 R29L/2000 BR SCT100 12/11 Q1020 NOSIG=
202412291330 METAR VIDP 291330Z 27010KT 1500 R28/1600 R27/2000 R29R/P2000 R29L/2000 BR SCT100 12/11 Q1021 NOSIG=
202412291400 METAR VIDP 291400Z 27010KT 1500 R28/1500 R27/2000 R29R/P2000 R29L/2000 BR FEW100 12/11 Q1021 NOSIG=
202412291430 METAR VIDP 291430Z 26008KT 1500 R28/1600 R27/2000 R29R/2000 R29L/2000 BR FEW100 12/11 Q1021 NOSIG=
202412291500 METAR VIDP 291500Z 28008KT 1500 R28/1500 R27/2000 R29R/2000 R29L/2000 BR SCT100 11/11 Q1021 NOSIG=
202412291530 METAR VIDP 291530Z 28008KT 1500 R28/1500 R27/2000 R29R/2000 R29L/2000 BR BKN100 11/11 Q1021 NOSIG=
202412291600 METAR VIDP 291600Z 28007KT 1400 R28/1400 R27/2000 R29R/2000 R29L/2000 BR BKN100 11/11 Q1021 NOSIG=
202412291630 METAR VIDP 291630Z 28007KT 1300 R28/1400 R27/2000 R29R/2000 R29L/2000 BR BKN100 11/11 Q1021 NOSIG=
202412291700 METAR VIDP 291700Z 27007KT 1300 R28/1500 R27/2000 R29R/2000 R29L/2000 BR BKN100 11/11 Q1021 NOSIG=
202412291730 METAR VIDP 291730Z 27006KT 1300 R28/1500 R27/2000 R29R/2000 R29L/2000 BR BKN100 11/11 Q1021 NOSIG=
202412291800 METAR VIDP 291800Z 27006KT 1300 R28/1500 R27/2000 R29R/2000 R29L/2000 BR BKN100 11/11 Q1021 NOSIG=
202412291830 METAR VIDP 291830Z 28008KT 1200 R28/1400 R27/2000 R29R/2000 R29L/2000 BR BKN100 11/11 Q1021 NOSIG=
202412291900 METAR COR VIDP 291900Z 28007KT 1200 R28/1400 R27/2000 R29R/2000 R29L/2000 BR SCT100 11/11 Q1020 NOSIG=
202412291930 METAR VIDP 291930Z 30007KT 1200 R28/1400 R27/2000 R29R/2000 R29L/2000 BR SCT100 12/11 Q1020 NOSIG=
202412292000 METAR VIDP 292000Z 27007KT 1200 R28/1400 R27/2000 R29R/2000 R29L/2000 BR BKN100 12/12 Q1020 NOSIG=
202412292030 METAR VIDP 292030Z 29005KT 1200 R28/1500 R27/2000 R29R/2000 R29L/2000 BR BKN100 12/12 Q1020 NOSIG=
202412292100 METAR VIDP 292100Z 29006KT 1200 R28/1600 R27/2000 R29R/2000 R29L/2000 BR BKN100 12/12 Q1019 NOSIG=
202412292130 METAR VIDP 292130Z 29007KT 1200 R28/1600 R27/2000 R29R/2000 R29L/2000 BR BKN100 12/12 Q1019 NOSIG=
202412292200 METAR VIDP 292200Z 29007KT 1400 R28/1700 R27/2000 R29R/2000 R29L/2000 BR BKN100 12/12 Q1019 BECMG 1500 BR=
202412292230 METAR VIDP 292230Z 28007KT 1500 R28/1600 R27/2000 R29R/2000 R29L/2000 BR BKN100 12/12 Q1019 NOSIG=
202412292300 METAR VIDP 292300Z 28007KT 1500 R28/1600 R27/2000 R29R/2000 R29L/2000 BR BKN100 12/12 Q1019 NOSIG=
202412292330 METAR VIDP 292330Z 27008KT 1500 R28/1600 R27/2000 R29R/2000 R29L/2000 BR SCT100 12/12 Q1018 NOSIG=
202412300000 METAR VIDP 300000Z 27007KT 1500 R28/1600 R27/2000 R29R/2000 R29L/2000 BR SCT100 12/12 Q1018 NOSIG=
202412300030 METAR VIDP 300030Z 28008KT 1500 R28/1600 R27/2000 R29R/2000 R29L/2000 BR SCT100 11/11 Q1019 NOSIG=
202412300100 METAR VIDP 300100Z 28008KT 1500 R28/1600 R27/2000 R29R/2000 R29L/2000 BR SCT100 11/11 Q1019 NOSIG=
202412300130 METAR VIDP 300130Z 27007KT 1500 R28/1600 R27/1900 R29R/2000 R29L/2000 BR SCT100 10/10 Q1019 NOSIG=
202412300200 METAR VIDP 300200Z 27007KT 1200 R28/1200 R27/2000 R29R/2000 R29L/2000 BR NSC 10/10 Q1020 NOSIG=
202412300230 METAR VIDP 300230Z 26008KT 1100 R28/1100 R27/2000 R29R/2000 R29L/2000 BR NSC 10/10 Q1020 NOSIG=
202412300300 METAR VIDP 300300Z 27008KT 1000 R28/1000 R27/2000 R29R/2000 R29L/1700 BR NSC 10/10 Q1021 NOSIG=
202412300330 METAR VIDP 300330Z 28006KT 0900 R28/0900 R27/2000 R29R/2000 R29L/1600 MIFG NSC 10/10 Q1021 TEMPO 0800 MIFG=
202412300400 METAR VIDP 300400Z 26006KT 0900 R28/0900 R27/2000 R29R/2000 R29L/1600 MIFG NSC 10/10 Q1021 TEMPO 0800 MIFG=
202412300430 METAR VIDP 300430Z 26007KT 0800 R28/0800 R27/2000 R29R/2000 R29L/1600 MIFG NSC 11/10 Q1022 NOSIG=
202412300500 METAR VIDP 300500Z 26006KT 0800 R28/0800 R27/2000 R29R/2000 R29L/1700 MIFG NSC 11/10 Q1022 NOSIG=
202412300530 METAR VIDP 300530Z 26007KT 0800 R28/0800 R27/2000 R29R/2000 R29L/1500 MIFG NSC 11/10 Q1022 NOSIG=
202412300600 METAR VIDP 300600Z 28007KT 0800 R28/0800 R27/2000 R29R/2000 R29L/1900 MIFG SCT100 11/10 Q1022 NOSIG=
202412300630 METAR VIDP 300630Z 28007KT 0800 R28/0800 R27/2000 R29R/2000 R29L/2000 MIFG FEW035 SCT100 11/10 Q1021 NOSIG=
202412300700 METAR VIDP 300700Z 27005KT 0800 R28/0800 R27///// R29R/2000 R29L/1900 MIFG FEW035 SCT100 12/10 Q1021 NOSIG=
202412300730 METAR VIDP 300730Z 26005KT 0800 R28/0800 R27/2000 R29R/2000 R29L/1900 MIFG FEW035 SCT100 12/10 Q1020 NOSIG=
202412300800 METAR VIDP 300800Z 26006KT 0800 R28/0800 R27/2000 R29R/2000 R29L/1800 MIFG FEW035 SCT100 12/10 Q1020 NOSIG=
202412300830 METAR VIDP 300830Z 26007KT 0800 R28/0800 R27/2000 R29R/P2000 R29L/2000 MIFG FEW035 SCT100 13/11 Q1020 NOSIG=
202412300900 METAR VIDP 300900Z 28008KT 0800 R28/0800 R27/2000 R29R/P2000 R29L/2000 MIFG FEW035 SCT100 13/10 Q1020 NOSIG=
202412300930 METAR VIDP 300930Z 28006KT 0800 R28/0800 R27/2000 R29R/P2000 R29L/2000 MIFG FEW035 SCT100 13/10 Q1020 NOSIG=
202412301000 METAR VIDP 301000Z 27006KT 0800 R28/0900 R27/2000 R29R/P2000 R29L/2000 MIFG FEW035 SCT100 13/10 Q1020 NOSIG=
202412301030 METAR VIDP 301030Z 26006KT 0800 R28/0900 R27/2000 R29R/P2000 R29L/1800 MIFG FEW035 SCT100 12/10 Q1019 NOSIG=
202412301100 METAR VIDP 301100Z 28005KT 0800 R28/0900 R27/2000 R29R/P2000 R29L/1700 MIFG FEW035 SCT100 12/10 Q1019 NOSIG=
202412301130 METAR VIDP 301130Z 26005KT 1000 R28/1000 R27/2000 R29R/2000 R29L/2000 BR FEW035 SCT100 12/11 Q1020 NOSIG=
202412301200 METAR VIDP 301200Z 26005KT 1100 R28/1100 R27/2000 R29R/2000 R29L/2000 BR SCT100 11/11 Q1020 NOSIG=
202412301230 METAR VIDP 301230Z 27003KT 1200 R28/1600 R27/2000 R29R/2000 R29L/2000 BR FEW100 11/10 Q1020 BECMG 1500 BR=
202412301300 METAR VIDP 301300Z 25003KT 1500 R28/1600 R27/2000 R29R/2000 R29L/2000 BR FEW100 11/10 Q1020 NOSIG=
202412301330 METAR VIDP 301330Z 24002KT 1500 R28/1600 R27/2000 R29R/2000 R29L/2000 BR FEW100 11/10 Q1020 NOSIG=
202412301400 METAR VIDP 301400Z 25003KT 1500 R28/1500 R27/2000 R29R/2000 R29L/2000 BR FEW100 11/10 Q1020 NOSIG=
202412301430 METAR VIDP 301430Z 29002KT 1500 R28/1600 R27/2000 R29R/2000 R29L/2000 BR FEW100 10/09 Q1020 NOSIG=
202412301500 METAR VIDP 301500Z 27003KT 1500 R28/1600 R27/2000 R29R/2000 R29L/2000 BR FEW100 10/09 Q1020 NOSIG=
202412301530 METAR VIDP 301530Z 29003KT 1500 R28/1500 R27/2000 R29R/2000 R29L/2000 BR FEW100 10/09 Q1021 NOSIG=
202412301600 METAR VIDP 301600Z 24002KT 1300 R28/1400 R27/2000 R29R/2000 R29L/2000 BR FEW100 10/09 Q1021 NOSIG=
202412301630 METAR VIDP 301630Z 00000KT 1300 R28/1500 R27/2000 R29R/2000 R29L/2000 BR FEW100 10/09 Q1020 NOSIG=
202412301700 METAR VIDP 301700Z 00000KT 1300 R28/1400 R27/2000 R29R/2000 R29L/2000 BR FEW100 09/08 Q1020 NOSIG=
202412301730 METAR VIDP 301730Z 00000KT 1300 R28/1400 R27/2000 R29R/2000 R29L/2000 BR FEW100 09/08 Q1020 NOSIG=
202412301800 METAR VIDP 301800Z 00000KT 1300 R28/1500 R27/2000 R29R/2000 R29L/2000 BR FEW100 10/09 Q1021 NOSIG=
202412301830 METAR VIDP 301830Z VRB02KT 1300 R28/1500 R27/2000 R29R/2000 R29L/2000 BR SCT100 11/10 Q1020 NOSIG=
202412301900 METAR VIDP 301900Z 00000KT 1300 R28/1500 R27/2000 R29R/2000 R29L/2000 BR SCT100 11/09 Q1020 NOSIG=
202412301930 METAR VIDP 301930Z 30003KT 1300 R28/1500 R27/2000 R29R/2000 R29L/2000 BR SCT100 11/09 Q1020 NOSIG=
202412302000 METAR VIDP 302000Z 30003KT 1300 R28/1500 R27/2000 R29R/2000 R29L/2000 BR SCT100 11/09 Q1021 NOSIG=
202412302030 METAR VIDP 302030Z 24003KT 1400 R28/1600 R27/2000 R29R/2000 R29L/2000 BR SCT100 11/09 Q1021 BECMG 1500 BR=
202412302100 METAR VIDP 302100Z 25003KT 1500 R28/1500 R27/2000 R29R/2000 R29L/2000 BR FEW035 SCT100 10/09 Q1020 NOSIG=
202412302130 METAR VIDP 302130Z 35004KT 1500 R28/1500 R27/2000 R29R/2000 R29L/2000 BR FEW035 SCT100 10/09 Q1020 NOSIG=
202412302200 METAR VIDP 302200Z 03004KT 1500 R28/1600 R27/2000 R29R/2000 R29L/2000 BR FEW035 SCT100 10/08 Q1020 NOSIG=
202412302230 METAR VIDP 302230Z 07002KT 1500 R28/1600 R27/2000 R29R/2000 R29L/2000 BR FEW035 SCT100 10/09 Q1020 NOSIG=
202412302300 METAR VIDP 302300Z 05003KT 1500 R28/1600 R27/2000 R29R/2000 R29L/2000 BR FEW035 SCT100 10/09 Q1020 NOSIG=
202412302330 METAR VIDP 302330Z 03003KT 1500 R28/1600 R27/2000 R29R/2000 R29L/2000 BR FEW035 SCT100 10/09 Q1020 NOSIG=
